facilityName;streetAdress;city;state;zipCode;publicPhone
ADAMSTOWN AREA LIBRARY;3000 NORTH READING RD;ADAMSTOWN;PA;19501;7174844200
ALIQUIPPA POST OFFICE;517 FRANKLIN AVE;ALIQUIPPA;PA;15001;7243780692
ALLENTOWN MAIN OFFICE;442 W HAMILTON ST;ALLENTOWN;PA;18101;6108218450
LEHIGH COUNTY CLERK OF JUDICIAL RECORDS;455 W HAMILTON ST;ALLENTOWN;PA;18101;6107823148
ALLISON PARK POST OFFICE;4746 WILLIAM FLYNN HIGHWAY;ALLISON PARK;PA;15101;4124865729
ALTOONA MAIN POST OFFICE;1201 11TH AVENUE;ALTOONA;PA;16601;8149414720
APOLLO MEMORIAL LIBRARY;219 NORTH PENNSYLVANIA AVE;APOLLO;PA;15613;7244784214
ARDMORE MAIN POST OFFICE;30 ARDMORE AVE.;ARDMORE;PA;19003;4844131123
BADEN POST OFFICE;398 STATE STREET;BADEN;PA;15005;7248692145
BALA CYNWYD POST OFFICE;1 UNION AVENUE;BALA CYNWYD;PA;19004;6106678035
BANGOR POST OFFICE;212 S. FIRST ST.;BANGOR;PA;18013;6105883495
BEAVER COUNTY PROTHONOTARYS OFFICE;810 3RD ST.;BEAVER;PA;15009;7247704571
BEAVER POST OFFICE;777 CORPORATION ST;BEAVER;PA;15009;7247750069
BEAVER FALLS POST OFFICE;720 11TH STREET;BEAVER FALLS;PA;15010;7248462428
BEDFORD POST OFFICE;201 S. JULIANA STREET;BEDFORD;PA;15522;8146239116
CENTRE COUNTY PROTHONOTARYS;102 S ALLEGHENY STREET;BELLEFONTE;PA;16823;8143556796
BENSALEM BRANCH LIBRARY;3700 HULMEVILLE ROAD;BENSALEM;PA;19020;2156382030
EASTTOWN LIBRARY AND INFORMATION CENTER;720 FIRST AVE;BERWYN;PA;19312;6106440138
BETHEL PARK POST OFFICE;2765 SOUTH PARK ROAD;BETHEL PARK;PA;15102;4128357129
BETHLEHEM MAIN POST OFFICE;535 WOOD ST.;BETHLEHEM;PA;18016;6108660911
LEHIGH VALLEY RETAIL UNIT;17 S COMMERCE WAY;BETHLEHEM;PA;18002;6108823247
BIRDSBORO POST OFFICE;340 WEST MAIN STREET;BIRDSBORO;PA;19508;6105822301
BLAIRSVILLE POST OFFICE;24 S WALNUT ST;BLAIRSVILLE;PA;15717;7244596740
BLAKESLEE POST OFFICE;5677 ROUTE 115;BLAKESLEE;PA;18610;5706468997
COLUMBIA COUNTY PROTHONOTARYS OFFICE;35 W MAIN ST;BLOOMSBURG;PA;17815;5703895614
BLUE BELL POST OFFICE;651 EAST TOWNSHIP LINE ROAD;BLUE BELL;PA;19422;2155910585
BOYERTOWN COMMUNITY LIBRARY;24 N READING AVENUE;BOYERTOWN;PA;19512;6103690496
BOYERTOWN POST OFFICE;128 SOUTH WASHINGTON STREET;BOYERTOWN;PA;19512;6103672262
BRADFORD POST OFFICE;115 BOYLSTON ST;BRADFORD;PA;16701;8143624576
BRIDGEVILLE POST OFFICE;700 WASHINGTON AVE.;BRIDGEVILLE;PA;15017;4122216186
BROOKVILLE POST OFFICE;67 WHITE STREET;BROOKVILLE;PA;15825;8148498359
JEFFERSON COUNTY PROTHONOTARY;JEFFERSON COUNTY COURTHOUSE;BROOKVILLE;PA;15825;8148491606
BROOMALL POST OFFICE;2628 WEST CHESTER PIKE;BROOMALL;PA;19008;6103254812
BRYN MAWR MAIN POST OFFICE;16 NORTH BRYN MAWR AVE;BRYN MAWR;PA;19010;6105252201
BUTLER COUNTY PROTHONOTARYS OFFICE;300 S MAIN STREET;BUTLER;PA;16001;7242845214
BUTLER POST OFFICE;345 SOUTH MAIN STREET;BUTLER;PA;16001;7242146000
CAMBRIDGE SPRINGS POST OFFICE;332 VENANGO AVENUE;CAMBRIDGE SPRINGS;PA;16403;8143982114
CAMP HILL POST OFFICE;1675 CAMP HILL BY-PASS;CAMP HILL;PA;17011;7177371461
CARBONDALE MAIN POST OFFICE;50 DUNDAFF STREET;CARBONDALE;PA;18407;5702824260
CARLISLE POST OFFICE;66 W LOUTHER STREET;CARLISLE;PA;17013;7172433531
CUMBERLAND COUNTY PROTHONOTARYS OFFICE;1 COURTHOUSE SQUARE - COURTHOUSE SQUARE -STE 100;CARLISLE;PA;17013;7172406195
CATASAUQUA POST OFFICE;205 BRIDGE ST;CATASAUQUA;PA;18032;6102642681
CENTER VALLEY POST OFFICE;5800 RTE. 378;CENTER VALLEY;PA;18034;6102823827
CHAMBERSBURG POST OFFICE;308 LINCOLN WAY EAST;CHAMBERSBURG;PA;17201;7172638581
CHARLEROI POST OFFICE;600 MCKEAN AVE;CHARLEROI;PA;15022;7244830381
CHESTER MAIN POST OFFICE;400 EDGEMONT AVE;CHESTER;PA;19013;6108761265
CLARION COUNTY PROTHONOTARYS OFFICE;421 MAIN STREET, STE 25;CLARION;PA;16214;8142261119
CLARION FREE LIBRARY;644 MAIN ST;CLARION;PA;16214;8142267172
CLARKS SUMMIT MAIN POST OFFICE;117 SOUTH STATE ST.;CLARKS SUMMIT;PA;18411;5705860316
CLEARFIELD POST OFFICE;118 NORTH 2ND STREET;CLEARFIELD;PA;16830;8147655671
CLIFTON HEIGHTS POST OFFICE;135 SOUTH SPRINGFIELD ROAD;CLIFTON HEIGHTS;PA;19018;6106225926
CONNELLSVILLE POST OFFICE;115 N. ARCH STREET;CONNELLSVILLE;PA;15425;7246287296
CORAOPOLIS POST OFFICE;1140 THORN RUN RD;CORAOPOLIS;PA;15108;4122644629
CRANBERRY TOWNSHIP POST OFFICE;240 EXECUTIVE DRIVE;CRANBERRY TOWNSHIP;PA;16066;7247791101
CRANESVILLE POST OFFICE;10283 CRANE STREET;CRANESVILLE;PA;16410;8147564168
CURWENSVILLE POST OFFICE;525 STATE STREET;CURWENSVILLE;PA;16833;8142360461
DALLAS POST OFFICE;2759 MEMORIAL HIGHWAY;DALLAS;PA;18612;5706750131
DALLASTOWN POST OFFICE;61 NORTH WALNUT STREET;DALLASTOWN;PA;17313;7172442555
MONTOUR COUNTY PROTHONOTARYS OFFICE;253 MILL ST;DANVILLE;PA;17821;5702713010
DELMONT POST OFFICE;48 GREENSBURG STREET;DELMONT;PA;15626;7244685236
DOWNINGTOWN POST OFFICE;470 BOOT ROAD;DOWNINGTOWN;PA;19335;6102696856
BUCKS COUNTY PROTHONOTARYS OFFICE;100 NORTH MAIN STREET;DOYLESTOWN;PA;18901;2153486191
DREXEL HILL MPO;698 BURMONT ROAD;DREXEL HILL;PA;19026;6106226428
EAST BERLIN MPO;214 SOUTH 3RD STREET;EAST BERLIN;PA;17316;7172597682
EAST STROUDSBURG POST OFFICE;200 S COURTLAND ST;EAST STROUDSBURG;PA;18301;5704213310
EASTON MAIN POST OFFICE;201 FERRY ST;EASTON;PA;18042;6102534151
EASTON POST OFFICE - PALMER BRANCH;650 S GREENWOOD RD;EASTON;PA;18045;6102529964
NORTHAMPTON COUNTY PROTHONOTARYS OFFICE;669 WASHINGTON ST;EASTON;PA;18042;6108296457
CAMBRIA COUNTY PROTHONOTARYS OFFICE;200 S CENTER ST;EBENSBURG;PA;15931;8144721638
ELIZABETHTOWN PUBLIC LIBRARY;10 SOUTH MARKET STREET;ELIZABETHTOWN;PA;17022;7173677467
ELKINS PARK POST OFFICE;1800 ASHBOURNE RD;ELKINS PARK;PA;19027;2158871751
ELLWOOD CITY POST OFFICE;320 7TH STREET;ELLWOOD CITY;PA;16117;7247587531
CAMERON COUNTY COURTHOUSE;20 E 5TH ST;EMPORIUM;PA;15834;8144863349
EPHRATA PUBLIC LIBRARY;550 SOUTH  READING RD;EPHRATA;PA;17522;7177389291
ERIE GMF;2108 E 38TH ST;ERIE;PA;16515;8148987373
PRESQUE ISLE BRANCH POST OFFICE;2711 LEGION ROAD;ERIE;PA;16506;8148331018
EVERETT POST OFFICE;17 E MAIN ST;EVERETT;PA;15537;8146522525
EXTON USPO;430 EXTON SQUARE PKWY;EXTON;PA;19341;6103631278
FAIRVIEW POST OFFICE;3856 AVONIA ROAD;FAIRVIEW;PA;16415;8144745119
FAYETTEVILLE POST OFFICE;4025 LINCOLN WAY EAST;FAYETTEVILLE;PA;17222;7173522022
FORD CITY MAIN POST OFFICE;824 4TH AVE;FORD CITY;PA;16226;7247638021
FORT WASHINGTON POST OFFICE;575 PINETOWN RD;FORT WASHINGTON;PA;19034;2156460952
FRANKLIN POST OFFICE;1202 ELK STREET;FRANKLIN;PA;16323;8144324018
FREDONIA POST OFFICE;161 SECOND STREET;FREDONIA;PA;16124;7244752161
FREEPORT POST OFFICE;415 HIGH STREET;FREEPORT;PA;16229;7242952211
GENESEE POST OFFICE;276 MAIN STREET;GENESEE;PA;16923;8142283237
ADAMS COUNTY PROTHONOTARYS;117 BALTIMORE STREET RM 104;GETTYSBURG;PA;17325;7173379834
GETTYSBURG POST OFFICE;115 BUFORD AVENUE;GETTYSBURG;PA;17325;7173373325
GIBSONIA POST OFFICE;4098 GIBSONIA ROAD;GIBSONIA;PA;15044;7244433999
GLENMOORE POST OFFICE;560 FAIRVIEW ROAD;GLENMOORE;PA;19343;6109420313
GLENSHAW POST OFFICE;1541 BUTLER PLANK ROAD;GLENSHAW;PA;15116;4124863128
GOULDSBORO POST OFFICE;546 MAIN STREET;GOULDSBORO;PA;18424;5708427191
LILIAN S BESORE MEMORIAL LIBRARY;305 EAST BALTIMORE STREET;GREENCASTLE;PA;17225;7175977920
GREENSBURG POST OFFICE;238 S PENNSYLVANIA AVE;GREENSBURG;PA;15601;7248374187
WESTMORELAND COUNTY PROTHONOTARY;2 NORTH MAIN ST;GREENSBURG;PA;15601;7248303502
GROVE CITY MAIN POST OFFICE;117 E. PINE STREET;GROVE CITY;PA;16127;7248079020
HAMBURG POST OFFICE;50 N. 3RD STREET;HAMBURG;PA;19526;6105627812
SALEM PUBLIC LIBRARY;518  EASTON TURNPIKE;HAMLIN;PA;18427;5706890903
HANOVER POST OFFICE;18 HIGH STREET;HANOVER;PA;17331;7176375496
DAUPHIN COUNTY PROTHONOTARYS OFFICE;101 MARKET ST;HARRISBURG;PA;17101;7177806520
HARRISBURG MAIN POST OFFICE;1425 CROOKED HILL ROAD;HARRISBURG;PA;17107;7172572361
HAWLEY PUBLIC LIBRARY;103 MAIN AVE;HAWLEY;PA;18428;5702264620
HAZLETON POST OFFICE;231 N. WYOMING STREET;HAZLETON;PA;18201;5704555851
BLAIR COUNTY PROTHONOTARYS OFFICE;423 ALLEGHENY ST, SUITE 144;HOLLIDAYSBURG;PA;16648;8146933080
HOMESTEAD POST OFFICE;601 E. 8TH AVENUE;HOMESTEAD;PA;15120;4124610452
WAYNE COUNTY PROTHONOTARY;925 COURT ST;HONESDALE;PA;18431;5702535970
HORSHAM POST OFFICE;575 HORSHAM ROAD - UNIT D38;HORSHAM;PA;19044;2156724780
HUGHESVILLE POST OFFICE;44 NORTH  MAIN STREET;HUGHESVILLE;PA;17737;5705842590
HUNTINGDON COUNTY CLERK OF COURT;223 PENN ST;HUNTINGDON;PA;16652;8146431610
HUNTINGDON POST OFFICE;401 WASHINGTON STREET;HUNTINGDON;PA;16652;8146434430
HUNTINGDON VALLEY POST OFFICE;830 WELSH ROAD;HUNTINGDON VALLEY;PA;19006;2159471828
INDIANA COUNTY RECORDER OF DEEDS;825 PHILADELPHIA ST;INDIANA;PA;15701;7244653860
INDIANA MAIN POST OFFICE;47 S 7TH ST;INDIANA;PA;15701;7244654771
INGOMAR POST OFFICE;736 W INGOMAR ROAD;INGOMAR;PA;15127;4123647325
IRWIN POST OFFICE;140 MAIN STREET;IRWIN;PA;15642;7248646790
JENKINTOWN LIBRARY;460 OLD YORK ROAD;JENKINTOWN;PA;19046;2158840593
JERSEY SHORE POST OFFICE;234 ALLEGHENY STREET;JERSEY SHORE;PA;17740;5703981550
CARBON COUNTY PROTHONOTARYS OFFICE;2 BROADWAY;JIM THORPE;PA;18229;5703252481
JOHNSTOWN MAIN POST OFFICE;111 FRANKLIN ST.;JOHNSTOWN;PA;15901;8145336141
KERSEY POST OFFICE;377 MAIN STREET;KERSEY;PA;15846;8148856309
ARMSTRONG COUNTY CLERK OF COURTS;500 E MARKET ST-SUITE 103;KITTANNING;PA;16201;7245483251
KUTZTOWN COMMUNITY LIBRARY;70 BIEBER ALLEY;KUTZTOWN;PA;19530;6106835820
KUTZTOWN POST OFFICE;235 GRIMLEY STREET;KUTZTOWN;PA;19530;6106838331
LANCASTER COUNTY PROTHONOTARYS OFFICE;50 N. DUKE ST;LANCASTER;PA;17608;7172998287
LANCASTER MAIN POST OFFICE;1400 HARRISBURG PIKE;LANCASTER;PA;17604;7173966925
LANCASTER PUBLIC LIBRARY;125 NORTH DUKE ST;LANCASTER;PA;17602;7173942651
MANHEIM TOWNSHIP PUBLIC LIBRARY;595 GRANITE RUN DRIVE;LANCASTER;PA;17601;7175606441
LANSDALE POST OFFICE;20 VINE ST;LANSDALE;PA;19446;2154124983
LANSDOWNE POST OFFICE;45 NORTH UNION AVENUE;LANSDOWNE;PA;19050;4844624304
SULLIVAN COUNTY PROTHONOTARYS OFFICE;245 MUNCY STREET;LAPORTE;PA;18626;5709467351
LATROBE POST OFFICE;811 JEFFERSON STREET;LATROBE;PA;15650;7245370892
LEBANON COUNTY PROTHONOTARYS OFFICE;400 S 8TH ST;LEBANON;PA;17042;7172284418
LEVITTOWN POST OFFICE;7200 NEW FALLS ROAD;LEVITTOWN;PA;19055;2159493132
UNION COUNTY PROTHONOTARYS OFFICE;103 S 2ND ST;LEWISBURG;PA;17837;5705248751
MIFFLIN COUNTY PROTHONOTARYS OFFICE;20 N WAYNE ST;LEWISTOWN;PA;17044;7172488146
LITITZ POST OFFICE;74 EAST MAIN STREET;LITITZ;PA;17543;7176262329
CLINTON COUNTY PROTHONOTARYS OFFICE;230 E WATER ST - COURTHOUSEROOM 103;LOCK HAVEN;PA;17745;5708934007
MACUNGIE POST OFFICE;51 WEST END TRAIL;MACUNGIE;PA;18062;6109663672
MANHEIM POST OFFICE;47 S. MAIN STREET;MANHEIM;PA;17545;7176652122
MARIENVILLE POST OFFICE;107 S. FOREST STREET;MARIENVILLE;PA;16239;8149276630
MARYSVILLE - RYE PUBLIC LIBRARY;198 OVERCREST ROAD;MARYSVILLE;PA;17053;7179572851
MC KEES ROCKS POST OFFICE;807 CHARTIERS AVE;MC KEES ROCKS;PA;15136;4123318172
FULTON COUNTY CLERK OF COURTS;201 N SECOND ST;MCCONNELLSBURG;PA;17233;7174854212
MC KEESPORT POST OFFICE;850 WALNUT ST;MCKEESPORT;PA;15134;4126726844
MCMURRAY POSTAL STORE;3935 WASHINGTON RD;MCMURRAY;PA;15317;7249423421
CRAWFORD COUNTY PROTHONOTARYS OFFICE;359 EAST CENTER ST;MEADVILLE;PA;16335;8143337324
MEADVILLE POST OFFICE;212 ARCH STREET;MEADVILLE;PA;16335;8147245990
DELAWARE COUNTY OFFICE OF JUDICIAL SUPPORT;201 W FRONT ST;MEDIA;PA;19063;6108914967
MERCER COUNTY PROTHONOTARYS OFFICE;105  COURTHOUSE;MERCER;PA;16137;7246623800
SNYDER COUNTY CLERK OF COURTS OFFICE;9 WEST MARKET ST;MIDDLEBURG;PA;17842;5708374202
JUNIATA COUNTY CLERK OF COURTS;BRIDGE AND MAIN STREETS;MIFFLINTOWN;PA;17059;7174367715
PIKE COUNTY PROTHONOTARYS OFFICE;412 BROAD ST - COURTHOUSE;MILFORD;PA;18337;5702967231
PIKE COUNTY PUBLIC LIBRARY - MILFORD BRANCH;119 EAST HARFORD STREET;MILFORD;PA;18337;5702968211
MILL HALL POST OFFICE;15 PENNSYLVANIA AVENUE;MILL HALL;PA;17751;5707264717
MILLERSVILLE POST OFFICE;431 N. GEORGE STREET;MILLERSVILLE;PA;17551;7178725011
MONROEVILLE POST OFFICE;2630 MONROEVILLE BLVD;MONROEVILLE;PA;15146;4123736623
MONTGOMERYVILLE POST OFFICE;411 DOYLESTOWN ROAD;MONTGOMERYVILLE;PA;18936;2158550166
SUSQUEHANNA COUNTY PROTHONOTARYS OFFICE;31 LAKE AVE;MONTROSE;PA;18801;5702784600
MORRISVILLE POST OFFICE;950 W TRENTON AVE;MORRISVILLE;PA;19067;2157360822
MILANOF - SCHOCK LIBRARY;1184 ANDERSON FERRY ROAD;MOUNT JOY;PA;17552;7176531510
MOUNT UNION POST OFFICE;35 WEST MARKET STREET;MOUNT UNION;PA;17066;8145422566
MURRYSVILLE MAIN POST OFFICE;ONE PRIORITY LANE;MURRYSVILLE;PA;15668;7243871772
NANTICOKE POST OFFICE;70 NORTH MARKET STREET;NANTICOKE;PA;18634;5707356540
NARBERTH POST OFFICE;144 NORTH NARBERTH AVENUE;NARBERTH;PA;19072;6106170375
NATRONA HEIGHTS POST OFFICE;1715 UNION AVE;NATRONA HEIGHTS;PA;15065;7242243809
NAZARETH POST OFFICE;9 N. MAIN STREET;NAZARETH;PA;18064;6107593075
NEW BERLIN POST OFFICE;220 VINE STREET;NEW BERLIN;PA;17855;5709662139
RED BANK VALLEY PUBLIC LIBRARY;720 BROAD ST;NEW BETHLEHEM;PA;16242;8142752870
PERRY COUNTY CLERK OF COURTS;2 E MAIN ST CENTRE SQUARE;NEW BLOOMFIELD;PA;17068;7175822131
LAWRENCE COUNTY GOVT CENTER;430 COURT ST;NEW CASTLE;PA;16101;7246562126
NEW CASTLE POST OFFICE GENERAL MAIL FACILITY;435 SOUTH CASCADE STREET;NEW CASTLE;PA;16108;7246567221
NEW KENSINGTON MAIN POST OFFICE;501 11TH STREET;NEW KENSINGTON;PA;15068;7243358174
NEW WILMINGTON PA POST OFFICE;143 W. NESHANNOCK AVE;NEW WILMINGTON;PA;16142;7249462581
NEWVILLE POST OFFICE;57 WEST STREET;NEWVILLE;PA;17241;7177765211
MONTGOMERY COUNTY PROTHONOTARYS OFFICE;MONTGOMERY COUNTY COURTHOUSE;NORRISTOWN;PA;19401;6102783783
NORTH EAST PO;38 S LAKE STREET;NORTH EAST;PA;16428;8147254009
OIL CITY POST OFFICE;302 E  2ND STREET;OIL CITY;PA;16301;8146771266
OXFORD POST OFFICE;215 EAST LOCUST STREET;OXFORD;PA;19363;6109989013
PAOLI POST OFFICE;43 PAOLI PLAZA;PAOLI;PA;19301;6102960648
PARKESBURG POST OFFICE;167 BRANDT STREET;PARKESBURG;PA;19365;6108572973
PATTON POST OFFICE;434 MAGEE AVENUE;PATTON;PA;16668;8146748010
CHESTNUT STREET MAIN PO AT 30TH STREET;3000 CHESTNUT STREET;PHILADELPHIA;PA;19104;2158958827
FOX CHASE POST OFFICE;7232 RISING SUN AVE;PHILADELPHIA;PA;19111;2157428074
MANAYUNK POST OFFICE;4431 MAIN ST;PHILADELPHIA;PA;19127;2154820913
MARKET SQUARE POST OFFICE;7782 CRITTENDEN STREET;PHILADELPHIA;PA;19118;2673233665
NORTHEAST REGIONAL LIBRARY;2228 COTTMAN AVENUE;PHILADELPHIA;PA;19149;2157251740
PASCHALL STATION POST OFFICE;7300 LINDBERGH BLVD;PHILADELPHIA;PA;19153;2153657034
PENNS LANDING POST OFFICE;622 S 4TH STREET;PHILADELPHIA;PA;19147;2159238395
PHILADELPHIA OFFICE OF JUDICIAL RECORDS;CITY HALL, ROOM 284;PHILADELPHIA;PA;19107;2156866664
SNYDER PLAZA RETAIL STORE;58 SNYDER AVE;PHILADELPHIA;PA;19148;2153362860
TORRESDALE STATION POST OFFICE;10380 DRUMMOND RD;PHILADELPHIA;PA;19154;2156323774
WILLIAM PENN RETAIL POST OFFICE;720 ARCH STREET;PHILADELPHIA;PA;19105;2159252131
PHILIPSBURG POST OFFICE;222 E. LAUREL ST.;PHILIPSBURG;PA;16866;8143423201
PHOENIXVILLE PUBLIC LIBRARY;183 SECOND AVENUE;PHOENIXVILLE;PA;19460;6109333013
PIPERSVILLE POST OFFICE;6907 EASTON ROAD;PIPERSVILLE;PA;18947;2157660900
ALLEGHENY COUNTY DEPT OF COURT RECORDS;CITY COUNTY BUILDING;PITTSBURGH;PA;15219;4123506071
BLAWNOX POST OFFICE;1310 OLD FREEPORT ROAD;PITTSBURGH;PA;15238;4129631330
CASTLE SHANNON - MT LEBANON POST OFFICE;370 CASTLE SHANNON BLVD;PITTSBURGH;PA;15234;4125612238
GREENTREE BRANCH POST OFFICE;770 TRUMBULL DR.;PITTSBURGH;PA;15242;4122761698
LIBERTY CENTER STATION;1001 LIBERTY AVE;PITTSBURGH;PA;15222;4122321929
MCKNIGHT BRANCH POST OFFICE;4981 MCKNIGHT RD.;PITTSBURGH;PA;15237;4123647903
PENN HILLS BRANCH POST OFFICE;11650 PENN HILLS DRIVE;PITTSBURGH;PA;15235;4127315987
PLEASANT HILLS- WEST MIFFLIN - POST OFFICE;500 REGIS AVE;PITTSBURGH;PA;15236;4126553836
PORT MATILDA POST OFFICE;109 N HIGH STREET;PORT MATILDA;PA;16870;8146928100
POTTSTOWN REGIONAL PUBLIC LIBRARY;500 E HIGH ST;POTTSTOWN;PA;19464;6109706551
POTTSVILLE POST OFFICE;450 N CENTRE ST;POTTSVILLE;PA;17901;5706226744
SCHUYLKILL COUNTY PROTHONOTARYS OFFICE;401 N SECOND ST;POTTSVILLE;PA;17901;5706281270
PROSPECT POST OFFICE;106 S. FRANKLIN STREET;PROSPECT;PA;16052;7248652000
PUNXSUTAWNEY MAIN POST OFFICE;553 E MAHONING ST;PUNXSUTAWNEY;PA;15767;8149386120
QUAKERTOWN GOVERNMENT SERVICES CENTER;261 CALIFORNIA ROAD;QUAKERTOWN;PA;18951;2155297250
QUAKERTOWN POST OFFICE;165 CALIFORNIA RD;QUAKERTOWN;PA;18951;2155366817
QUARRYVILLE POST OFFICE;220 WEST STATE STREET;QUARRYVILLE;PA;17566;7177862420
QUARRYVILLE PUBLIC LIBRARY;357 BUCK ROAD;QUARRYVILLE;PA;17566;7177861336
BERKS COUNTY PROTHONOTARYS OFFICE;633 COURT STREET;READING;PA;19601;6104786970
GUS YATRON POST OFFICE;2100 N 13TH ST;READING;PA;19612;6109217068
RED LION POST OFFICE;500 N MAIN STREET;RED LION;PA;17356;7172442525
RENOVO POST OFFICE;365 HURON AVENUE;RENOVO;PA;17764;5709231410
REYNOLDSVILLE POST OFFICE;350 E. MAIN STREET;REYNOLDSVILLE;PA;15851;8146538352
RIDGWAY MAIN POST OFFICE;18 SOUTH MILL ST;RIDGWAY;PA;15853;8147734191
RIDLEY PARK POST OFFICE;15 E. FELTON STREET;RIDLEY PARK;PA;19078;6105216107
RIMERSBURG POST OFFICE;689 MAIN ST;RIMERSBURG;PA;16248;8144733115
ROARING SPRING POST OFFICE;427 E. MAIN STREET;ROARING SPRING;PA;16673;8142242013
SAXONBURG POST OFFICE;120 PITTSBURGH ST;SAXONBURG;PA;16056;7243521777
SCRANTON DOWNTOWN STATION;235 N WASHINGTON AVENUE;SCRANTON;PA;18503;5703481024
SCRANTON MAIN POST OFFICE;2800 STAFFORD AVE;SCRANTON;PA;18505;5709695101
SEWICKLEY POST OFFICE;521 THORN STREET;SEWICKLEY;PA;15143;4127411925
SHAMOKIN POST OFFICE;201 E. INDEPENDENCE STREET;SHAMOKIN;PA;17872;5706484686
SHARPSVILLE POST OFFICE;108 E  SHENANGO STREET;SHARPSVILLE;PA;16150;7249627877
SHIPPENSBURG POST OFFICE;46 WEST KING STREET;SHIPPENSBURG;PA;17257;7175322314
SHREWSBURY POST OFFICE;50 CONSTITUTION AVE;SHREWSBURY;PA;17361;7172353012
SINKING SPRING PUBLIC LIBRARY;3940 PENN AVE;SINKING SPRING;PA;19608;6106784311
SLATINGTON POST OFFICE;605 MAIN STREET;SLATINGTON;PA;18080;6107672182
SLIPPERY ROCK POST OFFICE;400 S. MAIN STREET;SLIPPERY ROCK;PA;16057;7247948760
MCKEAN COUNTY RECORDER OF DEEDS;500 WEST MAIN STREET;SMETHPORT;PA;16749;8148873250
SOMERSET COUNTY PROTHONOTARYS OFFICE;111 E UNION STREETSUITE 165;SOMERSET;PA;15501;8144451428
SOMERSET POST OFFICE;201 N CENTER AVE;SOMERSET;PA;15501;8144455600
SOUTHAMPTON POST OFFICE;1050 STREET RD;SOUTHAMPTON;PA;18966;2153576457
SOUTHEASTERN PROCESSING AND DISTRIBUTION CENTER;1000 W VALLEY RD;SOUTHEASTERN;PA;19399;6109646448
STATE COLLEGE MAIN POST OFFICE;237 S FRASER ST.;STATE COLLEGE;PA;16801;8142382437
MONROE COUNTY PROTHONOTARYS OFFICE;610 MONROE ST.;STROUDSBURG;PA;18360;5705173370
SUNBURY POST OFFICE;135 NORTH 3RD ST;SUNBURY;PA;17801;5702867176
SUSQUEHANNA POST OFFICE;1186 MAIN STREET;SUSQUEHANNA;PA;18847;5708533168
FOREST COUNTY CLERK OF COURTS;526 ELM ST  #2;TIONESTA;PA;16353;8147553526
TITUSVILLE POST OFFICE;135 W. SPRING STREET;TITUSVILLE;PA;16354;8148276114
TOWANDA POST OFFICE;700 MAIN ST;TOWANDA;PA;18848;5702655922
TROY POST OFFICE;416 CANTON STREET;TROY;PA;16947;5702973345
WYOMING COUNTY CLERK OF COURTS;1 COURTHOUSE SQUARE;TUNKHANNOCK;PA;18657;5709962232
TYRONE POST OFFICE;1071 PENNSYLVANIA AVE;TYRONE;PA;16686;8146840330
FAYETTE COUNTY PROTHONOTARYS OFFICE;61 E MAIN ST;UNIONTOWN;PA;15401;7244301272
UNIONTOWN POST OFFICE;47 E FAYETTE ST;UNIONTOWN;PA;15401;7244387253
PENN STATE UNIVERSITY;101 HOSTETTER BUILDING;UNIVERSITY PARK;PA;16802;8148657544
UPPER DARBY POST OFFICE;201 BYWOOD AVE;UPPER DARBY;PA;19082;6103525490
VERONA POST OFFICE;620 ALLEGHENY RIVER BLVD;VERONA;PA;15147;4128284709
WARREN COUNTY PROTHONOTARYS OFFICE;204 4TH AVE.;WARREN;PA;16365;8147283440
WARREN MAIN POST OFFICE;210 W 3RD AVE;WARREN;PA;16365;8147231660
WARRINGTON POST OFFICE;1380 EASTON RD SUITE 1;WARRINGTON;PA;18976;2153431591
WASHINGTON MAIN POST OFFICE;153 JEFFERSON AVE;WASHINGTON;PA;15301;7242221709
WATSONTOWN POST OFFICE;316 MAIN STREET;WATSONTOWN;PA;17777;5705385330
WAYMART POST OFFICE;310 HONESDALE ROAD;WAYMART;PA;18472;5704886510
WAYNESBORO POST OFFICE;118 EAST MAIN STREET;WAYNESBORO;PA;17268;7177621513
GREENE COUNTY PROTHONOTARYS OFFICE;10 EAST HIGH STREET, ROOM 105;WAYNESBURG;PA;15370;7248525288
TIOGA COUNTY PROTHONOTARY AND CLERK OF COURTS;116 MAIN ST;WELLSBORO;PA;16901;5707242981
WEST MIDDLESEX POST OFFICE;39 FAIR STREET;WEST  MIDDLESEX;PA;16159;7245289771
CHESTER COUNTY JUSTICE CENTER;201 WEST MARKET STREET;WEST CHESTER;PA;19380;6103446050
WEST CHESTER POST OFFICE;1050 AIRPORT ROAD;WEST CHESTER;PA;19380;6107387638
WESTFIELD POST OFFICE;103 WEST MAIN STREET;WESTFIELD;PA;16950;8143672923
WEXFORD MAIN POST OFFICE;10675 PERRY HIGHWAY;WEXFORD;PA;15090;7249352120
WHITEHALL POST OFFICE;1105 SCHADT AVENUE;WHITEHALL;PA;18052;6102645514
WILKES - BARRE MAIN POST OFFICE;300 SOUTH MAIN STREET;WILKES-BARRE;PA;18701;5708313415
JAMES V BROWN LIBRARY;19 EAST FOURTH STREET;WILLIAMSPORT;PA;17701;5703260536
LYCOMING COUNTY CLERK OF COURTS;48 W THIRD ST;WILLIAMSPORT;PA;17701;5703272251
WILLIAMSPORT POST OFFICE;2901 REACH ROAD;WILLIAMSPORT;PA;17701;5703204107
MONTGOMERY COUNTY PROTHONOTARYS OFFICE-WILLOW GROVE;MONTGOMERY COUNTY COURTHOUSE-EAST ANNEX;WILLOW GROVE;PA;19090;6102783449
WILLOW GROVE POST OFFICE;611 EASTON ROAD;WILLOW GROVE;PA;19090;2156593424
EAST YORK POST OFFICE;3435 CONCORD RD;YORK;PA;17402;7177514650
YORK COUNTY JUDICIAL CENTER;45 N GEORGE ST;YORK;PA;17401;7177719611
YOUNGSVILLE POST OFFICE;39 RAILROAD STREET;YOUNGSVILLE;PA;16371;8145634471
