facilityName;streetAdress;city;state;zipCode;publicPhone
ACWORTH MAIN POST OFFICE;4915 N MAIN ST;ACWORTH;GA;30101;7709668133
ADAIRSVILLE POST OFFICE;10 FINLEY ST.;ADAIRSVILLE;GA;30103;7707733848
WHEELER COUNTY SUPERIOR COURT;16 WEST PEARL ST;ALAMO;GA;30411;9125687137
ALBANY MAIN POST OFFICE;1501 S SLAPPEY BLVD;ALBANY;GA;31701;2298892625
SUPERIOR COURT CLERK ALMA GA;502 W 12TH STREET;ALMA;GA;31510;9126324915
WEBB BRIDGE POST OFFICE;4575 WEBB BRIDGE ROAD;ALPHARETTA;GA;30005;7705699818
SUPERIOR COURT CLERK SUMTER COUNTY;500 WEST LAMAR ST.;AMERICUS;GA;31709;2299284537
TURNER COUNTY SUPERIOR COURT;219 E. COLLEGE STREET;ASHBURN;GA;31714;2295672011
ATHENS - CLARKE COUNTY LIBRARY;2025 BAXTER STREET;ATHENS;GA;30606;7066133650
ATHENS MAIN POST OFFICE;575 OLYMPIC DRIVE;ATHENS;GA;30601;7063693270
UNIVERSITY OF GEORGIA PASSPORT SERVICES;45 BAXTER ST;ATHENS;GA;30602;7065423040
ATLANTA MAIN OFFICE;3900 CROWN ROAD;ATLANTA;GA;30304;4047657292
FULTON COUNTY CLERK OF SUPERIOR COURT;136 PRYOR ST SW;ATLANTA;GA;30303;Â 
FULTON COUNTY SUPERIOR COURT NORTH;7741 ROSWELL ROAD;ATLANTA;GA;30350;4046155755
MIDTOWN PASSPORT ACCEPTANCE FACILITY;1072 WEST PEACHTREE STREET NW;ATLANTA;GA;30309;4047952231
AUGUSTA MAIN POST OFFICE;525 8TH STREET;AUGUSTA;GA;30901;7068233113
DECATUR COUNTY CLERKS OFFICE;112 W WATER ST;BAINBRIDGE;GA;39819;2292483025
BARNESVILLE POST OFFICE;138 FORSYTH STREET;BARNESVILLE;GA;30204;7703580249
APPLING COUNTY CLERK OF  COURT;69 TIPPINS ST;BAXLEY;GA;31513;9123678126
PIERCE COUNTY CLERKS OFFICE;3550 HWY 84;BLACKSHEAR;GA;31516;9124492020
UNION COUNTY SUPERIOR COURT;65 COURTHOUSE STREET, SUITE 5;BLAIRSVILLE;GA;30512;7064396022
SUPERIOR COURT CLERK OF EARLY COUNTY;111 COURT SQUARE;BLAKELY;GA;39823;2297233033
FANNIN COUNTY  CLERK OF SUPERIOR COURT;400 WEST MAIN STREET;BLUE RIDGE;GA;30513;7066322039
BROOKLET  POST OFFICE;129 E LEE ST;BROOKLET;GA;30415;9128422221
BRUNSWICK MAIN;805 GLOUCESTER STREET;BRUNSWICK;GA;31520;9122801250
GLYNN COUNTY SUPERIOR COURT;701 H  STREET;BRUNSWICK;GA;31520;9125547313
BUCHANAN POST OFFICE;368 CARROLLTON ST;BUCHANAN;GA;30113;7706463827
GWINNETT COUNTY PUBLIC LIBRARY;2100 BUFORD HIGHWAY;BUFORD;GA;30518;7709785154
CLERK SUPERIOR COURT GRADY COUNTY;250 NORTH BROAD STREET;CAIRO;GA;39828;2293772912
CALHOUN POST OFFICE;401 COURT STREET;CALHOUN;GA;30701;7066292269
CLERK SUPERIOR COURT MITCHELL COUNTY GEORGIA;11 BROAD ST.;CAMILLA;GA;31730;2293362021
CANTON POST OFFICE;2400 RIVERSTONE BLVD;CANTON;GA;30114;7707208164
CHEROKEE COUNTY SUPERIOR COURT;90 NORTH STREET;CANTON;GA;30114;6784936523
CARROLL COUNTY SUPERIOR COURT;311 NEWNAN ST;CARROLLTON;GA;30117;7708305830
CARTERSVILLE POST OFFICE;25 LIBERTY DRIVE;CARTERSVILLE;GA;30121;7703825121
CHATSWORTH GEORGIA POST OFFICE;120 WEST FORT STREET;CHATSWORTH;GA;30705;7066951109
HABERSHAM  CLERK OF SUPERIOR COURT;295 LLEWELLYN ST;CLARKESVILLE;GA;30523;7068390300
GEORGIA STATE UNIVERSITY - CLARKSTON CAMPUS SERVICES;555 NORTH INDIAN CREEK DRIVE;CLARKSTON;GA;30021;6788913320
RABUN COUNTY CLERK OF SUPERIOR COURT;25 COURTHOUSE SQUARE;CLAYTON;GA;30525;7067823615
CLEVELAND POST OFFICE;116 HELEN HWY;CLEVELAND;GA;30528;7068654511
WHITE COUNTY SUPERIOR COURT;59 S MAIN;CLEVELAND;GA;30528;7068652613
BLECKLEY COUNTY CLERK OF SUPERIOR COURT;112 N 2ND ST;COCHRAN;GA;31014;4789343210
COHUTTA POST OFFICE;325 WOLFE ST;COHUTTA;GA;30710;7066948385
FULTON COUNTY SUPERIOR COURT SOUTH;5600 STONEWALL TELL ROAD;COLLEGE PARK;GA;30349;4046125756
COLUMBUS DOWNTOWN STATION;120 12TH STREET;COLUMBUS;GA;31901;7065621873
COLUMBUS MAIN POST OFFICE;3916 MILGEN RD;COLUMBUS;GA;31907;7065621860
MUSCOGEE COUNTY PROBATE COURT;100 10TH STREET;COLUMBUS;GA;31901;7066534333
UNITED STATES POSTAL SERVICE-FORT BENNING;110 VIBBERT AVENUE;COLUMBUS;GA;31905;7066891696
ROCKDALE COUNTY CLERK OF COURTS;922 COURT ST;CONYERS;GA;30012;7702787918
CRISP COUNTY CLERK OF SUPERIOR COURT;510 NORTH 7TH STREET;CORDELE;GA;31015;2292714726
CORNELIA POST OFFICE;407 CORNELIA PLAZA DR.;CORNELIA;GA;30531;7067784714
NEWTON COUNTY CLERK OF SUPERIOR COURT;1132 USHER ST;COVINGTON;GA;30014;7707842035
CUMMING MAIN POST OFFICE;525 TRIBBLE GAP RD;CUMMING;GA;30040;7708862388
FORSYTH COUNTY PROBATE COURT;100 WEST COURTHOUSE SQUARE;CUMMING;GA;30040;7707812140
CLERK OF SUPERIOR COURT OF RANDOLPH COUNTY;93 FRONT STREET;CUTHBERT;GA;39840;8557826310
DACULA POST OFFICE;470 DACULA RD;DACULA;GA;30019;7709624390
LUMPKIN COUNTY CLERK OF SUPERIOR COURT;325 RILEY ROAD;DAHLONEGA;GA;30533;7068643736
DALTON MAIN POST OFFICE;100 S. THORNTON AVENUE;DALTON;GA;30720;7062790751
SUPERIOR COURT  MADISON COUNTY;91 ALBANY AVENUE;DANIELSVILLE;GA;30633;7067956310
TERRELL COUNTY SUPERIOR COURT CLERK;235 E LEE ST;DAWSON;GA;39842;2299952631
DAWSON COUNTY CLERK OF SUPERIOR COURT;25 JUSTICE WAY;DAWSONVILLE;GA;30534;7063443510
DECATUR MPO;520 W PONCE DE LEON AVE;DECATUR;GA;30030;4043708300
DEKALB COUNTY CLERK OF SUPERIOR COURT;556 N MCDONOUGH STREET;DECATUR;GA;30030;4046873870
SEMINOLE COUNTY CLERK OF SUPERIOR COURT;200 S. KNOX AVENUE;DONALSONVILLE;GA;39845;2295242525
SUPERIOR COURT OF COFFEE COUNTY;101 S. PETERSON AVE.;DOUGLAS;GA;31533;9123842865
CLERK OF SUPERIOR COURT;8700 HOSPITAL DRIVE;DOUGLASVILLE;GA;30134;7709207254
LAURENS COUNTY SUPERIOR COURT;121 EAST JACKSON ST.;DUBLIN;GA;31021;4782770005
DULUTH BOGGS ROAD POSTAL STORE;1605 BOGGS ROAD;DULUTH;GA;30096;7707173701
DODGE COUNTY CLERK OF SUPERIOR COURT;5401 ANSON AVE;EASTMAN;GA;31023;4783742871
PUTNAM COUNTY PROBATE COURT;100 S JEFFERSON AVENUE;EATONTON;GA;31024;7064855476
ELBERT COUNTY SUPERIOR COURT;12 S OLIVER ST;ELBERTON;GA;30635;7062832005
GILMER COUNTY SUPERIOR COURT;1 BROAD STREET;ELLIJAY;GA;30540;7066354462
EVANS POST OFFICE;607 RONALD REAGAN DRIVE;EVANS;GA;30809;7066510121
FAYETTE COUNTY PROBATE COURT;1CENTER DRIVE;FAYETTEVILLE;GA;30214;7707164221
FAYETTEVILLE MAIN POST OFFICE;250 E GEORGIA AVENUE;FAYETTEVILLE;GA;30214;7707193115
BEN HILL COUNTY SUPERIOR COURT;115 S SHERIDAN STREET;FITZGERALD;GA;31750;2294265135
FOREST PARK POST OFFICE;4989 COURTNEY DRIVE;FOREST PARK;GA;30297;4043629696
MONROE COUNTY SUPERIOR COURT CLERK;1 COURTHOUSE SQUARE;FORSYTH;GA;31029;4789947022
CLAY COUNTY SUPERIOR COURT;210 WASHINGTON STREET;FORT GAINES;GA;39851;2297682631
HALL COUNTY LIBRARY - BLACKSHEAR PLACE;2927 ATLANTA HIGHWAY;GAINESVILLE;GA;30507;7705323311
LIMESTONE POSTAL STORE;2490 LIMESTONE PKWY;GAINESVILLE;GA;30501;7705365647
QUITMAN COUNTY SUPERIOR COURT;111 MAIN STREET;GEORGETOWN;GA;39854;2293342578
GLASCOCK COUNTY SUPERIOR COURT;62 EAST MAIN STREET;GIBSON;GA;30810;7065982084
JONES COUNTY SUPERIOR COURT;110 S. JEFFERSON ST.;GRAY;GA;31032;4789866674
GREENE COUNTY SUPERIOR COURT;113 N MAIN ST SUITE 109;GREENSBORO;GA;30642;7064533340
MERIWETHER COUNTY SUPERIOR COURT;100 NORTH COURT SQUARE;GREENVILLE;GA;30222;7066724416
GRIFFIN POST OFFICE;101 NORTH 8TH STREET;GRIFFIN;GA;30223;7704128840
HART COUNTY PROBATE COURT;185 W FRANKLIN ST;HARTWELL;GA;30643;7063762565
HEPHZIBAH POST OFFICE;4902 WINDSOR SPRING ROAD;HEPHZIBAH;GA;30815;7065922933
TOWNS COUNTY CLERK OF SUPERIOR COURT;48 RIVER STREET SUITE E;HIAWASSEE;GA;30546;7068962130
LIBERTY COUNTY CLERKS OFFICE;201 SOUTH MAIN STREET;HINESVILLE;GA;31313;9128763925
BANKS COUNTY PUBLIC LIBRARY;226 HIGHWAY 51 SOUTH;HOMER;GA;30547;7066773164
CLINCH COUNTY SUPERIOR COURT;25 COURT SQUARE;HOMERVILLE;GA;31634;9124875854
WILKINSON SUPERIOR COURT;100 BACON STREET;IRWINTON;GA;31042;4789464312
JACKSON POST OFFICE;461 E 2ND ST;JACKSON;GA;30233;7705041697
PICKENS COUNTY CLERK OF SUPERIOR COURT;50 N MAIN ST, STE 104;JASPER;GA;30143;7062538763
WAYNE COUNTY SUPERIOR COURT;174 N BRUNSWICK ST;JESUP;GA;31546;9124275930
KENNESAW MAIN POST OFFICE;2001 DUNCAN DRIVE;KENNESAW;GA;30144;7704224103
LAFAYETTE POST OFFICE;220 FOSTER BLVD;LAFAYETTE;GA;30728;7066399072
LAGRANGE  POST OFFICE;950 LAFAYETTE PKWY;LAGRANGE;GA;30241;7068836601
TROUP COUNTY PROBATE COURT;100 RIDLEY AVENUE;LAGRANGE;GA;30240;7068831690
LAKE PARK POST OFFICE;687 LAKES BLVD;LAKE PARK;GA;31636;2295597843
LAWRENCEVILLE MAIN POST OFFICE;35 PATTERSON RD;LAWRENCEVILLE;GA;30044;7702378283
LAWRENCEVILLE NORTH USPS;1557 BUFORD DR;LAWRENCEVILLE;GA;30043;7703389337
LILBURN POST OFFICE;4370 LAWRENCEVILLE HWY NW;LILBURN;GA;30047;7708060872
LINCOLN COUNTY SUPERIOR COURT;210 HUMPHREY STREET ROOM 103;LINCOLNTON;GA;30817;7063595505
LITHIA SPRINGS POST OFFICE;2727 SKYVIEW DRIVE;LITHIA SPRINGS;GA;30122;6789459377
LITHONIA POST OFFICE;3035 STONE MOUNTAIN ST;LITHONIA;GA;30058;7704841079
LOGANVILLE POST OFFICE;4160 LOGAN DRIVE;LOGANVILLE;GA;30052;7705540435
JEFFERSON COUNTY CLERK OFFICE;202 E BROAD ST;LOUISVILLE;GA;30434;4786257922
SUPERIOR COURT OF TOOMBS COUNTY;100 COURTHOUSE SQUARE HWY 280;LYONS;GA;30436;9125263501
MABLETON POST OFFICE;5284 FLOYD ROAD;MABLETON;GA;30126;7707454291
BIBB COUNTY SUPERIOR COURT;601 MULBERRY STREET;MACON;GA;31201;4786216521
MACON MAIN POST OFFICE;451 COLLEGE STREET;MACON;GA;31213;4787528414
CLERK OF SUPERIOR COURT, MORGAN GA;384 HANCOCK STREET;MADISON;GA;30650;7063423605
COBB COUNTY SUPERIOR COURT;736 WHITLOCK AVENUE;MARIETTA;GA;30064;7705281639
GRESHAM ROAD STATION;1290 GRESHAM RD;MARIETTA;GA;30062;7703219016
HENRY COUNTY PROBATE COURT;99 SIMS STREET;MCDONOUGH;GA;30253;7702887600
MCDONOUGH POSTAL STORE;100 POSTMASTER DRIVE;MCDONOUGH;GA;30253;6784324319
TELFAIR COUNTY CLERK OF COURT;19 E OAK ST, STE C;MCRAE-HELENA;GA;31037;2298686525
BALDWIN COUNTY CLERK OF  COURTS;121 N WILKINSON ST;MILLEDGEVILLE;GA;31061;4784454007
CLERK SUPERIOR COURT JENKINS COUNTY;611 E WINTHROPE AVE;MILLEN;GA;30442;4789824683
WALTON COUNTY PROBATE COURT;303 S. HAMMOND DRIVE, STE 118;MONROE;GA;30655;7702671345
JASPER COUNTY CLERK OF COURTS;126 W GREEN ST;MONTICELLO;GA;31064;7064684901
MOULTRIE MAIN POST OFFICE;215 N MAIN STREET;MOULTRIE;GA;31768;2298909754
BRANTLEY COUNTY SUPERIOR COURT;234 BRANTLEY STREET;NAHUNTA;GA;31553;9124625635
NEWNAN POST OFFICE;60 POSTAL PARKWAY;NEWNAN;GA;30263;7702521580
HAROLD S. SWINDLE PUBLIC LIBRARY;5466 HIGHWAY 441 S;NICHOLSON;GA;30565;7067573577
NORCROSS MAIN POST OFFICE;265 MITCHELL RD;NORCROSS;GA;30071;7704167156
PEACHTREE CORNERS POST OFFICE;5600 SPALDING DRIVE;NORCROSS;GA;30092;7704097968
NORMAN PARK POST OFFICE;113 E BROAD ST;NORMAN PARK;GA;31771;2297695510
PEACHTREE CITY POST OFFICE;151 HWY 74 SOUTH;PEACHTREE CITY;GA;30269;7704866802
BRYAN COUNTY SUPERIOR  COURT;151 SOUTH COLLEGE STREET;PEMBROKE;GA;31321;9126533872
HOUSTON COUNTY SUPERIOR COURT;201 PERRY PARKWAY;PERRY;GA;31069;4782184740
POWDER SPRINGS POST OFFICE;4644 POWDER SPRINGS DALLAS ROAD;POWDER SPRINGS;GA;30127;7704392771
TATTNALL COUNTY PROBATE COURT;111 N. MAIN STREET;REIDSVILLE;GA;30427;9125576719
RICHMOND HILL POST OFFICE;9664 FORD AVE;RICHMOND HILL;GA;31324;9127566084
RINCON  POST OFFICE;503 N RIDGE ST;RINCON;GA;31326;9128261772
ROME MAIN POST OFFICE;1420 MARTHA BERRY BLVD NE;ROME;GA;30165;7062349456
ROSSVILLE POST OFFICE;301 CHICKAMAUGA AVE;ROSSVILLE;GA;30741;7068667668
WASHINGTON COUNTY SUPERIOR COURT;132 W HAYNES STREET;SANDERSVILLE;GA;31082;4785523186
CHATHAM COUNTY CLERK OF SUPERIOR COURT;133 MONTGOMERY STREET;SAVANNAH;GA;31401;9126527200
OGLETHORPE STATION;1348 EISENHOWER DRIVE;SAVANNAH;GA;31406;9126627558
SAVANNAH MAIN  OFFICE;2 NORTH FAHM ST;SAVANNAH;GA;31401;9122354666
SHARPSBURG POST OFFICE;6545 HIGHWAY 54;SHARPSBURG;GA;30277;7702527874
SMYRNA MAIN PO;850 WINDY HILL ROAD SE;SMYRNA;GA;30080;7704359508
SNELLVILLE POST OFFICE-CENTERVILLE BRANCH;3375 CENTERVILLE HIGHWAY;SNELLVILLE;GA;30039;6783446248
HANCOCK COUNTY SUPERIOR COURT;12630 BROAD STREET;SPARTA;GA;31087;7064446644
EFFINGHAM COUNTY PROBATE COURT;700 N PINE STREET, STE 146;SPRINGFIELD;GA;31329;9127542112
SAINT MARYS POST OFFICE;724 CHARLIE SMITH SR HWY;ST. MARYS;GA;31558;9127293301
BULLOCH COUNTY CLERK OF COURT;20 SIEBOLD ST;STATESBORO;GA;30458;9127649009
STATHAM PUBLIC LIBRARY;1928 RAILROAD STREET;STATHAM;GA;30666;7707254785
STOCKBRIDGE POST OFFICE;110 WALTER WAY;STOCKBRIDGE;GA;30281;7705077946
STONE MOUNTAIN POST OFFICE;5181 W MOUNTAIN STREET;STONE MOUNTAIN;GA;30083;7704982828
CITY OF SUGAR HILL;5039 WEST BROAD ST;SUGAR HILL;GA;30518;7709456716
SUMMERVILLE POST OFFICE;9922 COMMERCE STREET;SUMMERVILLE;GA;30747;7068572493
SUWANEE POST OFFICE;990 PEACHTREE INDUSTRIAL BLVD;SUWANEE;GA;30024;6784828421
EMANUEL COUNTY SUPERIOR COURT;125 SOUTH MAIN STREET;SWAINSBORO;GA;30401;4782378911
SCREVEN COUNTY PROBATE COURT;216 MIMS ROAD;SYLVANIA;GA;30467;9125642783
TALKING ROCK POST OFFICE;100 ANTIOCH CHURCH ROAD;TALKING ROCK;GA;30175;7062764197
TALLAPOOSA POST OFFICE;1919 U.S. HWY 78;TALLAPOOSA;GA;30176;7705747095
UPSON COUNTY CLERK OF SUPERIOR COURT;116 WEST MAIN STREET;THOMASTON;GA;30286;7066477835
CLERK SUPERIOR COURT THOMAS COUNTY, GEORGIA;325 N MADISON ST;THOMASVILLE;GA;31792;2292254108
MCDUFFIE COUNTY CLERK OF SUPERIOR COURT;210 RAILROAD ST, RM 1401;THOMSON;GA;30824;7065952134
TIFT COUNTY CLERK OF SUPERIOR COURT;237 E 2ND STREET;TIFTON;GA;31794;2293867810
STEPHENS COUNTY CLERK OF COURT;70 N ALEXANDER ST;TOCCOA;GA;30577;7068869496
TOCCOA POST OFFICE;41 FALLS RD, SUITE 101;TOCCOA;GA;30577;7068864058
TRENTON POST OFFICE;12441 N MAIN ST;TRENTON;GA;30752;7066574751
TRION POST OFFICE;14366 HWY 27;TRION;GA;30753;7067342441
NORTHSIDE  VALDOSTA STATION;3698 INNER PERIMETER RD;VALDOSTA;GA;31602;2292417209
WILLIS L. MILLER LIBRARY;2906 JULIA DRIVE;VALDOSTA;GA;31602;2293330086
OHOOPEE REGIONAL LIBRARY;610 JACKSON STREET;VIDALIA;GA;30474;9125379283
WARNER ROBINS POST OFFICE;904 RUSSELL PARKWAY;WARNER ROBINS;GA;31088;4789222175
WARREN COUNTY SUPERIOR  COURT;521 MAIN STREET STE 201;WARRENTON;GA;30828;7064652262
SUPERIOR COURT CLERK WILKES COUNTY;23 COURT STREET ROOM 205;WASHINGTON;GA;30673;7066782423
SUPERIOR COURT WARE COUNTY;800 CHURCH STREET;WAYCROSS;GA;31501;9122874340
BURKE COUNTY CLERK OF SUPERIOR COURT;111 E 6TH STREET;WAYNESBORO;GA;30830;7065542279
BARROW COUNTY CLERK OF SUPERIOR COURT;652 BARROW PARK DRIVE;WINDER;GA;30680;7708678993
WINDER POST OFFICE;101 N BROAD ST STE 26;WINDER;GA;30680;7708679266
WINSTON POST OFFICE;2929 POST ROAD;WINSTON;GA;30187;7709424812
CAMDEN COUNTY SUPERIOR COURT;210 EAST 4TH STREET;WOODBINE;GA;31569;9125765631
PIKE COUNTY SUPERIOR COURT;16001 BARNESVILLE STREET;ZEBULON;GA;30295;7705672000
