facilityName;streetAdress;city;state;zipCode;publicPhone
ADELPHIA POST OFFICE;116 WYCKOFF MILLS ROAD;ADELPHIA;NJ;07710;7324625578
ALLENDALE POST OFFICE;2 MYRTLE AVE;ALLENDALE;NJ;07401;2012369473
ALLENTOWN POST OFFICE;12 SOUTH MAIN STREET;ALLENTOWN;NJ;08501;6092592541
ASBURY POST OFFICE;285 ASBURY ANDERSON RD.;ASBURY;NJ;08802;9085372327
ATLANTIC COUNTY CLERKS OFFICE;1333 ATLANTIC AVE;ATLANTIC CITY;NJ;08401;6093432358
AVENEL POST OFFICE;1065 RAHWAY AVENUE;AVENEL;NJ;07001;7326344703
BASKING RIDGE POST OFFICE;21 BROWNLEE PLACE;BASKING RIDGE;NJ;07920;9087660611
BAYONNE POST OFFICE;570 BROADWAY;BAYONNE;NJ;07002;2013392029
BAYVILLE POST OFFICE;801 ATLANTIC CITY BLVD;BAYVILLE;NJ;08721;7322691030
BELLMAWR POSTAL STORE;421 BENIGNO BLVD;BELLMAWR;NJ;08031;8569334445
BELMAR POST OFFICE;1300 MAIN STREET;BELMAR;NJ;07719;7326810961
WARREN COUNTY CLERKS OFFICE;413 SECOND STREET;BELVIDERE;NJ;07823;9084756211
BERKELEY HEIGHTS POST OFFICE;364 SPRINGFIELD AVE;BERKELEY HEIGHTS;NJ;07922;9084641115
BLACKWOOD POST OFFICE;200 DAVISTOWN ROAD;BLACKWOOD;NJ;08012;8562270010
BLOOMFIELD POST OFFICE;13 MUNICIPAL PLAZA;BLOOMFIELD;NJ;07003;9738739062
BLOOMINGDALE POST OFFICE;126 MAIN STREET;BLOOMINGDALE;NJ;07403;9738382904
BOGOTA PUBLIC LIBRARY;375 LARCH AVE;BOGOTA;NJ;07603;2014887185
BORDENTOWN POST OFFICE;14 WALNUT STREET;BORDENTOWN;NJ;08505;6092980262
BRADLEY BEACH POST OFFICE;515 MAIN STREET;BRADLEY BEACH;NJ;07720;7327757013
BRANCHVILLE POST OFFICE;1 BROAD STREET;BRANCHVILLE;NJ;07826;9739483580
CUMBERLAND COUNTY CLERKS OFFICE;60 WEST BROAD STREET;BRIDGETON;NJ;08302;8564534860
BRIDGEWATER POST OFFICE;495 N BRIDGE STREET;BRIDGEWATER;NJ;08807;9085260222
SOMERSET COUNTY LIBRARY SYSTEM OF NEW JERSEY;1 VOGT DRIVE;BRIDGEWATER;NJ;08807;9084588400
BRIGANTINE POST OFFICE;4326 HARBOR BEACH BLVD.;BRIGANTINE;NJ;08203;6092663562
BROOKSIDE MAIN POST OFFICE;2 EAST MAIN STREET;BROOKSIDE;NJ;07926;9735437878
BROWNS MILLS POST OFFICE;27 DEARBORN AVENUE;BROWNS MILLS;NJ;08015;6098932497
BUDD LAKE POST OFFICE;1 MOUNT OLIVE ROAD;BUDD LAKE;NJ;07828;9736918011
CAMDEN COUNTY CLERKS OFFICE COURTHOUSE DIVISION;520 MARKET STREET;CAMDEN;NJ;08102;8562255300
CAPE MAY COUNTY CLERKS OFFICE;7 NORTH MAIN ST;CAPE MAY COURT HOUSE;NJ;08210;6094651010
CARTERET POST OFFICE;212 PERSHING AVENUE;CARTERET;NJ;07008;7325418397
CEDAR KNOLLS POST OFFICE;2 MOUNTAIN AVENUE;CEDAR KNOLLS;NJ;07927;9735392312
CHATHAM POST OFFICE;219 MAIN STREET;CHATHAM;NJ;07928;9736358400
CHESTER POST OFFICE;1 SENTRY LANE;CHESTER;NJ;07930;9088795095
CINNAMINSON POST OFFICE;2496 ROUTE 130 NORTH;CINNAMINSON;NJ;08077;8568298383
CLIFFSIDE PARK POST OFFICE;289 GORGE ROAD;CLIFFSIDE PARK;NJ;07010;2019435271
CLIFTON PASSPORT CENTER;811 PAULISON AVENUE;CLIFTON;NJ;07011;9734720426
CLINTON POST OFFICE;24 E MAIN ST;CLINTON;NJ;08809;9087357216
CRANFORD POST OFFICE;3 MILN STREET;CRANFORD;NJ;07016;9082763506
CREAM RIDGE POST OFFICE;163 BURLINGTON PATH RD;CREAM RIDGE;NJ;08514;6097582717
DEPTFORD POST OFFICE;1265 HURFFVILLE ROAD;DEPTFORD;NJ;08096;8562326785
GLOUCESTER COUNTY STORE;1750 DEPTFORD CENTER ROAD;DEPTFORD;NJ;08096;8566866013
DOVER POST OFFICE;22 N SUSSEX STREET;DOVER;NJ;07801;9739890473
DUMONT POST OFFICE;138 VETERANS PLAZA;DUMONT;NJ;07628;2013846738
DUNELLEN POST OFFICE;311 NORTH AVENUE;DUNELLEN;NJ;08812;7329682070
EAST BRUNSWICK PUBLIC LIBRARY;2 JEAN WALLING CIVIC CENTER;EAST BRUNSWICK;NJ;08816;7323906761
CITY OF EAST ORANGE-CITY CLERKS OFFICE;44 CITY HALL PLAZA;EAST ORANGE;NJ;07018;9732665110
EAST ORANGE MAIN POST OFFICE;26 CITY HALL PLAZA;EAST ORANGE;NJ;07018;9736735556
EATONTOWN POST OFFICE;409 SOUTH STREET;EATONTOWN;NJ;07724;7325420108
EDGEWATER POST OFFICE;770 RIVER ROAD;EDGEWATER;NJ;07020;2019454297
KILMER POST OFFICE;21 KILMER ROAD;EDISON;NJ;08899;7328193248
ELIZABETH MAIN POST OFFICE;310 NORTH BROAD STREET;ELIZABETH;NJ;07208;9088208487
UNION COUNTY CLERKS OFFICE;2 BROAD STREET;ELIZABETH;NJ;07202;9085274966
ELMER POST OFFICE;625 NORTH MAIN STREET;ELMER;NJ;08318;8563583922
ENGLEWOOD MAIN POST OFFICE;77 ENGLE STREET;ENGLEWOOD;NJ;07631;2015681960
ENGLEWOOD CLIFFS POST OFFICE;650 EAST PALISADE AVENUE;ENGLEWOOD CLIFFS;NJ;07632;2018945128
FAIR LAWN POST OFFICE;14-24 ABBOTT ROAD;FAIR LAWN;NJ;07410;2017960873
FAIRVIEW;6 ANDERSON AVENUE;FAIRVIEW;NJ;07022;2019435738
FANWOOD POST OFFICE;275 SOUTH AVENUE;FANWOOD;NJ;07023;9083227978
HUNTERDON COUNTY CLERK;HALL OF RECORDS;FLEMINGTON;NJ;08822;9087881221
FORT LEE MAIN OFFICE;229 MAIN STREET;FORT LEE;NJ;07024;2015672739
MONMOUTH COUNTY CLERKS OFFICE;THE MARKET YARD;FREEHOLD;NJ;07728;7324317324
GARWOOD POST OFFICE;202 CENTER STREET;GARWOOD;NJ;07027;9087890315
GLASSBORO POST OFFICE;124 E HIGH ST;GLASSBORO;NJ;08028;8568816266
GLEN GARDNER POST OFFICE;64 MAIN STREET;GLEN GARDNER;NJ;08826;9085372813
GLENWOOD POST OFFICE;958  RTE 517;GLENWOOD;NJ;07418;9737642616
BERGEN COUNTY CLERKS OFFICE;ONE BERGEN COUNTY PLAZA;HACKENSACK;NJ;07601;2013367000
HACKETTSTOWN MAIN POST OFFICE;120 GRAND AVENUE;HACKETTSTOWN;NJ;07840;9088523535
MERCER COUNTY CONNECTION;957 HIGHWAY 33;HAMILTON;NJ;08690;6098909800
HAMMONTON POST OFFICE;114 SOUTH 3RD ST;HAMMONTON;NJ;08037;6095610495
HARRINGTON PARK POST OFFICE;7 LYNN STREET;HARRINGTON PARK;NJ;07640;2017846754
HARRISON POST OFFICE;427 HARRISON AVE;HARRISON;NJ;07029;9734815256
HEWITT MAIN POST OFFICE;1926 UNION VALLEY RD;HEWITT;NJ;07421;9737285981
HIGHLAND LAKES POST OFFICE;177 BREAKNECK ROAD;HIGHLAND LAKES;NJ;07422;9737649086
HIGHTSTOWN MAIN POST OFFICE;150 MERCER STREET;HIGHTSTOWN;NJ;08520;6094480255
HILLSBOROUGH POST OFFICE;437 AMWELL ROAD;HILLSBOROUGH;NJ;08844;9082819873
HOBOKEN POST OFFICE;89 RIVER STREET;HOBOKEN;NJ;07030;2016593017
HOPATCONG MAIN POST OFFICE;32 DURBAN AVE;HOPATCONG;NJ;07843;9733981046
ISELIN MAIN POST OFFICE;250 MIDDLESEX TURNPIKE;ISELIN;NJ;08830;7322830053
JACKSON POST OFFICE;915 BENNETTS MILLS RD;JACKSON;NJ;08527;7329424675
HUDSON CITY STATION;392 CENTRAL AVE;JERSEY CITY;NJ;07307;2017983936
HUDSON COUNTY PASSPORT OFFICE;257 CORNELISON AVE;JERSEY CITY;NJ;07302;2013693470
JERSEY CITY MAIN POST OFFICE;69 MONTGOMERY STREET;JERSEY CITY;NJ;07302;2019157001
JOURNAL SQUARE STATION POST OFFICE;899 BERGEN AVE;JERSEY CITY;NJ;07306;20179872681
KEARNY POST OFFICE;64 MIDLAND AVENUE;KEARNY;NJ;07032;2019915629
KENDALL PARK POST OFFICE;3124 STATE ROUTE 27;KENDALL PARK;NJ;08824;7322979181
KEYPORT POST OFFICE;95 WEST FRONT STREET;KEYPORT;NJ;07735;7322640388
KINGSTON POST OFFICE;4599 STATE ROUTE 27 SOUTH;KINGSTON;NJ;08528;6099244544
LAKE HIAWATHA MAIN POST OFFICE;494 NORTH BEVERWYCK RD;LAKE HIAWATHA;NJ;07034;9733347062
LAKEHURST POST OFFICE;1 BROWN AVE;LAKEHURST;NJ;08733;7326578562
NORTHERN OCEAN COUNTY RESOURCE CENTER;225 4TH ST;LAKEWOOD;NJ;08701;7323708850
BOROUGH OF LEONIA CLERKS OFFICE;312 BROAD AVE;LEONIA;NJ;07605;2015925780
LIBERTY CORNER POST OFFICE;8 CHURCH ST;LIBERTY CORNER;NJ;07938;9086470841
LINCOLN PARK POST OFFICE;9 ZELIFF PL;LINCOLN PARK;NJ;07035;9736941627
LINCROFT POST OFFICE;774 NEWMAN SPRINGS ROAD;LINCROFT;NJ;07738;7327475115
LINDEN POST OFFICE;400 NORTH WOOD AVE;LINDEN;NJ;07036;9089258836
MONTCLAIR STATE UNIVERSITY;147 CLOVE ROAD;LITTLE FALLS;NJ;07424;9736556855
LITTLE FERRY POST OFFICE;20 MAIN STREET;LITTLE FERRY;NJ;07643;2016417843
LIVINGSTON POST OFFICE;49 WEST MOUNT PLEASANT AVE;LIVINGSTON;NJ;07039;9739928401
LONG BRANCH POST OFFICE;60 3RD AVENUE;LONG BRANCH;NJ;07740;7322227711
LONG VALLEY POST OFFICE;3 OLD FARMERS ROAD;LONG VALLEY;NJ;07853;9088763161
MADISON POST OFFICE;10 LINCOLN PLACE;MADISON;NJ;07940;9734439620
MANAHAWKIN POST OFFICE;525 EAST BAY AVENUE;MANAHAWKIN;NJ;08050;6099782192
SOUTHERN OCEAN COUNTY SERVICE CENTER;179 SOUTH MAIN STREET;MANAHAWKIN;NJ;08050;6095971500
MAPLE SHADE POST OFFICE;1 E MAIN STREET;MAPLE SHADE;NJ;08052;8567797176
ATLANTIC COUNTY CLERKS OFFICE;5901 MAIN STREET;MAYS LANDING;NJ;08330;6096254011
MAYS LANDING POST OFFICE;5306 ATLANTIC AVE;MAYS LANDING;NJ;08330;6096255680
MIDDLESEX POST OFFICE;95 MARLBOROUGH AVENUE;MIDDLESEX;NJ;08846;7323562100
MIDDLETOWN POST OFFICE;1601 STATE ROUTE 35;MIDDLETOWN;NJ;07748;7326711365
TOWNSHIP OF MIDDLETOWN;1 KINGS HIGHWAY;MIDDLETOWN;NJ;07748;7326152014
MILLVILLE POST OFFICE;302 N. HIGH STREET;MILLVILLE;NJ;08332;8568257091
MONMOUTH JUNCTION POST OFFICE;651 RIDGE ROAD;MONMOUTH JUNCTION;NJ;08852;7323296701
SOUTH BRUNSWICK TOWNSHIP CLERKS OFFICE;540 RIDGE RD;MONMOUTH JUNCTION;NJ;08852;7323294000
MONROE TOWNSHIP POSTAL STORE;1601 PERRINEVILLE ROAD;MONROE TOWNSHIP;NJ;08831;6094098170
COUNTY CORNER;400 RTE 38 W;MOORESTOWN;NJ;08057;8566423833
MOORESTOWN POST OFFICE;200 CHESTER AVE;MOORESTOWN;NJ;08057;8566380371
MORRIS PLAINS POST OFFICE;485 SPEEDWELL AVE;MORRIS PLAINS;NJ;07950;9735383666
MORRIS COUNTY CLERKS OFFICE;10 COURT STREET;MORRISTOWN;NJ;07960;9732856161
MORRISTOWN POST OFFICE;166 RIDGEDALE AVE;MORRISTOWN;NJ;07960;9735395890
BURLINGTON COUNTY CLERKS OFFICE;50 RANCOCAS ROAD;MOUNT HOLLY;NJ;08060;6092655122
NAVESINK POST OFFICE;2375 STATE RT 36;NAVESINK;NJ;07752;7322912323
MONMOUTH COUNTY CONNECTION;3544 STATE HIGHWAY 66;NEPTUNE;NJ;07753;7323032828
NEPTUNE POST OFFICE;50 NEPTUNE BOULEVARD;NEPTUNE;NJ;07753;7327768811
MIDDLESEX COUNTY CLERKS OFFICE;75 BAYARD STREET;NEW BRUNSWICK;NJ;08901;7327453404
ESSEX COUNTY CLERK;465 MARTIN LUTHER KING JR BLVD;NEWARK;NJ;07102;9736214922
NEWARK POST OFFICE;2 FEDERAL SQUARE;NEWARK;NJ;07102;9736935150
NEWFIELD POST OFFICE;10 N WEST BOULEVARD;NEWFIELD;NJ;08344;8566971551
NEWTON POST OFFICE;39 MAIN ST;NEWTON;NJ;07860;9733831970
SUSSEX COUNTY CLERKS OFFICE;83 SPRING STREET;NEWTON;NJ;07860;9735790900
NORTH BERGEN POST OFFICE;4608 TONNELLE AVE;NORTH BERGEN;NJ;07047;2018671346
NORTH BRUNSWICK TOWNSHIP ADMINISTRATIVE OFFICE;710 HERMANN ROAD;NORTH BRUNSWICK;NJ;08902;7322470922
OAK RIDGE POST OFFICE;247 OAK RIDGE ROAD;OAK RIDGE;NJ;07438;9736979073
OAKLAND POST OFFICE;332 RAMAPO VALLEY ROAD;OAKLAND;NJ;07436;2013377536
OCEAN CITY POST OFFICE;859 OCEAN AVE;OCEAN CITY;NJ;08226;6093990475
OLD BRIDGE POST OFFICE;151 HIGHWAY 516;OLD BRIDGE;NJ;08857;7322574192
OLD BRIDGE PUBLIC LIBRARY;1 OLD BRIDGE PLAZA;OLD BRIDGE;NJ;08857;7327215600
ORADELL POST OFFICE;618 VELDRAN AVENUE;ORADELL;NJ;07649;2016340598
ORANGE POST OFFICE;384 MAIN STREET;ORANGE;NJ;07050;9736727304
BOROUGH OF PARAMUS;1 JOCKISH SQUARE;PARAMUS;NJ;07652;2012652100
PARAMUS POST OFFICE;33 EAST MIDLAND AVE;PARAMUS;NJ;07652;2012627635
PARSIPPANY POST OFFICE;3299 US HIGHWAY 46;PARSIPPANY;NJ;07054;9733352587
CITY OF PASSAIC CITY CLERKS OFFICE;330 PASSAIC STREET;PASSAIC;NJ;07055;9733655584
PASSAIC COUNTY CLERK;401 GRAND STREET;PATERSON;NJ;07505;9732253690
PENNINGTON POST OFFICE;125 BROEMEL PL;PENNINGTON;NJ;08534;6097371115
PENNSVILLE POST OFFICE;220 SOUTH BROADWAY;PENNSVILLE;NJ;08070;8566785982
UPPER TOWNSHIP TAX/FINANCE OFFICE;2100 TUCKAHOE RD;PETERSBURG;NJ;08270;6096282011
PHILLIPSBURG POST OFFICE;361 MEMORIAL PARKWAY;PHILLIPSBURG;NJ;08865;9088593666
PINE BROOK POST OFFICE;50 ROUTE 46;PINE BROOK;NJ;07058;9732270143
PITTSTOWN POST OFFICE;313 PITTSTOWN RD;PITTSTOWN;NJ;08867;9087357291
PLEASANTVILLE POST OFFICE;752 BLACK HORSE PIKE;PLEASANTVILLE;NJ;08232;6096411520
PRINCETON MUNICIPAL OFFICE;400 WITHERSPOON STREET;PRINCETON;NJ;08540;6099245704
PRINCETON POST OFFICE;213 CARNEGIE CENTER;PRINCETON;NJ;08540;6094529044
PRINCETON JUNCTION POST OFFICE;331 N POST RD;PRINCETON JUNCTION;NJ;08550;6097991054
RAMSEY POST OFFICE;175 EAST MAIN STREET;RAMSEY;NJ;07446;2019347503
RARITAN POST OFFICE;30 E SOMERSET ST;RARITAN;NJ;08869;9087253120
RIDGEFIELD PARK POST OFFICE;155 MAIN STREET;RIDGEFIELD PARK;NJ;07660;2016419038
RIDGEWOOD POST OFFICE;143 EAST RIDGEWOOD AVENUE;RIDGEWOOD;NJ;07450;2014472135
RINGWOOD MAIN POST OFFICE;130 SKYLINE DR;RINGWOOD;NJ;07456;9739624956
RIO GRANDE POST OFFICE;1087 RT 47 S;RIO GRANDE;NJ;08242;6098861600
ROCKAWAY POST OFFICE;1 BANK STREET;ROCKAWAY;NJ;07866;9736277039
ROCKY HILL POST OFFICE;130 WASHINGTON STREET;ROCKY HILL;NJ;08553;6099219096
ROSELAND POST OFFICE;160 EAGLE ROCK AVENUE;ROSELAND;NJ;07068;9732268964
ROSELLE PUBLIC LIBRARY;104 W FOURTH AVENUE;ROSELLE;NJ;07203;9082455809
RUMSON POST OFFICE;6 HUNT STREET;RUMSON;NJ;07760;7328420332
SALEM COUNTY CLERK;110 FIFTH ST;SALEM;NJ;08079;8569357510
SCOTCH PLAINS POST OFFICE;536 PARK AVENUE;SCOTCH PLAINS;NJ;07076;9083224747
SECAUCUS MAIN POST OFFICE;300 COUNTY AVE;SECAUCUS;NJ;07094;2018671557
SEWELL POST OFFICE;141 CENTER ST;SEWELL;NJ;08080;8564681010
SHORT HILLS POST OFFICE;30 CHATHAM ROAD;SHORT HILLS;NJ;07078;9733795214
SKILLMAN POST OFFICE;950 ROUTE 601;SKILLMAN;NJ;08558;6094661420
SOMERS POINT POST OFFICE;325 W GROVELAND AVE;SOMERS POINT;NJ;08244;6099275757
SOMERSET POST OFFICE;500 DEMOTT LANE;SOMERSET;NJ;08873;7328738600
SOMERSET COUNTY CLERKS OFFICE;20 GROVE STREET;SOMERVILLE;NJ;08876;9082317006
SOMERVILLE MAIN POST OFFICE;39 DIVISION STREET;SOMERVILLE;NJ;08876;9087250570
SOUTH BOUND BROOK POST OFFICE;11 MADISON STREET;SOUTH BOUND BROOK;NJ;08880;7323561255
SOUTH PLAINFIELD POST OFFICE;114 OAK TREE AVENUE;SOUTH PLAINFIELD;NJ;07080;9087562432
SOUTH RIVER POST OFFICE;44 OBERT STREET;SOUTH RIVER;NJ;08882;7322541475
VINCENTOWN POST OFFICE;1813 ROUTE 206;SOUTHAMPTON;NJ;08088;6098592485
SPARTA POST OFFICE;2 MAIN STREET;SPARTA;NJ;07871;9737297444
SPOTSWOOD POST OFFICE;436 MAIN STREET;SPOTSWOOD;NJ;08884;7322513668
SPRING LAKE POST OFFICE;2407 STATE ROUTE 71;SPRING LAKE;NJ;07762;7324495120
SPRINGFIELD POST OFFICE;210 MOUNTAIN AVENUE;SPRINGFIELD;NJ;07081;9739242013
STRATFORD POST OFFICE;190 WARWICK RD;STRATFORD;NJ;08084;8567835252
ROXBURY PUBLIC LIBRARY;103 MAIN STREET;SUCCASUNNA;NJ;07876;9735842400
SUCCASUNNA POST OFFICE;1 ROXBURY MALL;SUCCASUNNA;NJ;07876;9735842022
SUMMIT POST OFFICE;61 MAPLE STREET;SUMMIT;NJ;07901;9082771737
SUSSEX POST OFFICE;455 STATE ROUTE 23;SUSSEX;NJ;07461;9738757410
TEANECK POST OFFICE;751 PALISADE AVE;TEANECK;NJ;07666;2018367214
TENAFLY POST OFFICE;400 TENAFLY RD;TENAFLY;NJ;07670;2015683518
THREE BRIDGES MAIN POST OFFICE;39 BROAD STREET;THREE BRIDGES;NJ;08887;9087823898
COUNTY CONNECTION;OCEAN COUNTY MALL;TOMS RIVER;NJ;08753;7322887777
OCEAN COUNTY COURTHOUSE;118 WASHINGTON STREET;TOMS RIVER;NJ;08753;7329292032
TOMS RIVER POST OFFICE;130 W  WATER STREET;TOMS RIVER;NJ;08753;7323490710
HILLSDALE - WASHINGTON TWP;261R PASCACK ROAD;TOWNSHIP OF WASHINGTON;NJ;07676;2012630521
DOWNTOWN STATION POST OFFICE;20 SOUTH MONTGOMERY ST;TRENTON;NJ;08608;6095994050
MERCER COUNTY CLERKS OFFICE;209 SOUTH BROAD STREET;TRENTON;NJ;08650;6099896473
TRENTON MAIN POST OFFICE;680 US HWY 130;TRENTON;NJ;08650;6095813047
UNION POST OFFICE;1130 WEST CHESTNUT STREET;UNION;NJ;07083;9083786129
UNION CITY POST OFFICE;301 30TH STREET;UNION CITY;NJ;07087;2018672576
CUMBERLAND COUNTY STORE;3849 S. DELSEA DRIVE;VINELAND;NJ;08360;8563007466
VINELAND RETAIL STORE;722 EAST LANDIS AVENUE;VINELAND;NJ;08360;8566911206
CAMDEN COUNTY STORE VOORHEES DIV;2015 VOORHEES TOWN CTR;VOORHEES;NJ;08043;8565662934
VOORHEES POST OFFICE;504 CENTENNIAL BLVD;VOORHEES;NJ;08043;8564898052
WALDWICK PUBLIC LIBRARY;19 EAST PROSPECT STREET;WALDWICK;NJ;07463;2016525104
WARREN BRANCH POST OFFICE;2 TECHNOLOGY DRIVE;WARREN;NJ;07059;9082223534
WAYNE SHEFFIELD STATION POST OFFICE;150 POMPTON PLAINS CROSSROADS;WAYNE;NJ;07470;9738393811
WEST CALDWELL BRANCH POST OFFICE;155 CLINTON ROAD;WEST CALDWELL;NJ;07006;9732272699
WEST NEW YORK POST OFFICE;5415 BERGENLINE AVENUE;WEST NEW YORK;NJ;07093;2018656681
UNION COUNTY CLERKS OFFICE;300 NORTH AVE, EAST;WESTFIELD;NJ;07090;9086549859
WESTFIELD POST OFFICE;153 CENTRAL AVENUE;WESTFIELD;NJ;07090;9082334053
WILLIAMSTOWN POST OFFICE;135 SOUTH BLACK HORSE PIKE;WILLIAMSTOWN;NJ;08094;8567287492
WINDSOR POST OFFICE;39 SOUTH MAIN STREET;WINDSOR;NJ;08561;6094486655
WOODBRIDGE POST OFFICE;60 MAIN STREET;WOODBRIDGE;NJ;07095;7326344985
GLOUCESTER COUNTY CLERKS OFFICE;1 N BROAD STREET;WOODBURY;NJ;08096;8568533235
WRIGHTSTOWN POST OFFICE;10 E MAIN STREET;WRIGHTSTOWN;NJ;08562;6097235324
