facilityName;streetAdress;city;state;zipCode;publicPhone
PONTOTOC COUNTY COURT CLERK;120 W. 13TH STREET;ADA;OK;74820;5803325763
ALTUS POST OFFICE;217 W. CYPRESS;ALTUS;OK;73521;5804823339
JACKSON COUNTY COURT CLERK;101 N MAIN, ROOM 303;ALTUS;OK;73521;5804820448
WOODS COUNTY COURT CLERK;407 GOVERNMENT ST.;ALVA;OK;73717;5803273119
CADDO COUNTY COURT CLERK;110 SW 2ND STREET;ANADARKO;OK;73005;4052473393
CUSTER COUNTY COURT CLERK;675 B STREET;ARAPAHO;OK;73620;5803233233
ARDMORE POST OFFICE;208 1ST AVE SW;ARDMORE;OK;73401;5802231583
CHAMPION PUBLIC LIBRARY;601 RAILWAY EXPRESS;ARDMORE;OK;73401;5802233164
BARTLESVILLE MAIN POST OFFICE;615 SW JENNINGS AVE;BARTLESVILLE;OK;74003;9183367152
BEAVER POST OFFICE;16 E. 2ND ST.;BEAVER;OK;73932;5806253362
BIXBY POST OFFICE;16 S. A. AVENUE;BIXBY;OK;74008;9183668270
BLANCHARD POST OFFICE;1200 N. COUNCIL RD.;BLANCHARD;OK;73010;4054853034
BROKEN ARROW MAIN POST OFFICE;1701 S. MAIN ST.;BROKEN ARROW;OK;74012;9182585652
LINCOLN COUNTY COURT CLERK;811 MANVEL AVE;CHANDLER;OK;74834;4052581309
CHECOTAH POST OFFICE;213 W. SPAULDING ST.;CHECOTAH;OK;74426;9184735606
ALFALFA COUNTY COURT CLERK;300 S. GRAND AVE.;CHEROKEE;OK;73728;5805963523
ROGER MILLS COUNTY COURT CLERK;500 E BROADWAY;CHEYENNE;OK;73628;5804973361
GRADY COUNTY EMERGENCY MANAGEMENT;315 W. PENNSYLVANIA AVE.;CHICKASHA;OK;73018;4052222339
CLAREMORE PO;400 W. 9TH ST.;CLAREMORE;OK;74017;9183435912
COALGATE POST OFFICE;38 N MAIN ST.;COALGATE;OK;74538;5809272223
STEPHENS COUNTY COURT CLERK;101 SOUTH 11TH RM 301;DUNCAN;OK;73533;5804702000
BRYAN COUNTY COURT CLERK;402 WEST EVERGREEN;DURANT;OK;74701;5809241446
COFFEE CREEK STATION;407 W. COVELL ROAD;EDMOND;OK;73003;4058440583
OKLAHOMA COUNTY COURT CLERK;28 E. MAIN;EDMOND;OK;73034;4053594514
CANADIAN COUNTY COURT CLERK;301 NORTH CHOCTAW AVENUE;EL RENO;OK;73036;4052956167
EL RENO PO;203 N.EVANS AVE.;EL RENO;OK;73036;4052766095
ENID POST OFFICE;115 W. BROADWAY AVE;ENID;OK;73701;5802374331
GARFIELD COUNTY COURT CLERK;114 WEST BROADWAY;ENID;OK;73701;5802370232
EUFAULA POST OFFICE;131 W. FOLEY ST.;EUFAULA;OK;74432;9186892622
MAJOR COUNTY COURT CLERK;500 E BROADWAY;FAIRVIEW;OK;73737;5802274690
GROVE POST OFFICE;1200 S SHUNDI ST;GROVE;OK;74344;9187862266
GUTHRIE POST OFFICE;201 W. OKLAHOMA AVE.;GUTHRIE;OK;73044;4052824736
GUYMON OK POST OFFICE;302 N QUINN ST;GUYMON;OK;73942;5803386422
TEXAS COUNTY COURT CLERK;319 N. MAIN ST.;GUYMON;OK;73942;5803383003
HENNESSEY POST OFFICE;221 S MAIN ST.;HENNESSEY;OK;73742;4058532928
HENRYETTA POST OFFICE;201 N. 5TH ST;HENRYETTA;OK;74437;9186527834
KIOWA COUNTY COURT CLERK;316 S. MAIN;HOBART;OK;73651;5807265125
HARMON COUNTY COURT CLERK;114 W HOLLIS ST.;HOLLIS;OK;73550;5806883617
HUGO POST OFFICE;207 N 4TH ST;HUGO;OK;74743;5803266696
JENKS POST OFFICE;303 E. A .ST.;JENKS;OK;74037;9182983193
KINGFISHER COUNTY COURT CLERK;101 SOUTH MAIN;KINGFISHER;OK;73750;4053753813
COMANCHE COUNTY COURT CLERK;315 SW 5TH ST.;LAWTON;OK;73501;5803554017
LAWTON MAIN POST OFFICE;501 SW 5TH ST.;LAWTON;OK;73501;5803531500
GREER COUNTY COURT CLERK;106 E. JEFFERSON;MANGUM;OK;73554;5807823665
MCALESTER MPO;500 E. WASHINGTON AVE.;MCALESTER;OK;74501;9184234048
PITTSBURG COUNTY COURT CLERK;115 E. CARL ALBERT PKWY;MCALESTER;OK;74501;9184234859
MIAMI POST OFFICE;34 A ST.  NE;MIAMI;OK;74354;9185421018
MUSKOGEE POST OFFICE;505 N MAIN ST.;MUSKOGEE;OK;74401;9186865246
MUSTANG POST OFFICE;600 N. MUSTANG RD.;MUSTANG;OK;73064;4053762681
KAY COUNTY COURT CLERK;201 S. MAIN STREET;NEWKIRK;OK;74647;5803623350
NORMAN MAIN POST OFFICE;129 W. GRAY AVE;NORMAN;OK;73069;4055157415
OKLAHOMA UNIVERSITY (OU) PASSPORT;900 ASP AVENUE, ROOM 127A;NORMAN;OK;73019;4053253030
SOONER STATION;200 36TH AVE. N.W;NORMAN;OK;73072;4053666149
OKFUSKEE COUNTY COURT CLERK;209 N 3RD ST.;OKEMAH;OK;74859;9186230525
CENTER CITY STATION;305 NW 5TH ST.;OKLAHOMA CITY;OK;73102;4052360321
OKLAHOMA COUNTY COURT CLERK;320 ROBERT S. KERR;OKLAHOMA CITY;OK;73102;4057132262
RENO - MERIDIAN POST OFFICE;4901 W. RENO;OKLAHOMA CITY;OK;73127;4059499761
OKMULGEE POST OFFICE;111 W. 4TH;OKMULGEE;OK;74447;9187563747
NOBLE COUNTY COURT CLERK;300 COURT HOUSE DRIVE;PERRY;OK;73077;5803365187
POTEAU POST OFFICE;115 N. WITTE ST.;POTEAU;OK;74953;9186473410
MAYES COUNTY COURT CLERK;ONE COURT PLACE;PRYOR;OK;74361;9188252185
SEQUOYAH COUNTY COURT CLERK;120 EAST CHICKASAW AVE;SALLISAW;OK;74955;9187754411
BECKHAM COUNTY COURT CLERK;104 S 3RD;SAYRE;OK;73662;5809283330
POTTAWATOMIE COUNTY COURT CLERK;325 N BROADWAY;SHAWNEE;OK;74801;4052733624
SKIATOOK POST OFFICE;303 E. 2ND ST;SKIATOOK;OK;74070;9183962495
HASKELL COUNTY COURT CLERK;202 E. MAIN;STIGLER;OK;74462;9189673323
OKLAHOMA STATE UNIVERSITY;311 S MONROE STREET;STILLWATER;OK;74078;4057445385
PAYNE COUNTY COURT CLERK;606 S. HUSBAND ST.;STILLWATER;OK;74074;4053724774
STILLWATER POST OFFICE;809 S. LEWIS ST;STILLWATER;OK;74074;4053722501
STILWELL POST OFFICE;16 S 2ND ST;STILWELL;OK;74960;9186967173
MURRAY COUNTY COURT CLERK;1001 W   WYANDOTTE STREET;SULPHUR;OK;73086;5806223223
CHEROKEE COUNTY COURT CLERK;213 W DELAWARE;TAHLEQUAH;OK;74464;9184560691
DEWEY COUNTY COURT CLERK;104 W RUBLE;TALOGA;OK;73667;5803285521
EASTSIDE POST OFFICE;2920  S.129TH EAST AVE.;TULSA;OK;74134;9186641791
SOUTHEAST POST OFFICE;9023 E. 46TH STREET;TULSA;OK;74145;9186274637
TULSA COUNTY COURT CLERKS OFFICE;500 SOUTH DENVER AVE;TULSA;OK;74103;9185965419
WEST TULSA STATION;3408 W. 42ND PL.;TULSA;OK;74107;9184463976
CRAIG COUNTY COURT CLERK;210 WEST DELAWARE;VINITA;OK;74301;9182566451
WAGONER POST OFFICE;233 E. CHURCH ST.;WAGONER;OK;74467;9184851043
COTTON COUNTY COURT CLERK OFFICE;301 N. BROADWAY 3RD FL;WALTERS;OK;73572;5808753029
BLAINE COUNTY COURT CLERK;212 N WEIGLE;WATONGA;OK;73772;5806235300
WEATHERFORD MAIN POST OFFICE;107 E. FRANKLIN AVE.;WEATHERFORD;OK;73096;5807722412
WOODWARD COUNTY COURT CLERK;1600 MAIN;WOODWARD;OK;73801;5802563413
WOODWARD POST OFFICE;2020 WILLIAMS AVE;WOODWARD;OK;73801;5802567138
