facilityName;streetAdress;city;state;zipCode;publicPhone
AVON POST OFFICE;15 ENFORD STREET;AVON;CT;06001;8606780525
BERLIN-PECK MEMORIAL LIBRARY;234 KENSINGTON ROAD;BERLIN;CT;06037;8608287125
BETHLEHEM POST OFFICE;34 EAST STREET;BETHLEHEM;CT;06751;2032667910
BLOOMFIELD POST OFFICE;40 JEROME AVE;BLOOMFIELD;CT;06002;8602420727
BRANFORD POST OFFICE;35 PARK PLACE;BRANFORD;CT;06405;2034880663
WILLOUGHBY WALLACE MEMORIAL LIBRARY;146 THIMBLE ISLANDS RD;BRANFORD;CT;06405;2034888702
BAYVIEW STATION;115 BOSTON AVENUE;BRIDGEPORT;CT;06610;2033322681
BRIDGEPORT MAIN POST OFFICE;120 MIDDLE STREET;BRIDGEPORT;CT;06602;2033325302
BRISTOL POST OFFICE;151 N MAIN ST;BRISTOL;CT;06010;8605831371
BURLINGTON POST OFFICE;715 GEORGE WASHINGTON TPKE;BURLINGTON;CT;06013;8606756339
CANAAN POST OFFICE;9 CHURCH ST;CANAAN;CT;06018;8608247475
CHESHIRE POST OFFICE;210 MAPLE STREET;CHESHIRE;CT;06410;2032723593
CHESTER POST OFFICE;100 MAIN STREET;CHESTER;CT;06412;8605262780
CLINTON POST OFFICE;2 WEST MAIN STREET;CLINTON;CT;06413;8606694155
HENRY CARTER HULL LIBRARY;10 KILLINGWORTH TURNPIKE;CLINTON;CT;06413;8606692342
COLCHESTER POST OFFICE;103 SOUTH MAIN STREET;COLCHESTER;CT;06415;8605375695
TOWN OF COLUMBIA;323 ROUTE 87;COLUMBIA;CT;06237;8602280440
CORNWALL BRIDGE POST OFFICE;18A KENT RD;CORNWALL BRIDGE;CT;06754;8606726710
CROMWELL POST OFFICE;528 MAIN STREET;CROMWELL;CT;06416;8603655611
DANBURY POST OFFICE;23 BACKUS AVE;DANBURY;CT;06810;2037961905
DANIELSON POST OFFICE;70 WATER ST;DANIELSON;CT;06239;8607795066
DARIEN POST OFFICE;30 CORBIN DRIVE;DARIEN;CT;06820;2036552595
DAYVILLE POST OFFICE;988 N. MAIN STREET;DAYVILLE;CT;06241;8607744131
DEEP RIVER POST OFFICE;225 MAIN STREET;DEEP RIVER;CT;06417;8605265970
DURHAM TOWN HALL;30 TOWNHOUSE ROAD;DURHAM;CT;06422;8603493625
EAST HADDAM POST OFFICE;34 MAIN STREET;EAST HADDAM;CT;06423;8608738521
EAST HARTFORD (SILVER LN. BRANCH) POST OFFICE;888 SILVER LANE;EAST HARTFORD;CT;06118;8605698633
EAST HARTFORD MAIN POST OFFICE;850 MAIN STREET;EAST HARTFORD;CT;06108;8605286529
TROLLEY SQUARE POST OFFICE;175 MAIN STREET;EAST HAVEN;CT;06512;2034699071
HALL MEMORIAL LIBRARY;93 MAIN STREET;ELLINGTON;CT;06029;8608703160
ENFIELD POST OFFICE;31 PALOMBA DRIVE;ENFIELD;CT;06082;8607452475
ESSEX LIBRARY;33 WEST AVENUE;ESSEX;CT;06426;8607671560
FAIR HAVEN POST OFFICE;230 GRAND AVENUE;FAIR HAVEN;CT;06513;2037733538
FAIRFIELD POST OFFICE;357 COMMERCE DR.;FAIRFIELD;CT;06825;2033324546
FAIRFIELD PROBATE COURT;725 OLD POST ROAD;FAIRFIELD;CT;06824;2032563041
FARMINGTON LIBRARY;6 MONTEITH DRIVE;FARMINGTON;CT;06032;8606736791
FARMINGTON POST OFFICE;210 MAIN STREET;FARMINGTON;CT;06032;8606797768
GAYLORDSVILLE POST OFFICE;3 GEORGE WASHINGTON PLAZA;GAYLORDSVILLE;CT;06755;8603549727
GEORGETOWN POST OFFICE;65 REDDING RD;GEORGETOWN;CT;06829;2035448643
TOWN HALL OF GLASTONBURY;2155 MAIN STREET;GLASTONBURY;CT;06033;8606527518
WELLES-TURNER MEMORIAL LIBRARY;2407 MAIN STREET;GLASTONBURY;CT;06033;8606527710
GRANBY POST OFFICE;10 BANK STREET;GRANBY;CT;06035;8606532293
GREENWICH POST OFFICE;29 VALLEY DRIVE;GREENWICH;CT;06831;2036253168
GROTON POST OFFICE;100 PLAZA STREET;GROTON;CT;06340;8604458154
GROTON PUBLIC LIBRARY;52 NEWTOWN ROAD;GROTON;CT;06340;8604416750
GUILFORD POST OFFICE;42 WATER STREET;GUILFORD;CT;06437;2034533552
HADDAM POST OFFICE;1050 SAYBROOK RD;HADDAM;CT;06438;8603454770
HAMDEN POST OFFICE;1744 DIXWELL AVE;HAMDEN;CT;06514;2032483171
WHITNEYVILLE STATION POST OFFICE;1224 WHITNEY AVENUE;HAMDEN;CT;06517;2037827081
HANOVER POST OFFICE;290 MAIN STREET;HANOVER;CT;06350;8608226901
HARTFORD MAIN POST OFFICE;141 WESTON STREET;HARTFORD;CT;06101;8605246147
HARTFORD PUBLIC LIBRARY;500 MAIN STREET;HARTFORD;CT;06103;8606951494
HARTFORD WASHINGTON ST. POST OFFICE;189 WASHINGTON ST;HARTFORD;CT;06106;8602401742
OLD STATE HOUSE STATION POST OFFICE;80 STATE HOUSE SQUARE;HARTFORD;CT;06123;8605246147
HAWLEYVILLE POST OFFICE;23 BARNABAS ROAD;HAWLEYVILLE;CT;06440;2034260623
HIGGANUM POST OFFICE;26 KILLINGWORTH ROAD;HIGGANUM;CT;06441;8603452703
KENT POST OFFICE;31 KENT GREEN BLVD;KENT;CT;06757;8609273435
LAKEVILLE POST OFFICE;339 MAIN STREET;LAKEVILLE;CT;06039;8604352780
LEBANON TOWN HALL;579 EXETER ROAD;LEBANON;CT;06249;8606426100
LITCHFIELD HILLS PROBATE COURT;74 WEST STREET;LITCHFIELD;CT;06759;8605678065
MADISON POST OFFICE;781 BOSTON POST ROAD;MADISON;CT;06443;2032452394
MANCHESTER CUSTOMER SVC INFO CTR;41 CENTER STREET;MANCHESTER;CT;06040;8606475235
MANCHESTER POST OFFICE;111 SHELDON ROAD;MANCHESTER;CT;06040;8606432735
CITY OF MERIDEN CITY COUNCIL CLERK;142 EAST MAIN STREET;MERIDEN;CT;06450;2036304125
MERIDEN POST OFFICE;190 CENTER STREET;MERIDEN;CT;06450;2032355755
MIDDLETOWN POST OFFICE;11 SILVER STREET;MIDDLETOWN;CT;06457;8606386977
MIDDLETOWN PROBATE COURT;94 COURT STREET;MIDDLETOWN;CT;06457;8603477424
MILFORD POST OFFICE;300 PEPES FARM RD;MILFORD;CT;06460;2038766180
MILFORD PUBLIC LIBRARY;57 NEW HAVEN AVENUE;MILFORD;CT;06460;2037833309
NAUGATUCK POST OFFICE;170 WATER STREET;NAUGATUCK;CT;06770;2037293421
BERLIN DISTRICT PROBATE COURT;ONE LIBERTY SQUARE;NEW BRITAIN;CT;06050;8608262696
NEW BRITAIN POST OFFICE;135 CHESTNUT STREET;NEW BRITAIN;CT;06050;8602233681
AMITY POST OFFICE;1449 WHALLEY AVENUE;NEW HAVEN;CT;06515;2037827256
NEW HAVEN MPO;50 BREWERY STREET;NEW HAVEN;CT;06511;2037827299
WESTVILLE STATION POST OFFICE;95 FOUNTAIN STREET;NEW HAVEN;CT;06515;2033898645
YALE STATION POST OFFICE;206 ELM STREET;NEW HAVEN;CT;06520;2037733454
NEW LONDON POST OFFICE;27 MASONIC STREET;NEW LONDON;CT;06320;8604434393
NEW MILFORD MAYORS OFFICE;10 MAIN STREET;NEW MILFORD;CT;06776;8603556010
NEWINGTON BRANCH POST OFFICE;75 LOWREY PLACE;NEWINGTON;CT;06111;8606668436
NEWTOWN POST OFFICE;5 COMMERCE ROAD;NEWTOWN;CT;06470;2032700300
TOWN OF EAST LYME PARKS AND RECREATION DEPARTMENT;41 SOCIETY ROAD;NIANTIC;CT;06357;8607395828
NORTH CANTON POST OFFICE;531 CHERRY BROOK ROAD;NORTH CANTON;CT;06059;8606932570
NORWALK BELDEN AVE POST OFFICE;2 BELDEN AVE;NORWALK;CT;06850;2038661673
NORWALK POST OFFICE;16 WASHINGTON STREET;NORWALK;CT;06854;2038544747
NORWALK PUBLIC LIBRARY - MAIN BRANCH;1 BELDEN AVENUE;NORWALK;CT;06850;2038992780
NORWALK PUBLIC LIBRARY SOUTH NORWALK BRANCH;10 WASHINGTON STREET;NORWALK;CT;06854;2038992790
NORWICH POST OFFICE;340 MAIN STREET;NORWICH;CT;06360;8608595812
OTIS LIBRARY;261 MAIN STREET;NORWICH;CT;06360;8608892365
OLD GREENWICH POST OFFICE;36 ARCADIA ROAD;OLD GREENWICH;CT;06870;2036371405
OLD LYME - PHOEBE GRIFFIN NOYES LIBRARY;2 LIBRARY LANE;OLD LYME;CT;06371;8604341684
OLD SAYBROOK POST OFFICE;36 MAIN STREET;OLD SAYBROOK;CT;06475;8603884479
ORANGE POST OFFICE;36 OLD TAVERN ROAD;ORANGE;CT;06477;2037953523
PLANTSVILLE POST OFFICE;847 SOUTH MAIN STREET;PLANTSVILLE;CT;06479;8606286517
PROSPECT POST OFFICE;70 WATERBURY ROAD;PROSPECT;CT;06712;2037584771
PUTNAM POST OFFICE;189 MAIN STREET;PUTNAM;CT;06260;8609284051
QUAKER HILL POST OFFICE;132 OLD NORWICH RD;QUAKER HILL;CT;06375;8604435020
RIDGEFIELD LIBRARY;472 MAIN STREET;RIDGEFIELD;CT;06877;2034382282
RIDGEFIELD POST OFFICE;26 CATOONAH STREET;RIDGEFIELD;CT;06877;2034386561
ROCKFALL POST OFFICE;110 MAIN STREET;ROCKFALL;CT;06481;8603471026
ROCKY HILL POST OFFICE;32 CHURCH ST;ROCKY HILL;CT;06067;8605633526
ROXBURY POST OFFICE;26 NORTH STREET;ROXBURY;CT;06783;8603540591
SEYMOUR POST OFFICE;91 MAIN STREET;SEYMOUR;CT;06483;2038883830
SHARON POST OFFICE;2 LOW ROAD;SHARON;CT;06069;8603645306
SHELTON POST OFFICE;83 BRIDGE ST;SHELTON;CT;06484;2039248349
SHERMAN POST OFFICE;29 ROUTE 37 CENTER #1;SHERMAN;CT;06784;8603546191
SIMBURY PUBLIC LIBRARY;725 HOPMEADOW STREET;SIMSBURY;CT;06070;8606587668
SIMSBURY POST OFFICE;932 HOPMEADOW ST.;SIMSBURY;CT;06070;8606587811
SOUTH WINDSOR POST OFFICE;850 CLARK STREET;SOUTH WINDSOR;CT;06074;8606442451
SOUTHBURY POST OFFICE;710 MAIN STREET SOUTH;SOUTHBURY;CT;06488;2032642779
SOUTHINGTON MUNICIPAL CENTER - TOWN HALL,TAX OFFICE;75 MAIN STREET;SOUTHINGTON;CT;06489;8602766200
SOUTHPORT POST OFFICE;402 PEQUOT AVE;SOUTHPORT;CT;06890;2032592877
FERGUSON LIBRARY;ONE PUBLIC LIBRARY PLAZA;STAMFORD;CT;06904;2039641000
HARRY BENNETT BRANCH LIBRARY;115 VINE ROAD;STAMFORD;CT;06905;2039641000
SPRINGDALE POST OFFICE;24 CAMP  AVE0904;STAMFORD;CT;06907;2033213910
STERLING MAIN POST OFFICE;347 STERLING RD;STERLING;CT;06377;8605645737
STORRS POST OFFICE;9 CHARLES SMITH WAY;STORRS-MANSFIELD;CT;06268;8604299681
STRATFORD POST OFFICE;411 BARNUM AVE CUT-OFF;STRATFORD;CT;06614;2033811373
TERRYVILLE POST OFFICE;19 NORTH RIVERSIDE AVE;TERRYVILLE;CT;06786;8605823215
THOMASTON POST OFFICE;150 MAIN ST;THOMASTON;CT;06787;8602834664
THOMPSON POST OFFICE;366 THOMPSON HILL ROAD;THOMPSON;CT;06277;8609239130
TORRINGTON POST OFFICE;185 EAST ELM STREET;TORRINGTON;CT;06790;8604890438
TRUMBULL POST OFFICE;50 QUALITY STREET;TRUMBULL;CT;06611;2032685727
UNCASVILLE POST OFFICE;1587 NORWICH NEW LONDON TPKE;UNCASVILLE;CT;06382;8608488454
UNIONVILLE POST OFFICE;24 MILL STREET;UNIONVILLE;CT;06085;8606732004
VERNON - ROCKVILLE POST OFFICE;141 UNION ST;VERNON;CT;06066;8608727311
WALLINGFORD POST OFFICE;4 SOUTH MAIN STREET;WALLINGFORD;CT;06492;2032698712
WALLINGFORD PROBATE COURT;45 S MAIN STREET;WALLINGFORD;CT;06492;2032942100
WASHINGTON DEPOT POST OFFICE;9 BRYAN HALL PLAZA;WASHINGTON DEPOT;CT;06794;8608687474
WATERBURY LAKEWOOD POST OFFICE;797 LAKEWOOD RD;WATERBURY;CT;06703;2037577511
WATERBURY POST OFFICE;135 GRAND STREET;WATERBURY;CT;06701;2035746546
WATERFORD POST OFFICE;222 BOSTON POST RD;WATERFORD;CT;06385;8604438407
WATERTOWN POST OFFICE;30 WOODRUFF AVE;WATERTOWN;CT;06795;8602742900
BISHOPS CORNER POST OFFICE;12 CROSS ROAD PLAZA;WEST HARTFORD;CT;06117;8602312872
ELMWOOD VILLAGE POST OFFICE;121 SHIELD STREET;WEST HARTFORD;CT;06110;8609534920
ALLINGTOWN BRANCH POST OFFICE;75 FARWELL ST.;WEST HAVEN;CT;06516;2039379135
CAMPBELL AVE STATION POST OFFICE;589 CAMPBELL AVE;WEST HAVEN;CT;06516;2039377178
WESTBROOK POST OFFICE;1411 BOSTON POST ROAD;WESTBROOK;CT;06498;8603996293
WESTPORT POST OFFICE;275 POST ROAD EAST;WESTPORT;CT;06880;2032290480
WETHERSFIELD POST OFFICE;67 BEAVER RD;WETHERSFIELD;CT;06109;8604936325
TOWN MANAGERS OFFICE;979 MAIN STREET;WILLIMANTIC;CT;06226;8604653069
WILLIMANTIC POST OFFICE;919 MAIN STREET;WILLIMANTIC;CT;06226;8604564270
WILTON POST OFFICE;15 HUBBARD RD;WILTON;CT;06897;2037625555
WINDSOR POST OFFICE;245 BROAD STREET;WINDSOR;CT;06095;8606885259
WINDSOR PUBLIC LIBRARY;328 BROAD STREET;WINDSOR;CT;06095;8602851920
BRADLEY AIR MAIL FACILITY POST OFFICE;10 SCHOEPHOESTER ROAD;WINDSOR LOCKS;CT;06096;8602923304
WINSTED POST OFFICE;328 MAIN STREET;WINSTED;CT;06098;8603796675
WOODBURY POST OFFICE;1 WASHINGTON AVE;WOODBURY;CT;06798;2032633507
WOODSTOCK POST OFFICE;679 ROUTE 169;WOODSTOCK;CT;06281;8609635341
