facilityName;streetAdress;city;state;zipCode;publicPhone
YORK COUNTY PROBATE COURT;45 KENNEBUNK ROAD;ALFRED;ME;04002;2073241577
ANDROSCOGGIN COUNTY PROBATE COURT;2 TURNER STREET;AUBURN;ME;04210;2077532500
CENTRAL MAINE COMMUNITY COLLEGE;1250 TURNER ST;AUBURN;ME;04210;2077555294
AUGUSTA POST OFFICE;40 WESTERN AVE;AUGUSTA;ME;04330;2076226114
BANGOR POST OFFICE;73 HAMMOND  STREET;BANGOR;ME;04401;2079900520
SAGADAHOC COUNTY PROBATE COURT;752 HIGH STREET;BATH;ME;04530;2074438218
WALDO COUNTY PROBATE COURT;103 CHURCH STREET;BELFAST;ME;04915;2073382780
BETHEL POST OFFICE;82 MAIN ST;BETHEL;ME;04217;2078242668
BIDDEFORD POST OFFICE;100 ALFRED STREET;BIDDEFORD;ME;04005;2072838565
BOOTHBAY POST OFFICE;13 COREY LANE;BOOTHBAY;ME;04537;2076337536
BOOTHBAY HARBOR POST OFFICE;15 OAK ST;BOOTHBAY HARBOR;ME;04538;2076333090
BOWDOINHAM POST OFFICE;49 POND ROAD;BOWDOINHAM;ME;04008;2076663465
BREWER POST OFFICE;22 PARKWAY SOUTH;BREWER;ME;04412;2079893855
BREWER PUBLIC LIBRARY;100 SOUTH MAIN STREET;BREWER;ME;04412;2079897943
BRIDGTON POST OFFICE;6 ELM ST;BRIDGTON;ME;04009;2076472081
BRUNSWICK POST OFFICE;30 PLEASANT ST;BRUNSWICK;ME;04011;2077252542
TOWN OF BRUNSWICK - TAX OFFICE;85 UNION ST.;BRUNSWICK;ME;04011;2077256657
CALAIS POST OFFICE;76 NORTH STREET;CALAIS;ME;04619;2074541140
CANAAN POST OFFICE;273 MAIN STREET;CANAAN;ME;04924;2074743349
CARIBOU POST OFFICE;41 SWEDEN STREET;CARIBOU;ME;04736;2074920080
CASTINE POST OFFICE;43 MAIN ST;CASTINE;ME;04421;2073268551
PRINCE MEMORIAL LIBRARY;266 MAIN ST.;CUMBERLAND;ME;04021;2074644493
DANFORTH POST OFFICE;33 SPRINGFIELD ROAD;DANFORTH;ME;04424;2074482958
DOVER - FOXCROFT POST OFFICE;41 NORTH ST;DOVER-FOXCROFT;ME;04426;2075642511
ELLSWORTH POST OFFICE;199 MAIN STREET;ELLSWORTH;ME;04605;2076675340
HANCOCK COUNTY REGISTRY OF DEEDS;50 STATE STREET;ELLSWORTH;ME;04605;2076678353
FRANKLIN COUNTY PROBATE COURT;140 MAIN STREET;FARMINGTON;ME;04938;2077785888
FORT KENT POST OFFICE;152 WEST MAIN ST;FORT KENT;ME;04743;2078343313
FRENCHVILLE POST OFFICE;386 U.S. ROUTE 1;FRENCHVILLE;ME;04745;2075437444
GORHAM POST OFFICE;1 POST OFFICE SQ;GORHAM;ME;04038;2078393591
GREENVILLE JUNCTION POST OFFICE;383 PRITHAM AVE;GREENVILLE JCT;ME;04442;2076953353
GUILFORD POST OFFICE;10 HUDSON AVENUE;GUILFORD;ME;04443;2078764515
HALLOWELL POST OFFICE;95 SECOND STREET;HALLOWELL;ME;04347;2076221121
TOWN OF HARPSWELL - TAX COLLECTOR OFFICE;263 MOUNTAIN ROAD;HARPSWELL;ME;04079;2078335771
HOULTON POST OFFICE;39 COURT STREET;HOULTON;ME;04730;2075323506
REGISTRY OF DEEDS - SOUTH;26 COURT STREET.;HOULTON;ME;04730;2075321500
JACKMAN POST OFFICE;552 MAIN ST;JACKMAN;ME;04945;2076687771
KITTERY POST OFFICE;10 SHAPLEIGH RD;KITTERY;ME;03904;2074392018
LEWISTON POST OFFICE;49 ASH STREET;LEWISTON;ME;04240;2077887449
TOWN OF LINCOLN ASSESSING DEPT;29 MAIN STREET;LINCOLN;ME;04457;2077943372
LITCHFIELD POST OFFICE;1882 HALLOWELL ROAD;LITCHFIELD;ME;04350;2072684088
LIVERMORE FALLS POST OFFICE;60 MAIN ST;LIVERMORE FALLS;ME;04254;2078973614
MACHIAS POST OFFICE;89 COURT STREET;MACHIAS;ME;04654;2072553725
MADAWASKA POST OFFICE;370 MAIN STREET;MADAWASKA;ME;04756;2077284302
MANCHESTER POST OFFICE;31 READFIELD ROAD;MANCHESTER;ME;04351;2076229559
MARS HILL POST OFFICE;7 LINCOLN ST;MARS HILL;ME;04758;2074299177
MILO POST OFFICE;10 PLEASANT ST.;MILO;ME;04463;2079432272
TOWN OF OLD ORCHARD BEACH;1 PORTLAND AVENUE;OLD ORCHARD BEACH;ME;04064;2079375645
ORONO POST OFFICE;1 BENNOCH RD;ORONO;ME;04473;2078662566
PATTEN POST OFFICE;24 MAIN ST;PATTEN;ME;04765;2075282210
CUMBERLAND COUNTY PROBATE OFFICE;142 FEDERAL STREET;PORTLAND;ME;04101;2078718382
PORTLAND CITY HALL CITY MANAGERS OFFICE;389 CONGRESS STREET;PORTLAND;ME;04101;2078748685
PORTLAND POST OFFICE;125 FOREST AVENUE;PORTLAND;ME;04101;2078718437
MARK AND EMILY TURNER MEMORIAL LIBRARY;39 SECOND STREET;PRESQUE ISLE;ME;04769;2077642571
PRESQUE ISLE POST OFFICE;23 SECOND ST;PRESQUE ISLE;ME;04769;2077683911
RANGELEY POST OFFICE;2517 MAIN ST;RANGELEY;ME;04970;2078642233
KNOX COUNTY PROBATE COURT;62 UNION STREET;ROCKLAND;ME;04841;2075940427
ROCKLAND POST OFFICE;21 LIMEROCK STREET;ROCKLAND;ME;04841;2075966461
RUMFORD POST OFFICE;137 CONGRESS ST;RUMFORD;ME;04276;2073648681
SABATTUS POST OFFICE;4 MIDDLE ROAD;SABATTUS;ME;04280;2073754251
SANFORD POST OFFICE;30 SCHOOL STREET;SANFORD;ME;04073;2073243664
SCARBOROUGH COMMUNITY SERVICES;259 U S ROUTE ONE;SCARBOROUGH;ME;04074;2077304150
TOWN OF SKOWHEGAN TOWN MANAGERS OFFICE;225 WATER ST;SKOWHEGAN;ME;04976;2074746907
OXFORD COUNTY PROBATE COURT;26 WESTERN AVE;SOUTH PARIS;ME;04281;2077436671
CITY OF SOUTH PORTLAND;25 COTTAGE ROAD;SOUTH PORTLAND;ME;04106;2077673201
SPRINGVALE POST OFFICE;492 MAIN ST;SPRINGVALE;ME;04083;2073246360
TOWN OF STANDISH;175 NORTHEAST ROAD;STANDISH;ME;04084;2076423461
STRATTON POST OFFICE;95 MAIN ST;STRATTON;ME;04982;2072466461
TOPSHAM TOWN HALL-PLANNING;100 MAIN STREET;TOPSHAM;ME;04086;2077251724
VAN BUREN POST OFFICE;42 MAIN ST;VAN BUREN;ME;04785;2078682874
WATERVILLE POST OFFICE;33 COLLEGE AVE;WATERVILLE;ME;04901;2078730714
TOWN OF WINDHAM - TAX COLLECTION;8 SCHOOL ROAD;WINDHAM;ME;04062;2078922511
WINDHAM POST OFFICE;765 ROOSEVELT TRAIL STE 7;WINDHAM;ME;04062;2078924742
REGISTRY OF PROBATE - LINCOLN COUNTY;32 HIGH STREET;WISCASSET;ME;04578;2078827392
YORK POST OFFICE;10 WOODBRIDGE ROAD;YORK;ME;03909;2073632441
