facilityName;streetAdress;city;state;zipCode;publicPhone
ABBEVILLE POST OFFICE;1503 N MAIN ST;ABBEVILLE;SC;29620;8644594447
AIKEN POST OFFICE;307 LAURENS ST NW;AIKEN;SC;29801;8036499211
ANDERSON POST OFFICE;1900-B  N. MAIN ST;ANDERSON;SC;29621;8642261595
BARNWELL POST OFFICE;221 MAIN ST;BARNWELL;SC;29812;8032593195
BEAUFORT MAIN POST OFFICE;501 CHARLES STREET;BEAUFORT;SC;29902;8435248780
BLUFFTON POST OFFICE;25 THURMOND WAY;BLUFFTON;SC;29910;8437575857
CAMPOBELLO POST OFFICE;30 S MAIN ST;CAMPOBELLO;SC;29322;8644684585
CENTRAL POST OFFICE;1205 W MAIN ST;CENTRAL;SC;29630;8646392814
COLLEGE OF CHARLESTON;89 ST PHILIP ST;CHARLESTON;SC;29424;8439535534
EAST BAY STATION;557 E BAY ST;CHARLESTON;SC;29403;8437271129
CLERK OF COURT CHESTERFIELD COUNTY SC;200 W MAIN ST;CHESTERFIELD;SC;29709;8436232574
CLEMSON POST OFFICE;519 COLLEGE AVE;CLEMSON;SC;29631;8646542531
CLEVELAND POST OFFICE;4031 GEER HWY;CLEVELAND;SC;29635;8648368378
COLUMBIA MAIN POST OFFICE;1601 ASSEMBLY ST;COLUMBIA;SC;29201;8037334643
SANDHILLS POST OFFICE;1805 CLEMSON RD;COLUMBIA;SC;29229;8038658833
USC POSTAL SERVICES;1600 HAMPTON STREET;COLUMBIA;SC;29208;8037773168
USC STUDENT MAIL CENTER;1400 GREENE STREET;COLUMBIA;SC;29225;8037774109
COASTAL CAROLINA UNIVERSITY;107 FOUNDERS DRIVE;CONWAY;SC;29579;8433492156
HORRY COUNTY COURTHOUSE CLERK OF COURT;1301 2ND  AVE;CONWAY;SC;29526;8439155080
DARLINGTON POST OFFICE;115 E SMITH AVE;DARLINGTON;SC;29532;8433933223
DILLON POST OFFICE;300 W MAIN ST;DILLON;SC;29536;8437749481
DONALDS POST OFFICE;119 W MAIN ST;DONALDS;SC;29638;8643792302
DRAYTON POST OFFICE;1955 DRAYTON RD;DRAYTON;SC;29333;8645827138
DUNCAN POST OFFICE;131 W MAIN ST;DUNCAN;SC;29334;8644393920
EASLEY POST OFFICE;810 SOUTH PENDLETON STREET;EASLEY;SC;29640;8648599411
EFFINGHAM POST OFFICE;5913 S. IRBY STREET;EFFINGHAM;SC;29541;8436625854
ELGIN POST OFFICE;1100 CHURCH ST;ELGIN;SC;29045;8034383536
ELLOREE POST OFFICE;6417 OLD NUMBER SIX HIGHWAY;ELLOREE;SC;29047;8038972333
EUTAWVILLE POST OFFICE;313 PORCHER AVE;EUTAWVILLE;SC;29048;8034927451
FLORENCE POST OFFICE;1901 W EVANS ST;FLORENCE;SC;29501;8436792445
GEORGETOWN MAIN POST OFFICE;1101 CHARLOTTE ST;GEORGETOWN;SC;29440;8435465515
GOOSE CREEK POST OFFICE;307 GOOSE CREEK BLVD;GOOSE CREEK;SC;29445;8435530321
GREENVILLE COUNTY REGISTER OF DEEDS;301 UNIVERSITY RIDGE, STE 5550;GREENVILLE;SC;29601;8644677391
GREENVILLE MAIN POST OFFICE;600 W WASHINGTON ST;GREENVILLE;SC;29602;8642828422
KEITH OGLESBY STATION;100 ORCHARD PARK DR;GREENVILLE;SC;29616;8642885207
GREENWOOD POST OFFICE;240 NORTH CREEK BLVD;GREENWOOD;SC;29649;8642296072
HARTSVILLE MEMORIAL LIBRARY;147 WEST COLLEGE AVENUE;HARTSVILLE;SC;29550;8433325115
HARTSVILLE POST OFFICE;500 SOUTH 4TH ST;HARTSVILLE;SC;29550;8433329611
HEATH SPRINGS POST OFFICE;101 N MAIN ST;HEATH SPRINGS;SC;29058;8032734855
HILTON HEAD POST OFFICE;10 BOW CIRCLE;HILTON HEAD ISLAND;SC;29928;8437857002
HOLLY HILL POST OFFICE;525 GARDNER BLVD;HOLLY HILL;SC;29059;8034963910
HOLLYWOOD POST OFFICE;6349 HIGHWAY 162;HOLLYWOOD;SC;29449;8438892624
HONEA PATH POST OFFICE;312 N SHIRLEY AVE;HONEA PATH;SC;29654;8643697743
HUGER POST OFFICE;3282 HWY 41;HUGER;SC;29450;8433363846
INMAN POST OFFICE;14 BLACKSTOCK ROAD;INMAN;SC;29349;8644728401
ISLE OF PALMS POST OFFICE;1000 PALM BLVD;ISLE OF PALMS;SC;29451;8438866536
IVA POST OFFICE;150 E GREEN ST;IVA;SC;29655;8643487555
JACKSON POST OFFICE;100 MAIN ST;JACKSON;SC;29831;8034713294
JEFFERSON POST OFFICE;108 S MAIN ST;JEFFERSON;SC;29718;8436583126
JOHNS ISLAND POST OFFICE;2860 MAYBANK HWY;JOHNS ISLAND;SC;29455;8435590622
JOHNSONVILLE POST OFFICE;417 N GEORGETOWN HWY;JOHNSONVILLE;SC;29555;8433862031
KINGSTREE POST OFFICE;129 W MILL ST;KINGSTREE;SC;29556;8433547076
LAKE CITY POST OFFICE;226 W MAIN ST;LAKE CITY;SC;29560;8433942421
LAMAR POST OFFICE;110 MAIN STREET;LAMAR;SC;29069;8433265211
LANCASTER COUNTY SC;101 N. MAIN ST.;LANCASTER;SC;29720;8034169432
LAURENS MAIN POST OFFICE;302 N HARPER STREET;LAURENS;SC;29360;8649843518
BATESBURG LEESVILLE POST OFFICE;110 E CHURCH ST;LEESVILLE;SC;29070;8035323766
FLOYD D SPENCE POST OFFICE;1830 S LAKE DR;LEXINGTON;SC;29073;8033599355
LEXINGTON COUNTY CLERK OF COURT;205 E. MAIN ST.;LEXINGTON;SC;29072;8037858393
LYMAN POST OFFICE;12490 GREENVILLE HWY;LYMAN;SC;29365;8644392476
MANNING MAIN POST OFFICE;10 W KEITT STREET;MANNING;SC;29102;8034358367
MARION POST OFFICE;201 S MAIN ST;MARION;SC;29571;8434233522
MOORE POST OFFICE;1129 CENTER POINT DR;MOORE;SC;29369;8645743242
MOUNT PLEASANT MAIN POST OFFICE;1050 JOHNNIE DODDS BLVD;MOUNT PLEASANT;SC;29464;8438847575
HORRY COUNTY CLERK OF COURT;9630 SCIPIO LANE;MYRTLE BEACH;SC;29588;8439155082
MYRTLE BEACH MAIN POST OFFICE;505 N KINGS HWY;MYRTLE BEACH;SC;29577;8436264426
SOCASTEE POST OFFICE;7140 HWY 707;MYRTLE BEACH;SC;29588;8436509059
NINETY SIX POST OFFICE;201 NORTH CAMBRIDGE ST;NINETY SIX;SC;29666;8645432920
NORTH AUGUSTA POST OFFICE;1450 GEORGIA AVE.;NORTH AUGUSTA;SC;29841;8032790744
CROSS COUNTY POST OFFICE;7075 CROSS COUNTY RD;NORTH CHARLESTON;SC;29418;8437605331
ORANGEBURG POST OFFICE;1550 MIDDLETON STREET;ORANGEBURG;SC;29115;8035361720
PICKENS POST OFFICE;110 JOHNSON ST;PICKENS;SC;29671;8648789513
PORT ROYAL POST OFFICE;1625 PARIS AVE;PORT ROYAL;SC;29935;8435247457
PROSPERITY POST OFFICE;155 N MAIN ST;PROSPERITY;SC;29127;8033642325
JASPER COUNTY CLERK OF COURT;265 RUSSELL STREET;RIDGELAND;SC;29936;8437267710
RIDGELAND POST OFFICE;7554 W MAIN STREET;RIDGELAND;SC;29936;8437266646
RIDGEVILLE POST OFFICE;185 CHURCH ST;RIDGEVILLE;SC;29472;8438733512
YORK COUNTY CLERK OF COURT;933 HECKLE BLVD, STE 101;ROCK HILL;SC;29732;8039091892
SALUDA POST OFFICE;424 TRAVIS AVE.;SALUDA;SC;29138;8644457411
SANDY SPRINGS POST OFFICE;5410 CLEMSON BLVD;SANDY SPRINGS;SC;29677;8642618585
SANTEE POST OFFICE;689 BASS DRIVE;SANTEE;SC;29142;8038542154
SCRANTON POST OFFICE;1810 US HWY 52;SCRANTON;SC;29591;8433894500
SENECA POST OFFICE;508 E MAIN ST;SENECA;SC;29678;8648828422
SHAW AFB POST OFFICE;510 NELSON AVENUE;SHAW AFB;SC;29152;8036662153
SIMPSONVILLE MAIN POST OFFICE;634 NE MAIN ST;SIMPSONVILLE;SC;29681;8649635909
SPARTANBURG COUNTY PUBLIC LIBRARY;151 S CHURCH STREET;SPARTANBURG;SC;29306;8645963505
SPARTANBURG POST OFFICE;250 S CHURCH ST;SPARTANBURG;SC;29306;8645850304
CALHOUN COUNTY LIBRARY;900 F R HUFF DRIVE;ST MATTHEWS;SC;29135;8038743389
ST STEPHEN MAIN POST OFFICE;3981 BRYNES DR;ST STEPHEN;SC;29479;8435672247
ST GEORGE POST OFFICE;5988 WEST JIM BILTON BLVD;ST. GEORGE;SC;29477;8435633551
SUMMERTON POST OFFICE;4 LARRY KING HWY;SUMMERTON;SC;29148;8034854533
SUMTER POST OFFICE;311 N MAIN ST;SUMTER;SC;29150;8037737312
SWANSEA POST OFFICE;295 S CHURCH STREET;SWANSEA;SC;29160;8035682837
TAYLORS POST OFFICE;4359 WADE HAMPTON;TAYLORS;SC;29687;8642441896
UNION POST OFFICE;804 INDUSTRIAL PARK RD;UNION;SC;29379;8644277638
WAGENER POST OFFICE;171 PARK ST NE;WAGENER;SC;29164;8035645781
WALHALLA POST OFFICE;208 W NORTH BROAD STREET;WALHALLA;SC;29691;8646383523
COLLETON COUNTY CLERK OF COURT;101 HAMPTON STREET;WALTERBORO;SC;29488;8435495791
WELLFORD POST OFFICE;1003 MAIN STREET;WELLFORD;SC;29385;8644399214
CAYCE - WEST COLUMBIA POST OFFICE;1535 PLATT SPRINGS RD;WEST COLUMBIA;SC;29169;8037960455
WHITE ROCK POST OFFICE;1947 DUTCH FORK RD;WHITE ROCK;SC;29177;8037819380
WHITMIRE POST OFFICE;205 MAIN STREET;WHITMIRE;SC;29178;8036943612
WINNSBORO POST OFFICE;144 N CONGRESS ST;WINNSBORO;SC;29180;8036359486
WOODRUFF POST OFFICE;955 N MAIN ST;WOODRUFF;SC;29388;8644762221
YEMASSEE MAIN OFFICE;27 SALKAHATCHIE ROAD;YEMASSEE;SC;29945;8435892831
