facilityName;streetAdress;city;state;zipCode;publicPhone
USPS ALVA POST OFFICE;17301 BROADWAY ST;ALVA;FL;33920;2397283924
FRANKLIN COUNTY CLERK OF COURT - FRANKLIN COUNTY COURTHOUSE;33 MARKET ST;APALACHICOLA;FL;32320;8506538861
ORANGE COUNTY CLERK OF COURT - APOPKA BRANCH;1111 N ROCK SPRINGS RD;APOPKA;FL;32712;4078362007
DESOTO COUNTY CLERK OF COURT;115 EAST OAK STREET;ARCADIA;FL;34266;8639934876
USPS ARCHER POST OFFICE;13553 SW STATE ROAD 45;ARCHER;FL;32618;3524952565
POLK COUNTY CLERK OF COURT - BARTOW BRANCH;255 N BROADWAY AVE;BARTOW;FL;33830;8635344000
PALM BEACH COUNTY CLERK OF COURT - WEST COUNTY COURTHOUSE;2950 STATE ROAD 15;BELLE GLADE;FL;33430;5619964843
USPS BIG PINE KEY POST OFFICE;29959 OVERSEAS HWY;BIG PINE KEY;FL;33043;3058722531
CALHOUN COUNTY CLERK OF COURT;20859 CENTRAL AVE E;BLOUNTSTOWN;FL;32424;8506744545
USPS DOWNTOWN BOCA RATON POST OFFICE;170 NE 2ND ST;BOCA RATON;FL;33432;5613628136
USPS BOKEELIA MAIN POST OFFICE;15980 STRINGFELLOW RD;BOKEELIA;FL;33922;2392834258
HOLMES COUNTY CLERK OF COURT;201 N OKLAHOMA ST;BONIFAY;FL;32425;8505471100
USPS BONITA SPRINGS POST OFFICE;26150 OLD 41ST ROAD;BONITA SPRINGS;FL;34135;2399920442
USPS BOYNTON BEACH MAIN POST OFFICE;1530 W BOYNTON BEACH BLVD;BOYNTON BEACH;FL;33436;5617407329
MANATEE COUNTY CLERK OF COURT;1115 MANATEE AVE W;BRADENTON;FL;34205;9417414020
HILLSBOROUGH COUNTY CLERK OF COURT - BRANDON REGIONAL SERVICE CENTER;311 PAULS DR;BRANDON;FL;33511;8132768100
USPS BRANDON POST OFFICE;1315 OAKFIELD DR;BRANDON;FL;33511;8136611503
LIBERTY COUNTY CLERK OF COURT;10818 NW STATE ROAD 20;BRISTOL;FL;32321;8506432215
BROOKSVILLE MAIN POST OFFICE;19101 CORTEZ BLVD.;BROOKSVILLE;FL;34601;3525444093
HERNANDO COUNTY CLERK OF COURT - MAIN OFFICE;20 N MAIN ST;BROOKSVILLE;FL;34601;3525406768
FLAGLER COUNTY PUBLIC LIBRARY- BUNNELL BRANCH;103 E. MOODY BLVD.;BUNNELL;FL;32110;3864377390
USPS BUNNELL MAIN POST OFFICE;704 E MOODY BVLD;BUNNELL;FL;32110;3864378453
SUMTER COUNTY CLERK OF COURT - MAIN OFFICE;215 E MCCOLLUM AVE;BUSHNELL;FL;33513;3525696600
CITY OF CAPE CORAL;1015 CULTURAL PARK BLVD;CAPE CORAL;FL;33990;2395740411
USPS CASSELBERRY MAIN POST OFFICE;109 LIVE OAKS BLVD;CASSELBERRY;FL;32707;4073397288
USPS CENTURY POST OFFICE;8450 N CENTURY BLVD;CENTURY;FL;32535;8502562376
WASHINGTON COUNTY CLERK OF COURT;1293 JACKSON AVE;CHIPLEY;FL;32428;8506386285
USPS CHRISTMAS POST OFFICE;23580 E COLONIAL DR;CHRISTMAS;FL;32709;4075682941
PINELLAS COUNTY CLERK OF COURT - CLEARWATER BRANCH;315 COURT ST;CLEARWATER;FL;33756;7274647000
PINELLAS COUNTY CLERK OF COURT - NORTH COUNTY BRANCH;29582 US HWY 19 N;CLEARWATER;FL;33761;7274647000
USPS CLEARWATER MAIN POST OFFICE;100 S BELCHER RD;CLEARWATER;FL;33765;7274642906
CITY OF COCOA - OFFICE OF THE CITY CLERK;65 STONE ST;COCOA;FL;32922;3214338480
USPS COCOA POST OFFICE;2000 STATE ROAD 524;COCOA;FL;32926;3216327190
CITY OF COOPER CITY;9090 SW 50TH PLACE;COOPER CITY;FL;33328;9544344300
CITY OF CORAL GABLES;4520 PONCE DE LEON BLVD;CORAL GABLES;FL;33146;3054605351
CITY OF CORAL SPRINGS - CITY HALL IN THE MALL;9239 W ATLANTIC BLVD;CORAL SPRINGS;FL;33071;9543441828
USPS CORTEZ POST OFFICE;12112 44TH AVE W;CORTEZ;FL;34215;9417941219
WAKULLA COUNTY CLERK OF COURT;3056 CRAWFORDVILLE HWY;CRAWFORDVILLE;FL;32327;8509260905
PUTNAM COUNTY CLERK OF COURT - CRESCENT CITY SATELLITE OFFICE;115 N SUMMIT ST;CRESCENT CITY;FL;32190;3866981217
OKALOOSA COUNTY CLERK OF COURT - COURTHOUSE;101 E JAMES LEE BLVD;CRESTVIEW;FL;32536;8506895000
USPS CRESTVIEW POST OFFICE;1325 COMMERCE DR;CRESTVIEW;FL;32539;8506822634
PASCO COUNTY CLERK OF COURT - EAST PASCO GOVERNMENT CENTER;14236 6TH ST;DADE CITY;FL;33523;3525214469
USPS DANIA POST OFFICE;21 NW 1ST AVE;DANIA;FL;33004;9549295745
USPS DAYTONA BEACH MAIN POST OFFICE;500 BILL FRANCE BOULEVARD;DAYTONA BEACH;FL;32114;3862746329
USPS DE LEON SPRINGS POST OFFICE;155 PONCE DE LEON BLVD;DE LEON SPRINGS;FL;32130;3869854326
USPS DEBARY POST OFFICE;133 S CHARLES RICHARD BEALL BLVD;DEBARY;FL;32713;3866685468
BROWARD COUNTY CLERK OF COURT - NORTH REGIONAL COURTHOUSE;1600 W HILLSBORO BLVD;DEERFIELD BEACH;FL;33442;9548311453
USPS DEERFIELD BEACH POST OFFICE;212 E HILLSBORO BLVD;DEERFIELD BEACH;FL;33441;9544210812
WALTON COUNTY CLERK OF COURT - MAIN COURTHOUSE;571 US HWY 90 E;DEFUNIAK SPRINGS;FL;32433;8508928115
VOLUSIA COUNTY CLERK OF COURT - VOLUSIA COUNTY COURTHOUSE;101 N ALABAMA AVE;DELAND;FL;32724;3867365913
PALM BEACH COUNTY CLERK OF COURT- SOUTH COUNTY COURTHOUSE;200 W ATLANTIC AVE;DELRAY BEACH;FL;33444;5612741588
USPS EDGEWATER POST OFFICE;400 S RIDGEWOOD AVE;EDGEWATER;FL;32132;3864286656
USPS EGLIN AFB POST OFFICE;307 W VAN MATRE AVE;EGLIN AFB;FL;32542;8508823548
USPS ENGLEWOOD MAIN POST OFFICE;950 S RIVER RD;ENGLEWOOD;FL;34223;9414758372
COLLIER COUNTY CLERK OF COURT - EVERGLADES CITY HALL;102 COPELAND AVE;EVERGLADES CITY;FL;34139;2392525477
USPS FELLSMERE POST OFFICE;15 N OAK ST;FELLSMERE;FL;32948;7725718315
NASSAU COUNTY PUBLIC LIBRARY SYSTEM - FERNANDINA BEACH BRANCH;25 N 4TH ST;FERNANDINA BEACH;FL;32034;9045306500
USPS FERNANDINA BEACH MAIN POST OFFICE;1997 SADLER RD;FERNANDINA BEACH;FL;32034;9044914680
USPS FLEMING ISLAND POST OFFICE;1880 EASTWEST PKWY;FLEMING ISLAND;FL;32003;9042648913
BROWARD COUNTY CLERK OF COURT - CENTRAL COURTHOUSE;201 SE 6TH ST;FORT LAUDERDALE;FL;33301;9548312343
BROWARD COUNTY RECORDS, TAXES AND TREASURY DIVISION - PASSPORT SECTION;115 S ANDREWS AVE;FORT LAUDERDALE;FL;33301;9548314000
USPS ALRIDGE STATION;400 NW 7TH AVE;FORT LAUDERDALE;FL;33311;9545230327
USPS EVERGLADES BRANCH;6759 SW 196TH AVE;FORT LAUDERDALE;FL;33332;9544348517
USPS FORT LAUDERDALE MAIN POST OFFICE;1900 W OAKLAND PARK BLVD;FORT LAUDERDALE;FL;33310;9545273245
USPS PAGE FIELD POST OFFICE;2655 N AIRPORT RD;FORT MYERS;FL;33907;2392773336
USPS FORT PIERCE MAIN POST OFFICE;5000 W MIDWAY RD;FORT PIERCE;FL;34981;7724600841
FORT WALTON BEACH LIBRARY;185 MIRACLE STRIP PKWY SE;FORT WALTON BEACH;FL;32548;8508339590
INDIAN TEMPLE MOUND MUSEUM;139 MIRACLE STRIP PKWY SE;FORT WALTON BEACH;FL;32548;8508339595
OKALOOSA COUNTY CLERK OF COURT - COURTHOUSE ANNEX EXTENSION;1940 LEWIS TURNER BLVD;FORT WALTON BEACH;FL;32547;8506517200
USPS FORT WALTON BEACH POST OFFICE;21 WALTER MARTIN RD NE;FORT WALTON BEACH;FL;32548;8507963194
LEE COUNTY CLERK OF COURT;2115 2ND ST;FT. MYERS;FL;33901;2395335007
SAINT LUCIE COUNTY CLERK OF COURT - MAIN OFFICE;201 S INDIAN RIVER DR;FT. PIERCE;FL;34950;7724623207
ALACUHA COUNTY CLERK OF COURT - FAMILY/CIVIL JUSTICE CENTER;201 E UNIVERSITY AVE;GAINESVILLE;FL;32601;3523743636
UNIVERSITY OF FLORIDA - MAIL AND DOCUMENT SERVICES;3030 RADIO RD;GAINESVILLE;FL;32611;3523921134
USPS MAIN STREET STATION;1401 N MAIN ST;GAINESVILLE;FL;32601;3523763757
USPS UNIVERSITY STATION;1630 NW 1ST AVE;GAINESVILLE;FL;32603;3523763757
USPS GLEN SAINT MARY POST OFFICE;7345 W MOUNT VERNON ST;GLEN SAINT MARY;FL;32040;9042596789
USPS GONZALEZ POST OFFICE;1450 OLD CHEMSTRAND RD;GONZALEZ;FL;32560;8509689338
CLAY COUNTY CLERK OF COURT - MAIN OFFICE;825 N ORANGE AVE;GREEN COVE SPRINGS;FL;32043;9042846362
CITY OF GREENACRES - CITY HALL;5800 MELALEUCA LANE;GREENACRES;FL;33463;5616422024
SANTA ROSA COUNTY CLERK OF COURT - SOUTH END SERVICE CENTER;5841 GULF BREEZE PKWY;GULF BREEZE;FL;32563;8509831823
USPS HAINES CITY POST OFFICE;1051 STATE ROAD 544 E;HAINES CITY;FL;33844;8634222901
USPS HALLANDALE MAIN POST OFFICE;500 S FEDERAL HWY;HALLANDALE BEACH;FL;33009;9544559733
USPS EL MERCADO POSTAL STORE;2440 W 60TH ST;HIALEAH;FL;33016;3058229954
USPS HIALEAH MAIN POST OFFICE;325 E 1ST AVE;HIALEAH;FL;33010;3058895421
USPS PALMETTO LAKES POST OFFICE;5375 NW 159TH ST;HIALEAH;FL;33014;3056237993
USPS PROMENADE BRANCH;3690 W 18TH AVE;HIALEAH;FL;33012;3058199945
MARTIN COUNTY CLERK OF COURT - HOBE SOUND BRANCH OFFICE;11730 SE FEDERAL HWY;HOBE SOUND;FL;33455;7725461308
USPS HOLDER POST OFFICE;6906 N FLORIDA AVE;HOLDER;FL;34445;3524895351
BROWARD COUNTY CLERK OF COURT - SOUTH REGIONAL COURTHOUSE;3550 HOLLYWOOD BLVD;HOLLYWOOD;FL;33021;9548310320
USPS HOLLYWOOD MAIN POST OFFICE;1801 POLK ST;HOLLYWOOD;FL;33022;9549268669
USPS HOMESTEAD MAIN POST OFFICE;739 WASHINGTON AVE;HOMESTEAD;FL;33030;3052471556
USPS HUDSON POST OFFICE;13610 BIG BEND DR;HUDSON;FL;34667;7278190073
COLLIER COUNTY CLERK OF COURT - IMMOKALEE COURTHOUSE;106 S 1ST ST;IMMOKALEE;FL;34142;2392525477
USPS INDIAN ROCKS BEACH POST OFFICE;204 4TH AVE;INDIAN ROCKS BEACH;FL;33785;7275962894
USPS INDIANTOWN POST OFFICE;15300 SW ADAMS AVE;INDIANTOWN;FL;34956;7725972406
USPS INTERLACHEN POST OFFICE;100 MATHE AVE;INTERLACHEN;FL;32148;3866842228
CITRUS COUNTY CLERK OF COURT - MAIN COURTHOUSE;120 N. MONTGOMERY AVENUE;INVERNESS;FL;34450;3523416424
USPS ISLAMORADA POST OFFICE;82801 OVERSEAS HWY;ISLAMORADA;FL;33036;3056640649
DUVAL COUNTY CLERK OF COURT - DOWNTOWN COURTHOUSE;501 W ADAMS ST;JACKSONVILLE;FL;32202;9042551930
USPS JACKSONVILLE MAIN OFFICE WINDOW UNIT;1100 KINGS ROAD;JACKSONVILLE;FL;32203;9043664886
USPS MANDARIN POST OFFICE;4411 SUNBEAM RD;JACKSONVILLE;FL;32257;9043664866
USPS POTTSBURG STATION;10700 BEACH BLVD;JACKSONVILLE;FL;32246;9043664886
USPS JENSEN BEACH POST OFFICE;2301 NE SAVANNAH RD;JENSEN BEACH;FL;34957;7722320869
KATHLEEN POST OFFICE;6136 KATHLEEN ROAD;KATHLEEN;FL;33849;8638162201
USPS KEY BISCAYNE BRANCH;951 CRANDON BLVD;KEY BISCAYNE;FL;33149;3053619149
VILLAGE OF KEY BISCAYNE;10 VILLAGE GREEN WAY;KEY BISCAYNE;FL;33149;3053658900
FLORIDA KEYS COMMUNITY COLLEGE;5901 COLLEGE RD;KEY WEST;FL;33040;3058093186
USPS KEY WEST POST OFFICE;400 WHITEHEAD ST;KEY WEST;FL;33040;3052949539
OSCEOLA COUNTY CLERK OF COURT - MAIN OFFICE;2 COURTHOUSE SQ;KISSIMMEE;FL;34741;4077423530
HENDRY COUNTY CLERK OF CIRCUIT COURT;25 E HICKPOCHEE AVE;LABELLE;FL;33935;8636755216
LAKE COUNTY CLERK OF COURT - NORTH LAKE BRANCH OFFICE;902 AVENIDA CENTRAL;LADY LAKE;FL;32159;3527532064
UNION COUNTY CLERK OF COURTS;55 W MAIN ST;LAKE BUTLER;FL;32054;3864963711
COLUMBIA COUNTY CLERK OF COURT;173 NE HERNANDO AVE;LAKE CITY;FL;32055;3867547005
US POSTAL SERVICE LAKE HELEN FL;104 E. MICHIGAN AVE.;LAKE HELEN;FL;32744;3862282227
USPS LAKE PLACID POST OFFICE;901 HILLCREST AVE;LAKE PLACID;FL;33852;8636996776
POLK COUNTY CLERK OF COURT - LAKELAND BRANCH;930 E PARKER ST;LAKELAND;FL;33801;8635344000
USPS LAKELAND MAIN POST OFFICE;2800 LAKELAND HILLS BLVD;LAKELAND;FL;33805;8638022070
USPS LAND O LAKES MAIN POST OFFICE;5230 LAND O LAKES BLVD;LAND O LAKES;FL;34639;18002758777
LAKE COUNTY LIBRARY SYSTEM - LEESBURG PUBLIC LIBRARY;100 E MAIN ST;LEESBURG;FL;34748;3527289790
USPS LEHIGH ACRES POST OFFICE;1201 BUSINESS WAY;LEHIGH ACRES;FL;33936;2393698911
SUWANNEE COUNTY CLERK OF COURT;200 S OHIO AVE;LIVE OAK;FL;32064;3863620500
BAKER COUNTY CLERK OF COURT;339 E MACCLENNY AVE;MACCLENNY;FL;32063;9042590205
MADISON COUNTY CLERK OF COURT;125 SW RANGE AVE;MADISON;FL;32340;8509731500
USPS MARATHON POST OFFICE;5171 OVERSEAS HWY;MARATHON;FL;33050;3057435238
JACKSON COUNTY CLERK OF COURT;4445 LAFAYETTE ST;MARIANNA;FL;32446;8504829552
LAFAYETTE COUNTY CLERK OF COURT;120 W MAIN ST;MAYO;FL;32066;3862941600
USPS MAYO POST OFFICE;157 E MAIN ST;MAYO;FL;32066;3862941623
BREVARD COUNTY CLERK OF COURT - MELBOURNE BRANCH COURTHOUSE;51 S NIEMAN AVE;MELBOURNE;FL;32901;3216375413
USPS MELBOURNE MAIN POST OFFICE;640 E NEW HAVEN AVE;MELBOURNE;FL;32901;3217241488
BREVARD COUNTY CLERK OF COURT - MERRITT ISLAND OFFICE;2575 N COURTENAY PKWY;MERRITT ISLAND;FL;32953;3216375413
CITY OF MIAMI;3500 PAN AMERICAN DR;MIAMI;FL;33133;3058592705
MIAMI-DADE PUBLIC LIBRARY SYSTEM - SOUTH DADE REGIONAL LIBRARY;10750 SW 211TH ST;MIAMI;FL;33189;3052338140
USPS JOSE MARTI STATION;425 NW 27TH AVE;MIAMI;FL;33125;3055413264
USPS KENDALL FINANCE UNIT;8821 SW 136TH ST;MIAMI;FL;33176;3052351973
USPS LITTLE RIVER BRANCH;140 NE 84TH ST;MIAMI;FL;33138;3057541329
USPS MIAMI GENERAL MAIL FACILITY;2200 NW 72ND AVE;MIAMI;FL;33152;8558643379
USPS QUAIL HEIGHTS BRANCH;10360 SW 186TH ST;MIAMI;FL;33197;8558643379
USPS SNAPPER CREEK BRANCH;11000 SW 104TH ST;MIAMI;FL;33116;3055966024
USPS SOUTH MIAMI BRANCH;5927 SW 70TH ST;MIAMI;FL;33143;3056615435
USPS SURFSIDE POST OFFICE;250 95TH ST;MIAMI;FL;33154;3058679637
USPS TOWN AND COUNTRY POSTAL STORE;8266 MILLS DR;MIAMI;FL;33283;3052790679
CITY OF MIAMI BEACH - FINANCE OFFICE;1755 MERIDIAN AVE;MIAMI BEACH;FL;33139;3056737420
USPS MIAMI BEACH MAIN POST OFFICE;1300 WASHINGTON AVENUE;MIAMI BEACH;FL;33139;3055341891
USPS NORMANDY POST OFFICE;525 71ST ST;MIAMI BEACH;FL;33141;3058648155
USPS OCEAN VIEW POST OFFICE;445 W 40TH ST;MIAMI BEACH;FL;33140;3055386536
NORTH DADE REGIONAL LIBRARY;2455 N.W. 183RD STREET;MIAMI GARDENS;FL;33056;3056256424
SANTA ROSA COUNTY CLERK OF COURT - RECORDING DEPARTMENT;6495 CAROLINE ST;MILTON;FL;32570;8509831980
USPS MIMS POST OFFICE;3405 KELLY RD;MIMS;FL;32754;3212675122
LAKE COUNTY CLERK OF COURT - SOUTH LAKE MINNEOLA BRANCH OFFICE;800 N US HIGHWAY 27;MINNEOLA;FL;34715;3523942018
CITY OF MIRAMAR;2300 CIVIC CENTER PL;MIRAMAR;FL;33025;9546023011
JEFFERSON COUNTY CLERK OF COURT;1 COURTHOUSE CIR;MONTICELLO;FL;32344;8503420218
GLADES COUNTY CLERK OF COURT;500 AVE J;MOORE HAVEN;FL;33471;8639466010
COLLIER COUNTY CLERK OF CIRCUIT COURT - MAIN OFFICE;3315 E TAMIAMI TRL E;NAPLES;FL;34112;2392527242
COLLIER COUNTY CLERK OF COURT - EAGLE CREEK SATELLITE OFFICE;12668 E TAMIAMI TRAIL;NAPLES;FL;34113;2394173066
COLLIER COUNTY CLERK OF COURT - GOLDEN GATE ANNEX;4715 GOLDEN GATE PKWY;NAPLES;FL;34116;2392525477
COLLIER COUNTY CLERK OF COURT - NORTH COLLIER GOVERNMENT SERVICES CENTER;2335 ORANGE BLOSSOM DR;NAPLES;FL;34109;2392525477
DUVAL COUNTY CLERK OF COURT - BEACHES BRANCH;1543 ALTANTIC BLVD;NEPTUNE BEACH;FL;32266;9042552000
PASCO COUNTY CLERK OF COURT - WEST PASCO GOVERNMENT CENTER;8731 CITIZENS DR;NEW PORT RICHEY;FL;34654;7278478086
USPS NEW PORT RICHEY MAIN POST OFFICE;6550 MAIN ST;NEW PORT RICHEY;FL;34653;7278471659
OKALOOSA COUNTY TAX COLLECTOR - NICEVILLE TAX OFFICE;701 E JOHN SIMS PKWY;NICEVILLE;FL;32578;8506517300
NORTH BAY VILLAGE - OFFICE OF THE VILLAGE CLERK;1666 KENNEDY CSWY;NORTH BAY VILLAGE;FL;33141;3057567171
CITY OF NORTH MIAMI;776 NE 125TH ST;NORTH MIAMI;FL;33161;3058959817
USPS NORTH MIAMI BRANCH;14311 BISCAYNE BLVD;NORTH MIAMI;FL;33181;3053544612
NORTH MIAMI BEACH PUBLIC LIBRARY;1601 NE 164 ST;NORTH MIAMI BEACH;FL;33162;3059482970
USPS OAK HILL POST OFFICE;129 EAST HALIFAX AVENUE;OAK HILL;FL;32759;3863453574
MARION COUNTY CLERK OF COURT - ANNEX BUILDING;19 NORTHWEST PINE AVENUE;OCALA;FL;34475;3526715588
OCALA PADDOCK BRANCH;4545 S.W. 60TH AVENUE;OCALA;FL;34474;3528618188
ORANGE COUNTY CLERK OF COURT - OCOEE BRANCH;475 W STORY RD;OCOEE;FL;34761;4078362007
OKEECHOBEE COUNTY CLERK OF CIRCUIT COURT;312 NW 3RD ST;OKEECHOBEE;FL;34972;8637632131
USPS OLDSMAR POST OFFICE;3905 TAMPA RD;OLDSMAR;FL;34677;8138544660
USPS ONECO POST OFFICE;2333 53RD AVE E;ONECO;FL;34264;9417568216
CLAY COUNTY CLERK OF COURT - ORANGE PARK BRANCH;1478 PARK AVE;ORANGE PARK;FL;32073;9042784769
ORANGE COUNTY CLERK OF COURT - GOLDENROD SERVICE CENTER;684 S GOLDENROD RD;ORLANDO;FL;32822;4078362000
ORANGE COUNTY CLERK OF COURT - ORANGE COUNTY COURTHOUSE;425 N ORANGE AVE;ORLANDO;FL;32801;4078366373
ORLANDO PUBLIC LIBRARY SYSTEM;101 E. CENTRAL BLVD.;ORLANDO;FL;32801;4078357323
UNIVERSITY OF CENTRAL FLORIDA - THE SPOT;106 AQUARIUS AGORA DR;ORLANDO;FL;32816;4078232500
USPS ALAFAYA POST OFFICE;650 NORTH ALAFAYA TRAIL;ORLANDO;FL;32828;4072736788
USPS DIXIE VILLAGE STATION;2860 DELANEY AVE;ORLANDO;FL;32806;4074252868
USPS DOWNTOWN ORLANDO STATION;51 E JEFFERSON ST;ORLANDO;FL;32801;4074256464
USPS HERNDON POST OFFICE;821 HERNDON AVE;ORLANDO;FL;32814;4078976774
USPS ORLANDO LOCKHART BRANCH;5087 EDGEWATER DRIVE;ORLANDO;FL;32810;4072935360
USPS ORLANDO MOWU;10401 POST OFFICE BOULEVARD;ORLANDO;FL;32862;4078506334
USPS SAND LAKE BRANCH;10450 TURKEY LAKE RD;ORLANDO;FL;32819;4073510613
USPS SOUTH CREEK POST OFFICE;1701 WEST WETHERBEE ROAD;ORLANDO;FL;32837;4078556558
USPS OSPREY POST OFFICE;333 S TAMIAMI TRL;OSPREY;FL;34229;9419665381
USPS PAISLEY POST OFFICE;24952 COUNTY ROAD 42;PAISLEY;FL;32767;3526694253
PUTNAM COUNTY CLERK OF COURT - RECORDING DEPARTMENT;518 ST. JOHNS AVE;PALATKA;FL;32177;3863267680
BREVARD COUNTY CLERK OF COURT - PALM BAY OFFICE;450 COGAN DR SE;PALM BAY;FL;32909;3216375413
CITY OF PALM BAY;120 MALABAR RD;PALM BAY;FL;32907;3217333023
PALM BEACH COUNTY CLERK OF COURT - NORTH COUNTY COURTHOUSE;3188 PGA BLVD;PALM BEACH GARDENS;FL;33410;5616246650
USPS PALM BEACH GARDENS BRANCH;3330 FAIRCHILD GARDENS AVE;PALM BEACH GARDENS;FL;33410;5617994068
FLAGLER COUNTY PUBLIC LIBRARY - MAIN BRANCH;2500 PALM COAST PKWY NW;PALM COAST;FL;32137;3864466763
VILLAGE OF PALMETTO BAY;9705 EAST HIBISCUS ST;PALMETTO BAY;FL;33157;3052591234
BAY COUNTY CLERK OF COURT;300 E 4TH ST;PANAMA CITY;FL;32401;8507639061
USPS PANAMA CITY DOWNTOWN STATION;421 JENKS AVENUE;PANAMA CITY;FL;32401;8507636509
USPS PANAMA CITY GMF;1336 SHERMAN AVE;PANAMA CITY;FL;32401;8507474853
CITY OF PEMBROKE PINES;601 CITY CENTER WAY;PEMBROKE PINES;FL;33025;9544501043
ESCAMBIA COUNTY CLERK OF COURT - CLERK COMPTROLLER OFFICES;221 PALAFOX PL;PENSACOLA;FL;32502;8505953930
USPS NOBLES STATION;7150 TIPPIN AVENUE;PENSACOLA;FL;32504;8504776871
USPS WARRINGTON STATION;901 S OLD CORRY FIELD RD;PENSACOLA;FL;32507;8504581602
USPS PLACIDA POST OFFICE;8601 PLACIDA RD;PLACIDA;FL;33946;9416977614
HILLSBOROUGH COUNTY CLERK OF COURT - PLANT CITY BRANCH;301 N MICHIGAN AVE;PLANT CITY;FL;33563;8137573918
USPS PLANT CITY POST OFFICE;2501 WALDEN WOODS DR;PLANT CITY;FL;33566;8137196733
BROWARD COUNTY CLERK OF COURT - WEST REGIONAL COURTHOUSE;100 NORTH PINE ISLAND ROAD;PLANTATION;FL;33324;9548316528
USPS POLK CITY POST OFFICE;112 CARTER BLVD;POLK CITY;FL;33868;8639844547
PONTE VEDRA BEACH POST OFFICE;130 CORRIDOR ROAD;PONTE VEDRA BEACH;FL;32082;9045438607
CHARLOTTE COUNTY CLERK OF COURT- MURDOCK ADMINISTRATION BUILDING;18500 MURDOCK CIR;PORT CHARLOTTE;FL;33948;9417431400
GULF COUNTY CLERK OF COURT - GULF COUNTY COURTHOUSE;1000 CECIL G COSTIN SR BLVD;PORT SAINT JOE;FL;32456;8502296112
SAINT LUCIE COUNTY CLERK OF COURT - SOUTH COUNTY ANNEX;250 NW COUNTRY CLUB DR;PORT ST. LUCIE;FL;34986;7728717200
CHARLOTTE COUNTY CLERK OF COURT - CHARLOTTE COUNTY JUSTICE CENTER;350 E MARION AVE;PUNTA GORDA;FL;33950;9416372245
USPS QUINCY POST OFFICE;772 PAT THOMAS PKWY;QUINCY;FL;32351;8506278490
USPS REDDICK POST OFFICE;15373 NW GAINESVILLE RD;REDDICK;FL;32686;3525912838
USPS RIVERVIEW POST OFFICE;10810 BOYETTE RD;RIVERVIEW;FL;33569;8136724562
USPS RIVIERA BEACH POST OFFICE;1905 W BLUE HERON BLVD;RIVIERA BEACH;FL;33404;8558643379
ROSELAND POST OFFICE;13305 ROSELAND ROAD;ROSELAND;FL;32957;7725895095
USPS PALMS WEST POST OFFICE;10299 SOUTHERN BLVD;ROYAL PALM BEACH;FL;33411;5612463480
HILLSBOROUGH COUNTY CLERK OF COURT - SOUTHSHORE OFFICE;410 30TH ST SE;RUSKIN;FL;33570;8132768100
SEMINOLE COUNTY CLERK OF COURT - RECORDS CENTER;1750 E LAKE MARY BLVD;SANFORD;FL;32773;4076654405
WALTON COUNTY CLERK OF COURT - COURTHOUSE ANNEX;31 COASTAL CENTRE BLVD;SANTA ROSA BEACH;FL;32459;8502673066
SARASOTA COUNTY CLERK OF COURT - MAIN OFFICE;2000 MAIN ST;SARASOTA;FL;34236;9418617400
USPS GULF GATE POST OFFICE;2875 ASHTON RD;SARASOTA;FL;34231;9419226522
USPS LAKE JACKSON BRANCH;829 MALL RING RD;SEBRING;FL;33872;8633826138
USPS SEBRING MAIN POST OFFICE;518 N RIDGEWOOD DR;SEBRING;FL;33870;8633826138
USPS SEMINOLE POST OFFICE;9355 113TH ST;SEMINOLE;FL;33772;7273940847
OKALOOSA COUNTY TAX COLLECTOR OFFICE - SHALIMAR TAX OFFICE;1250 N. EGLIN PARKWAY;SHALIMAR;FL;32579;8506517310
USPS SOUTH BAY POST OFFICE;190 U.S. HIGHWAY 27 SOUTH;SOUTH BAY;FL;33493;5619965390
HERNANDO COUNTY CLERK OF COURT - SPRING HILL OFFICE;7405 FOREST OAKS BLVD;SPRING HILL;FL;34606;3525406387
ST. JOHNS COUNTY CLERK OF COURTS - MAIN OFFICE;4010 LEWIS SPEEDWAY;ST. AUGUSTINE;FL;32084;9048193600
PINELLAS COUNTY CLERK OF COURT - ST. PETERSBURG BRANCH OFFICE;545 1ST AVE N;ST. PETERSBURG;FL;33701;7274647000
USPS GATEWAY STATION;701 77TH AVE N;ST. PETERSBURG;FL;33702;7275782802
USPS GULFWINDS STATION;4222 22ND AVE S;ST. PETERSBURG;FL;33711;7273278469
BRADFORD COUNTY CLERK OF COURT;945 N TEMPLE AVE;STARKE;FL;32091;9049666280
MARTIN COUNTY CLERK OF COURT - COURTHOUSE STUART OFFICE;100 SE OCEAN BLVD;STUART;FL;34994;7722885553
USPS SUMMERFIELD POST OFFICE;14560 S US HWY 301;SUMMERFIELD;FL;34491;3522452784
USPS SUMMERLAND KEY POST OFFICE;24700 OVERSEAS HWY;SUMMERLAND KEY;FL;33042;3057453391
USPS SUNRISE BRANCH;3225 N HIATUS RD;SUNRISE;FL;33345;9547470552
CITY OF SWEETWATER;512 SW 109TH AVE;SWEETWATER;FL;33174;3052073343
FAMU - OFFICE OF INTERNATIONAL EDUCATION AND DEVELOPMENT;1601 S MARTIN LUTHER KING JR BLVD;TALLAHASSEE;FL;32307;8505993295
FLORIDA STATE UNIVERSITY - INTERNATIONAL PROGRAMS OFFICE;282 CHAMPIONS WAY;TALLAHASSEE;FL;32306;8506459714
LEON COUNTY CLERK OF COURT - NORTHEAST BRANCH;1276 METROPOLITAN BLVD;TALLAHASSEE;FL;32312;8506064060
USPS TALLAHASSEE POST OFFICE;2800 S ADAMS ST;TALLAHASSEE;FL;32301;8502164326
HILLSBOROUGH COUNTY CLERK OF COURT - DOWNTOWN TAMPA;419 PIERCE ST;TAMPA;FL;33602;8132768100
JAN KAMINIS PLATT REGIONAL LIBRARY;3910 S MANHATTAN AVENUE;TAMPA;FL;33611;8132733652
NEW TAMPA REGIONAL LIBRARY;10001 CROSS CREEK BLVD.;TAMPA;FL;33647;8132733652
TOWN N COUNTRY REGIONAL LIBRARY;7606 PAULA DR. SUITE 120;TAMPA;FL;33615;8132733652
USF SHIMBERG HEALTH SCIENCES LIBRARY;12901 BRUCE B. DOWNS;TAMPA;FL;33612;8139748432
USPS EHRLICH BRANCH;14910 NORTH DALE MABRY HIGHWAY;TAMPA;FL;33618;8139083478
USPS FALKENBURG BRANCH;10121 E ADAMO DR;TAMPA;FL;33619;8136260654
USPS NEW TAMPA POST OFFICE;16350 BRUCE B DOWNS BLVD;TAMPA;FL;33647;8139107987
USPS TAMPA MOWU;3501 BESSIE COLEMAN BLVD;TAMPA;FL;33630;8138770395
LAKE COUNTY CLERK OF COURT - LAKE COUNTY COURTHOUSE;550 W MAIN ST;TAVARES;FL;32778;3522532650
USPS TAVERNIER POST OFFICE;91220 OVERSEAS HWY;TAVERNIER;FL;33070;3058531052
BREVARD COUNTY CLERK OF COURT - PARKWAY COMPLEX;700 S PARK AVE;TITUSVILLE;FL;32780;3216372006
BREVARD COUNTY CLERK OF COURTS - FULL SERVICE COUNTER;400 SOUTH ST;TITUSVILLE;FL;32780;3216375413
GILCHRIST COUNTY CLERK OF COURT;112 S MAIN ST;TRENTON;FL;32693;3524633170
BLOOMINGDALE REGIONAL LIBRARY;1906 BLOOMINGDALE AVENUE;VALRICO;FL;33596;8132733652
USPS VALRICO POST OFFICE;2406 STATE ROAD 60 E;VALRICO;FL;33594;8136570495
SARASOTA COUNTY CLERK OF COURT - VENICE BRANCH;4000 S TAMIAMI TRAIL;VENICE;FL;34293;9418617400
INDIAN RIVER COUNTY CLERK OF COURT - VERO BEACH COURTHOUSE;2000 16TH AVE;VERO BEACH;FL;32960;7727705185
BREVARD COUNTY CLERK OF COURT - MOORE JUSTICE CENTER;2825 JUDGE FRAN JAMISON WAY;VIERA;FL;32940;3216375413
HARDEE COUNTY CLERK OF COURT;417 W MAIN ST;WAUCHULA;FL;33873;8637734174
USPS WAUCHULA MAIN POST OFFICE;300 E MAIN ST;WAUCHULA;FL;33873;8637735811
CITY OF WEST MIAMI;901 SW 62ND AVE;WEST MIAMI;FL;33144;3052661122
USPS DOWNTOWN WEST PALM BEACH POST OFFICE;640 CLEMATIS ST;WEST PALM BEACH;FL;33401;5618330929
USPS HAVERHILL STATION;3900 N HAVERHILL RD;WEST PALM BEACH;FL;33417;5616835415
USPS WEST PALM BEACH MOWU;3200 SUMMIT BLVD;WEST PALM BEACH;FL;33406;5616972123
USPS WIMAUMA POST OFFICE;5608 STATE ROAD 674;WIMAUMA;FL;33598;8136344282
POLK COUNTY CLERK OF COURT - NORTHEAST BRANCH;3425 LAKE ALFRED RD;WINTER HAVEN;FL;33881;8635344000
USPS WINTER HAVEN MAIN POST OFFICE;111 W CENTRAL AVE;WINTER HAVEN;FL;33880;8632997824
ORANGE COUNTY CLERK OF COURT - WINTER PARK BRANCH;450 N LAKEMONT AVE;WINTER PARK;FL;32792;4078362000
USPS WINTER SPRINGS POST OFFICE;1065 E STATE ROAD 434;WINTER SPRINGS;FL;32708;4073274569
USPS ZEPHYRHILLS POST OFFICE;38032 POSTAL DR;ZEPHYRHILLS;FL;33542;8137150149
