facilityName;streetAdress;city;state;zipCode;publicPhone
ANDOVER POST OFFICE;164 MAIN ST. REAR;ANDOVER;NH;03216;6037355483
ANTRIM POST OFFICE;1 POST RD;ANTRIM;NH;03440;6035882614
KIMBALL LIBRARY;5 ACADEMY AVE;ATKINSON;NH;03811;6033625234
BERLIN POST OFFICE;15 MT FORIST ST;BERLIN;NH;03570;6037521700
BAKER FREE LIBRARY;509 SOUTH STREET;BOW;NH;03304;6032247113
BRISTOL POST OFFICE;85 PLEASANT STREET;BRISTOL;NH;03222;6037443383
CENTER OSSIPEE POST OFFICE;71 MAIN STREET;CENTER OSSIPEE;NH;03814;6035394342
CLAREMONT POST OFFICE;140 BROAD STREET;CLAREMONT;NH;03743;6035433051
CONCORD POST OFFICE;18 LOUDON ROAD;CONCORD;NH;03301;6032250004
CONTOOCOOK POST OFFICE;129 PARK AVE;CONTOOCOOK;NH;03229;6037463980
CONWAY POST OFFICE;175 MAIN STREET;CONWAY;NH;03818;6034475160
DERRY POST OFFICE;24 TSIENNETO ROAD;DERRY;NH;03038;6034327835
DOVER POST OFFICE;133 WASHINGTON ST;DOVER;NH;03820;6037424041
DOVER PUBLIC LIBRARY;73 LOCUST STREET;DOVER;NH;03820;6035166050
DURHAM POST OFFICE;2 MADBURY ROAD;DURHAM;NH;03824;6038682151
EAST HAMPSTEAD POST OFFICE;59 COLBY CORNER;EAST HAMPSTEAD;NH;03826;6033826519
EXETER POST OFFICE;34 FRONT ST;EXETER;NH;03833;6037722307
GILFORD PUBLIC LIBRARY;31 POTTER HILL ROAD;GILFORD;NH;03249;6035246042
GOFFSTOWN POST OFFICE;11 CHURCH STREET, SUITE 1;GOFFSTOWN;NH;03045;6034979907
GORHAM POST OFFICE;165 MAIN ST;GORHAM;NH;03581;6034662182
GRANTHAM POST OFFICE;10 WILLIS AVENUE;GRANTHAM;NH;03753;6038632280
GREENLAND POST OFFICE;609 PORTSMOUTH AVE;GREENLAND;NH;03840;6034367098
GROVETON POST OFFICE;59 CHURCH STREET;GROVETON;NH;03582;6036361610
HAMPTON POST OFFICE;25 STICKNEY TERRACE;HAMPTON;NH;03842;6039266413
HANOVER POST OFFICE;50 SOUTH MAIN ST;HANOVER;NH;03755;6036435201
KEENE POST OFFICE;196 MAIN ST;KEENE;NH;03431;6033521751
LACONIA POST OFFICE;33 CHURCH ST;LACONIA;NH;03246;6035246271
LANCASTER POST OFFICE;120 MAIN ST;LANCASTER;NH;03584;6037884612
LEBANON POST OFFICE;11 E PARK STREET;LEBANON;NH;03766;6036679107
LINCOLN POST OFFICE;10 LUMBERYARD DRIVE;LINCOLN;NH;03251;6037458133
LITTLETON POST OFFICE;134 MAIN ST;LITTLETON;NH;03561;6034447787
LOCHMERE POST OFFICE;60 SILVER LAKE RD;LOCHMERE;NH;03252;6035244723
MADISON POST OFFICE;1904 VILLAGE ROAD;MADISON;NH;03849;6033678880
MANCHESTER DOWNTOWN STATION POST OFFICE;1000 ELM ST;MANCHESTER;NH;03101;6036233534
MANCHESTER MAIN POST OFFICE;955 GOFFS FALLS RD;MANCHESTER;NH;03103;6036266887
MELVIN VILLAGE POST OFFICE;448 GOVERNOR WENTWORTH HIGHWAY;MELVIN VILLAGE;NH;03850;6035443393
MERRIMACK PUBLIC LIBRARY;470 DANIEL WEBSTER HIGHWAY;MERRIMACK;NH;03054;6034245021
WADLEIGH MEMORIAL LIBRARY;49 NASHUA STREET;MILFORD;NH;03055;6032490645
NASHUA MAIN POST OFFICE;38 SPRING STREET;NASHUA;NH;03060;6038827515
NEW LONDON POST OFFICE;319 NEWPORT RD;NEW LONDON;NH;03257;6035264641
NEWMARKET POST OFFICE;126 MAIN STREET;NEWMARKET;NH;03857;6036598549
NEWPORT POST OFFICE;15 PARK ST;NEWPORT;NH;03773;6038639947
NOTTINGHAM POST OFFICE;106 STAGE RD;NOTTINGHAM;NH;03290;6036798340
OSSIPEE POST OFFICE;10 OLD ROUTE 28;OSSIPEE;NH;03864;6035396455
PETERBOROUGH POST OFFICE;23 GROVE ST;PETERBOROUGH;NH;03458;6039243251
PITTSFIELD POST OFFICE;2 ELM ST;PITTSFIELD;NH;03263;6034356281
PLAISTOW PUBLIC LIBRARY;85 MAIN STREET;PLAISTOW;NH;03865;6033826011
PORTSMOUTH POST OFFICE;345 HERITAGE AVENUE;PORTSMOUTH;NH;03801;6034312871
ROCHESTER POST OFFICE;20 ALLEN STREET;ROCHESTER;NH;03867;6033321429
SALEM POST OFFICE;51 SOUTH BROADWAY;SALEM;NH;03079;6036852005
SANBORNVILLE POST OFFICE;378 MEADOW STREET;SANBORNVILLE;NH;03872;6035228811
SPOFFORD POST OFFICE;562 NORTH SHORE RD;SPOFFORD;NH;03462;6033634711
HILL LIBRARY;1151 PARKER MOUNTAIN ROAD;STRAFFORD;NH;03884;6036642800
WALPOLE POST OFFICE;47 MAIN STREET, UNIT 1;WALPOLE;NH;03608;6037563363
WEARE POST OFFICE;8 DUCK POND ROAD;WEARE;NH;03281;6035292636
WEST CHESTERFIELD POST OFFICE;913 GULF RD UNIT C;WEST CHESTERFIELD;NH;03466;6032568854
