facilityName;streetAdress;city;state;zipCode;publicPhone
DEER LODGE COUNTY CLERK OF COURT;800 MAIN STREET;ANACONDA;MT;59711;4065634040
FALLON COUNTY CLERK OF THE DISTRICT COURT;10 WEST FALLON #121;BAKER;MT;59313;4067788114
USPO - BELGRADE;96 N. WEAVER ST;BELGRADE;MT;59714;4063884490
SWEET GRASS COUNTY DISTRICT COURT;200 W. 1ST AVE;BIG TIMBER;MT;59011;4069325154
USPO - BIGFORK;265 HOLT DR.;BIGFORK;MT;59911;4068374479
USPO - BILLINGS;841 S. 26TH ST.;BILLINGS;MT;59101;4066575783
JEFFERSON COUNTY CLERK OF COURT;201 W. CENTENNIAL AVE;BOULDER;MT;59632;4062254042
MONTANA STATE UNIVERSITY-UNIVERSITY SERVICES;114 CULBERTSON HALL;BOZEMAN;MT;59717;4069943311
USPO - BOZEMAN;2201 BAXTER LN.;BOZEMAN;MT;59718;4065861508
POWDER RIVER COUNTY CLERK OF COURT;119 N. PARK AVENUE;BROADUS;MT;59317;4064362320
SILVER BOW COUNTY CLERK OF COURT;155 WEST GRANITE ST. SUITE 313;BUTTE;MT;59701;4064976350
USPO - BUTTE MPO;701 DEWEY BLVD.;BUTTE;MT;59701;4064942107
LIBERTY COUNTY CLERK OF COURT;111 - 1ST ST. E.;CHESTER;MT;59522;4067595615
BLAINE COUNTY CLERK OF DISTRICT COURT;420 OHIO ST.;CHINOOK;MT;59523;4063573230
TETON COUNTY DISTRICT COURT;101 MAIN AVE S;CHOTEAU;MT;59422;4064662909
MCCONE COUNTY CLERK OF DISTRICT COURT;1004 C AVE;CIRCLE;MT;59215;4064853410
USPO-COLUMBIA FALLS;65 1ST STREET E;COLUMBIA FALLS;MT;59912;4068927621
STILLWATER COUNTY CLERK OF COURT;400 - 3RD AVE. N;COLUMBUS;MT;59019;4063228030
PONDERA COUNTY CLERK OF COURT;20 FOURTH AVE SW;CONRAD;MT;59425;4062714026
CLERK OF THE DISTRICT COURT GLACIER COUNTY;512 EAST MAIN ST.;CUT BANK;MT;59427;4068733619
POWELL COUNTY CLERK COURT;409 MISSOURI AVENUE, STE 302;DEER LODGE;MT;59722;4068469787
CLERK OF THE DISTRICT COURT BEAVERHEAD COUNTY;2 S. PACIFIC ST, STE 5;DILLON;MT;59725;4066833725
USPO - EAST HELENA;607 E. PORTER ST;EAST HELENA;MT;59635;4062275325
CARTER COUNTY CLERK OF THE DIST COURT;214 PARK STREET;EKALAKA;MT;59324;4067758714
USPO - EUREKA;113 14TH ST.;EUREKA;MT;59917;4062972132
USPO - FLORENCE;268 HOLLOWAY LANE;FLORENCE;MT;59833;4062732731
ROSEBUD COUNTY CLERK OF COURT;1200 MAIN STREET;FORSYTH;MT;59327;4063467322
CLERK OF THE DISTRICT COURT CHOUTEAU COUNTY;1308 FRANKLIN ST.;FORT BENTON;MT;59442;4066225024
VALLEY COUNTY CLERK OF COURT;501 COURT SQUARE  #6;GLASGOW;MT;59230;4062286268
DAWSON COUNTY CLERK OF DISTRICT COURT;207 W. BELL;GLENDIVE;MT;59330;4063773967
USPO - GLENDIVE;221 N. KENDRICK AVE.;GLENDIVE;MT;59330;4063653373
CASCADE COUNTY CLERK OF COURT;415  2ND AVE. NORTH, ROOM 200A;GREAT FALLS;MT;59401;4064546787
USPO - GREAT FALLS;215 1ST AVE NORTH, RM 135;GREAT FALLS;MT;59401;4067712165
RAVALLI COUNTY CLERK OF COURT;205 BEDFORD ST, RM. D;HAMILTON;MT;59840;4063756710
USPO - HAMILTON;150 N. 4TH ST;HAMILTON;MT;59840;4063631445
BIG HORN COUNTY CLERK OF COURT;121 WEST 3RD, RM. 221;HARDIN;MT;59034;4066659750
DISTRICT COURT - WHEATLAND COUNTY;201 A AVE NW;HARLOWTON;MT;59036;4066324893
HILL COUNTY CLERK OF COURT;315 - 4TH STREET;HAVRE;MT;59501;4062655481
USPO - HAVRE;115 - 3RD ST.;HAVRE;MT;59501;4062655581
USPO - HELENA;2300 N. HARRIS ST.;HELENA;MT;59601;4064433304
GARFIELD COUNTY CLERK OF DISTRICT COURT;352 LEAVITT AVE;JORDAN;MT;59337;4065576254
FLATHEAD COUNTY CLERK OF DISTRICT COURT;920 SOUTH MAIN, STE 300;KALISPELL;MT;59901;4067585870
USPO LAUREL;614 1ST AVE;LAUREL;MT;59044;4066286818
FERGUS CLERK OF DISTRICT COURT;712 WEST MAIN ST.;LEWISTOWN;MT;59457;4065355026
USPO - LIBBY;518 MAIN AVE;LIBBY;MT;59923;4062934184
USPO - LIVINGSTON;105 N. 2ND ST.;LIVINGSTON;MT;59047;4062220912
PHILLIPS COUNTY CLERK OF COURT;314 S. 2ND AVE. W, ROOM 1;MALTA;MT;59538;4066541023
USPO - MILES CITY;106 N. 7TH;MILES CITY;MT;59301;4062322586
MISSOULA PUBLIC LIBRARY;301 E. MAIN ST;MISSOULA;MT;59802;4067212665
USPO - MISSOULA;1100 WEST KENT AVE.;MISSOULA;MT;59801;4063292213
USPO PLAINS;310 W. MEANY ST;PLAINS;MT;59859;4068263541
SHERIDAN COUNTY CLERK OF COURT;100 WEST LAUREL AVE.;PLENTYWOOD;MT;59254;4067653404
USPO PLENTYWOOD;302 N MAIN;PLENTYWOOD;MT;59254;4067651710
LAKE COUNTY CLERK OF DISTRICT COURT;106 4TH AVE E;POLSON;MT;59860;4068837256
USPO - POLSON;105 4TH AVE E;POLSON;MT;59860;4068832088
USPO - RED LODGE;119 S. HAUSER AVE;RED LODGE;MT;59068;4064462629
USPO - RONAN;222 ADAMS ST. SW;RONAN;MT;59864;4066768271
MUSSELSHELL CLERK OF DISTRICT COURT;506 MAIN STREET;ROUNDUP;MT;59072;4063231413
DANIELS COUNTY CLERK OF COURT;213 MAIN STREET;SCOBEY;MT;59263;4064872651
TOOLE COUNTY CLERK;226 - 1ST ST S;SHELBY;MT;59474;4064248330
RICHLAND COUNTY CLERK OF COURT;300 12TH AVE NW, STE 3;SIDNEY;MT;59270;4064331709
USPO SIDNEY;101 W. HOLLY ST;SIDNEY;MT;59270;4064822107
JUDITH BASIN CLERK OF DISTRICT COURT;91 3RD STREET NORTH;STANFORD;MT;59479;4065662277
USPO STANFORD;80 CENTRAL AVE;STANFORD;MT;59479;4065662287
MINERAL COUNTY CLERK OF COURT;300 RIVER ST.;SUPERIOR;MT;59872;4068223538
CLERK OF COURT SANDERS COUNTY;1111 MAIN ST. WEST;THOMPSON FALLS;MT;59873;4068276962
USPO-TOWNSEND;501 S. FRONT ST;TOWNSEND;MT;59644;4062663400
USPO - WEST YELLOWSTONE;209 GRIZZLY AVE.;WEST YELLOWSTONE;MT;59758;4066467704
MEAGHER COUNTY CLERK OF COURT;15 W MAIN STREET;WHITE SULPHUR SPRINGS;MT;59645;4065473030
USPO - WHITEFISH;424 BAKER AVE.;WHITEFISH;MT;59937;4068622151
ROOSEVELT COUNTY CLERK OF DISTRICT COURT;400 2ND AVE S. STE 210;WOLF POINT;MT;59201;4066536266
