facilityName;streetAdress;city;state;zipCode;publicPhone
ALEXANDRIA POST OFFICE;6933 ALEXANDRIA PIKE;ALEXANDRIA;KY;41001;8596352957
ASHLAND POST OFFICE;1140 CARTER AVE;ASHLAND;KY;41101;6063272117
BARBOURVILLE POST OFFICE;122 N ALLISON AVE;BARBOURVILLE;KY;40906;6065463777
BEAVER DAM CLERK OFFICE;309 W 2ND ST;BEAVER DAM;KY;42320;2702747106
BENTON POST OFFICE;219 W 5TH ST;BENTON;KY;42025;2705273933
BEREA POST OFFICE;222 GLADES RD;BEREA;KY;40403;8599863941
BOWLING GREEN POST OFFICE;5300 SCOTTSVILLE RD;BOWLING GREEN;KY;42104;2707964035
WKU PASSPORT SERVICES;1906 COLLEGE HEIGHTS BLVD. #11048;BOWLING GREEN;KY;42101;2707454658
MEADE COUNTY CLERKS OFFICE;516 HILLCREST DR;BRANDENBURG;KY;40108;2704222152
BROWNSVILLE POST OFFICE;535 S MAIN STREET;BROWNSVILLE;KY;42210;2705972121
CALHOUN POST OFFICE;310 W 2ND ST;CALHOUN;KY;42327;2702733729
CAMPBELLSVILLE POST OFFICE;1410 E BROADWAY;CAMPBELLSVILLE;KY;42718;2704654251
CAMPTON POST OFFICE;175 MOUNTAIN PARKWAY SPUR;CAMPTON;KY;41301;6066686395
CARROLL COUNTY PUBLIC LIBRARY;136 COURT ST;CARROLLTON;KY;41008;5027327020
BOYD COUNTY CLERKS OFFICE;2800 LOUISA STREET;CATLETTSBURG;KY;41129;6067395116
COLUMBIA KY POST OFFICE;800 BURKESVILLE STREET;COLUMBIA;KY;42728;2703843206
CORBIN POST OFFICE;301 ROY KIDD AVE;CORBIN;KY;40701;6065283912
COVINGTON POST OFFICE;700 SCOTT ST;COVINGTON;KY;41011;8592610809
CYNTHIANA POST OFFICE;108 LADISH RD;CYNTHIANA;KY;41031;8592344632
DANVILLE POST OFFICE;200 E MAIN ST;DANVILLE;KY;40422;8592366334
ELIZABETHTOWN POST OFFICE;2934 DOLPHIN DR;ELIZABETHTOWN;KY;42701;2707657230
HARDIN COUNTY CLERKS OFFICE;150 N PROVIDENT WAY, STE 103;ELIZABETHTOWN;KY;42701;2707652171
EMINENCE KY  POST OFFICE;4827 N MAIN STREET;EMINENCE;KY;40019;5028454124
CITY OF ERLANGER KY;505 COMMONWEALTH AVENUE;ERLANGER;KY;41018;8597272525
FALMOUTH POST OFFICE;201 W SHELBY ST;FALMOUTH;KY;41040;8596541431
FLEMINGSBURG POST OFFICE;131 E WATER ST;FLEMINGSBURG;KY;41041;6068457601
FLORENCE POST OFFICE;7101 TURFWAY ROAD;FLORENCE;KY;41042;8596475484
FORT CAMPBELL POST OFFICE;91 MICHIGAN AVE;FORT CAMPBELL;KY;42223;2704394114
FORT KNOX MAIN POST OFFICE;120 N KNOX ST.;FORT KNOX;KY;40121;5029421244
FRANKFORT POST OFFICE;1210 WILKINSON BLVD;FRANKFORT;KY;40601;5022233447
FRANKLIN COUNTY CLERKS OFFICE;315 W MAIN ST;FRANKFORT;KY;40601;5028758702
SIMPSON COUNTY CLERKS OFFICE;103 W. CEDAR ST;FRANKLIN;KY;42134;2705868161
GEORGETOWN POST OFFICE;101 N BRADFORD LANE;GEORGETOWN;KY;40324;5028633875
SCOTT COUNTY CLERK;101 E MAIN ST;GEORGETOWN;KY;40324;5028637875
BARREN COUNTY CLERKS OFFICE;117 NORTH PUBLIC SPUARE, STE 1A;GLASGOW;KY;42141;2706513783
GLASGOW POST OFFICE;445 W MAIN ST;GLASGOW;KY;42141;2706518758
GOSHEN POST OFFICE;12340 W HWY 42;GOSHEN;KY;40026;5022280966
GRAYSON POST OFFICE;390 S CAROL MALONE BLVD;GRAYSON;KY;41143;6064746366
GREENSBURG POST OFFICE;45 TUNNELL LANE;GREENSBURG;KY;42743;2709325371
MUHLENBERG COUNTY CLERK;100 S MAIN ST;GREENVILLE;KY;42345;2703381441
HARDINSBURG POST OFFICE;234 S MAIN ST;HARDINSBURG;KY;40143;2707562119
HARLAN POST OFFICE;111 N 1ST ST;HARLAN;KY;40831;6065732800
HARRODSBURG POST OFFICE;105 NORTH MAIN ST;HARRODSBURG;KY;40330;8597342568
HARTFORD POST OFFICE;1101 S MAIN ST;HARTFORD;KY;42347;2702983550
HAZARD MPO;201 BLACK GOLD BLVD;HAZARD;KY;41701;6064363188
HENDERSON COUNTY PUBLIC LIBRARY;101 S MAIN ST;HENDERSON;KY;42420;2708263712
CHRISTIAN COUNTY CLERK;511 S MAIN ST;HOPKINSVILLE;KY;42240;2708874107
HOPKINSVILLE POST OFFICE;105 S MAIN STREET;HOPKINSVILLE;KY;42240;2708865250
HOPKINSVILLE-CHRISTIAN COUNTY PUBLIC LIBRARY;1101 BETHEL STREET;HOPKINSVILLE;KY;42240;2708874262
CITY OF INDEPENDENCE;5409 MADISON PIKE;INDEPENDENCE;KY;41051;8593565302
IRVINE POST OFFICE;230 MAIN STREET;IRVINE;KY;40336;6067234246
LAGRANGE POST OFFICE;108 W CRYSTAL DR;LAGRANGE;KY;40031;5022229625
OLDHAM COUNTY CLERKS OFFICE;100 WEST JEFFERSON STREET SUITE #1;LAGRANGE;KY;40031;5022229311
ANDERSON COUNTY CLERKS OFFICE;100 S MAIN ST;LAWRENCEBURG;KY;40342;5028393041
LAWRENCEBURG MAIN POST OFFICE;1269 FOX CREEK RD;LAWRENCEBURG;KY;40342;5028393385
LEITCHFIELD POST OFFICE;210 SOUTH MAIN ST;LEITCHFIELD;KY;42754;2702593087
LEXINGTON MAIN POST OFFICE;1088 NANDINO BLVD;LEXINGTON;KY;40511;8592316843
WILDCAT PASSPORT ACCEPTANCE FACILITY;160 AVENUE OF CHAMPIONS;LEXINGTON;KY;40506;8592572619
LONDON POST OFFICE;1760 HWY 192 W;LONDON;KY;40741;6068641722
LAWRENCE COUNTY CLERK;122 S. MAIN CROSS ST.;LOUISA;KY;41230;6066384108
DOWNTOWN STATION;835 S 7TH ST;LOUISVILLE;KY;40203;5025878546
HIKES POINT POST OFFICE;3050 HUNSINGER LN;LOUISVILLE;KY;40220;5024564557
JEFFERSONTOWN POST OFFICE;3801 BILLTOWN RD.;LOUISVILLE;KY;40299;5022665844
LOUISVILLE MAIN POST OFFICE;1420 GARDINER LANE;LOUISVILLE;KY;40231;5024541763
LOUISVILLE MIDDLETOWN POST OFFICE;119 EVERGREEN RD.;LOUISVILLE;KY;40243;5022444783
LYNDON POST OFFICE;8127 LAGRANGE RD.;LOUISVILLE;KY;40222;5024254547
OKOLONA POST OFFICE;7400 JEFFERSON BLVD;LOUISVILLE;KY;40219;5029668049
SHIVELY POST OFFICE;3131 CRUMS LANE;LOUISVILLE;KY;40216;5024492657
ST MATTHEWS POST OFFICE;4600 SHELBYVILLE RD;LOUISVILLE;KY;40207;5028933546
STANDIFORD POST OFFICE;4440 CRITTENDEN DR;LOUISVILLE;KY;40221;5023755890
HOPKINS COUNTY CLERKS OFFICE;24 UNION STREET;MADISONVILLE;KY;42431;2708217361
MAYFIELD POST OFFICE;225 W BROADWAY;MAYFIELD;KY;42066;2702471305
MAYSVILLE POST OFFICE;131 E 3RD ST;MAYSVILLE;KY;41056;6065643461
MIDDLESBORO POST OFFICE;201 NORTH 20TH ST;MIDDLESBORO;KY;40965;6062483690
MONTICELLO POST OFFICE;65 BARNES DR;MONTICELLO;KY;42633;6063485291
MOREHEAD POST OFFICE;700 W FIRST ST;MOREHEAD;KY;40351;6067845556
MOUNT STERLING POST OFFICE;108 WEST LOCUST STREET;MOUNT STERLING;KY;40353;8594982258
MT VERNON POST OFFICE;380 RICHMOND ST;MT. VERNON;KY;40456;6062562717
MUNFORDVILLE POST OFFICE;215 S WASHINGTON STREET;MUNFORDVILLE;KY;42765;2705245500
CALLOWAY COUNTY PUBLIC LIBRARY;710 MAIN STREET;MURRAY;KY;42071;2707532288
NAZARETH POST OFFICE;85 VILLAGE DR;NAZARETH;KY;40048;5023483751
NEWPORT CLERK OFFICE;998 MONMOUTH ST;NEWPORT;KY;41071;8592923666
NICHOLASVILLE POST OFFICE;410 S MAIN ST;NICHOLASVILLE;KY;40356;8598875666
DAVIESS COUNTY CLERKS OFFICE;212 ST ANN STREET, ROOM 104;OWENSBORO;KY;42303;2706858434
OWENSBORO POST OFFICE;54 BON HARBOR HILLS;OWENSBORO;KY;42301;2706891838
OWEN COUNTY CLERK;136 W BRYAN ST;OWENTON;KY;40359;5024842213
OWENTON MAIN POST OFFICE;1065 HIGHWAY 127 N;OWENTON;KY;40359;5024842745
OWINGSVILLE POST OFFICE;95 E MAIN STREET;OWINGSVILLE;KY;40360;6066742821
PADUCAH MAIN POST OFFICE;300 S 4TH STREET;PADUCAH;KY;42003;2704445348
JOHNSON COUNTY COURT CLERK;230 COURT ST STE 124;PAINTSVILLE;KY;41240;6067892557
BOURBON COUNTY CLERK;301 MAIN ST;PARIS;KY;40361;8599872142
PARIS POST OFFICE;201 W 8TH ST;PARIS;KY;40361;8599874500
PIKEVILLE MAIN POST OFFICE;281 THOMPSON ROAD;PIKEVILLE;KY;41501;6064322146
PROSPECT POST OFFICE;9523 US HIGHWAY 42;PROSPECT;KY;40059;5022281921
MADISON COUNTY CLERKS OFFICE;101 W. MAIN STREET;RICHMOND;KY;40475;8596244703
RICHMOND  POSTAL STORE;140 N MADISON AVE;RICHMOND;KY;40475;8596235449
RUSSELL SPRINGS POST OFFICE;414 MAIN STREET;RUSSELL SPRINGS;KY;42642;2708665527
RUSSELLVILLE MAIN POST OFFICE;205 WEST 4TH ST;RUSSELLVILLE;KY;42276;2707266335
SALEM POST OFFICE;155 E MAIN STREET;SALEM;KY;42078;2709882800
MAGOFFIN COUNTY CLERK;56 EAST MAPLE STREET;SALYERSVILLE;KY;41465;6063492216
SALYERSVILLE POST OFFICE;330 E MAPLE STREET;SALYERSVILLE;KY;41465;6063493400
BULLITT COUNTY CLERKS OFFICE;149 NORTH WALNUT STREET;SHEPHERDSVILLE;KY;40165;5025432513
PULASKI COUNTY PUBLIC LIBRARY;304 SOUTH MAIN ST;SOMERSET;KY;42501;6066798401
SOMERSET POST OFFICE;119 NORTH MAPLE ST;SOMERSET;KY;42501;6066785712
TAYLORSVILLE POST OFFICE;800 TAYLORSVILLE RD;TAYLORSVILLE;KY;40071;5024778494
BOONE COUNTY PUBLIC LIBRARY SCHEBEN BRANCH;8899 U. S. HIGHWAY 42;UNION;KY;41091;8593422665
VERSAILLES POST OFFICE;149 FIELDVIEW DRIVE;VERSAILLES;KY;40383;8598733241
CITY OF VILLA HILLS;720 ROGERS RD;VILLA HILLS;KY;41017;8593411515
WEST LIBERTY POST OFFICE;398 GLENN AVE;WEST LIBERTY;KY;41472;6067434380
WHITESBURG POST OFFICE;71 HIGHWAY 119 S;WHITESBURG;KY;41858;6066332955
WHITLEY CITY POST OFFICE;1387 N  HWY 27;WHITLEY;KY;42653;6063765342
WILLIAMSBURG POST OFFICE;1000 N HIGHWAY 25 W;WILLIAMSBURG;KY;40769;6065491250
WILMORE MAIN POST OFFICE;301 E MAIN ST;WILMORE;KY;40390;8598583548
WINCHESTER POST OFFICE;120 N MAIN ST;WINCHESTER;KY;40391;8597446186
