facilityName;streetAdress;city;state;zipCode;publicPhone
MONROE COUNTY CHANCERY CLERK OF COURT;201 W COMMERCE ST;ABERDEEN;MS;39730;6623698143
CHOCTAW COUNTY CHANCERY CLERK OFFICE;22 E. QUINN STREET;ACKERMAN;MS;39735;6622856329
BATESVILLE POST OFFICE;375 LAKEWOOD DR;BATESVILLE;MS;38606;6625634001
JASPER COUNTY CIRCUIT CLERK;27 WEST 8TH AVE;BAY SPRINGS;MS;39422;6017642245
BAY ST LOUIS MAIN POST OFFICE;1200 HWY 90;BAY ST LOUIS;MS;39520;2284677720
HANCOCK COUNTY CHANCERY CLERK;854 HWY 90 STE B;BAY ST LOUIS;MS;39520;2284675404
BILOXI MAIN POST OFFICE;135 MAIN ST;BILOXI;MS;39530;2283746386
HARRISON COUNTY CHANCERY CLERK;730 DR MARTIN LUTHER KING JR BLVD;BILOXI;MS;39530;2284358220
PRENTISS COUNTY CHANCERY CLERKS OFFICE;100 NORTH MAIN ST.;BOONEVILLE;MS;38829;6627288151
BRANDON MAIN POST OFFICE;1252 W GOVERNMENT ST;BRANDON;MS;39042;6018250564
BRANDON RESERVOIR POST OFFICE;610 GRANTS FERRY RD;BRANDON;MS;39047;6019926874
RANKIN COUNTY CHANCERY CLERKS OFFICE;211 EAST GOVERNMENT ST;BRANDON;MS;39042;6018251469
CLERK OF CIRCUIT COURT LINCOLN COUNTY;301 SOUTH FIRST ST;BROOKHAVEN;MS;39601;6018353435
MADISON COUNTY CHANCERY CLERK;146 W CENTER ST;CANTON;MS;39046;6018555609
CLERK OF CHANCERY COURT COAHOMA COUNTY;115 FIRST ST;CLARKSDALE;MS;38614;6626243000
CLEVELAND POST OFFICE;210 S CHRISMAN AVE;CLEVELAND;MS;38732;6628434031
COLLINS MAIN POST OFFICE;304 S DOGWOOD AVE;COLLINS;MS;39428;6017654281
COLUMBIA POST OFFICE;815 MAIN ST;COLUMBIA;MS;39429;6017364653
CLERK OF CHANCERY COURT LOWNDES COUNTY;515 2ND AVE N;COLUMBUS;MS;39703;6623295800
COLUMBUS MAIN POST OFFICE;3202 BLUECUTT ROAD;COLUMBUS;MS;39705;6622450247
CLERK OF CIRCUIT COURT ALCORN COUNTY;600 E WALDRON ST;CORINTH;MS;38834;6622867740
CORINTH MAIN POST OFFICE;500 N MADISON ST;CORINTH;MS;38834;6622871411
NEWTON COUNTY CHANCERY CLERK;92 WEST BROAD ST;DECATUR;MS;39327;6016352367
CLERK OF CIRCUIT COURT JONES COUNTY 1ST JUDICIAL;110 COURT ST SUITE B;ELLISVILLE;MS;39437;6014778538
CLERK OF CIRCUIT COURT JEFFERSON COUNTY;1483 MAIN ST;FAYETTE;MS;39069;6017863422
SCOTT COUNTY COURTHOUSE;100 MAIN STREET;FOREST;MS;39074;6014691922
FULTON POST OFFICE;103 E MAIN ST;FULTON;MS;38843;6628624437
GREENVILLE MAIN POST OFFICE;305 MAIN ST;GREENVILLE;MS;38701;6623354523
CLERK OF CHANCERY COURT LEFLORE COUNTY;310 W MARKET ST;GREENWOOD;MS;38930;6624536203
GREENWOOD MAIN POST OFFICE;200 E WASHINGTON ST;GREENWOOD;MS;38930;6624533242
GRENADA POST OFFICE;2500 GATEWAY ST;GRENADA;MS;38901;6622265515
GULFPORT POST OFFICE;11110 HWY 49;GULFPORT;MS;39503;2288315470
HARRISON COUNTY CHANCERY CLERK;1801 23RD AVE;GULFPORT;MS;39501;2288654036
HATTIESBURG GENERAL MAIL FACILITY;220 S 40TH AVE;HATTIESBURG;MS;39402;6012717010
COPIAH COUNTY CIRCUIT CLERK;100 CALDWELL DR;HAZLEHURST;MS;39083;6018941241
DESOTO COUNTY CHANCERY COURT CLERK;2535 HWY 51 SOUTH;HERNANDO;MS;38632;6624698006
HERNANDO POST OFFICE;12 W COMMERCE ST;HERNANDO;MS;38632;6624292481
CLERK OF CIRCUIT COURT MARSHALL COUNTY;128 E VAN DORN AVE;HOLLY SPRINGS;MS;38635;6622523434
CLERK OF COURT SUNFLOWER COUNTY;200 MAIN STREET;INDIANOLA;MS;38751;6628871252
ITTA BENA POST OFFICE;100 DEWEY ST;ITTA BENA;MS;38941;6622549112
CLERK OF CIRCUIT COURT TISHOMINGO COUNTY;1008 BATTLEGROUND DR  RM 204;IUKA;MS;38852;6624237026
JACKSON GENERAL MAIL FACILITY;401 E SOUTH ST;JACKSON;MS;39201;6013517120
JACKSON POST OFFICE - NORTH STATION;4040 NORTHVIEW DR;JACKSON;MS;39206;6013625499
ATTALA COUNTY CIRCUIT CLERK OF COURT;100 COURTHOUSE STE 1;KOSCIUSKO;MS;39090;6622891471
CLERK OF CIRCUIT COURT JONES COUNTY;405 N 5TH AVE;LAUREL;MS;39440;6014252556
LAUREL MAIN POST OFFICE;315 SAWMILL ROAD;LAUREL;MS;39440;6014251408
AMITE COUNTY CIRCUIT CLERK OFFICE;243 W MAIN ST;LIBERTY;MS;39645;6016578932
LONG BEACH POST OFFICE;200 KLONDYKE DR;LONG BEACH;MS;39560;2288685419
WINSTON COUNTY CIRCUIT COURT CLERK;16540 WEST MAIN ST;LOUISVILLE;MS;39339;6627733581
LUCEDALE POST OFFICE;209 COX ST;LUCEDALE;MS;39452;6019472719
MAGEE POST OFFICE;701 3RD ST SW;MAGEE;MS;39111;6018493445
PIKE COUNTY CIRCUIT CLERKS OFFICE;200 EAST BAY STREET;MAGNOLIA;MS;39652;6017832581
MARKS POST OFFICE;423 POPLAR ST;MARKS;MS;38646;6623265881
MCCOMB POST OFFICE;530 DELAWARE AVE;MCCOMB;MS;39648;6016841931
CLERK OF CIRCUIT COURT FRANKLIN COUNTY;36 MAIN ST EAST;MEADVILLE;MS;39653;6013842320
MERIDIAN MAIN POST OFFICE;2100 9TH STREET;MERIDIAN;MS;39301;6016932581
INTERNATIONAL INSTITUTE, MISSISSIPPI STATE UNIVERSITY;175 PRESIDENTS CIRCLE;MISSISSIPPI STATE;MS;39762;6623258929
MISSISSIPPI STATE POST OFFICE;414 LEE BLVD;MISSISSIPPI STATE;MS;39762;6623235772
CLERK OF COURT LAWRENCE COUNTY;517 EAST BROAD ST;MONTICELLO;MS;39654;6015874791
MOSS POINT POST OFFICE;4537 BOWEN ST;MOSS POINT;MS;39563;2284755621
CLERK OF CIRCUIT COURT ADAMS COUNTY;115 S WALL ST;NATCHEZ;MS;39120;6014466326
NATCHEZ MAIN POST OFFICE;214 N CANAL ST;NATCHEZ;MS;39120;6014424361
UNION COUNTY CIRCUIT CLERK;114 E BANKHEAD ST;NEW ALBANY;MS;38652;6625341910
OLIVE BRANCH MAIN POST OFFICE;8850 MID SOUTH AVE;OLIVE BRANCH;MS;38654;6628955966
LAFAYETTE COUNTY CHANCERY CLERK;300 N LAMAR BLVD;OXFORD;MS;38655;6622342131
OXFORD POST OFFICE;401 MCELROY DR.;OXFORD;MS;38655;6622345615
JACKSON COUNTY CHANCERY CLERK;2915 CANTY STREET, SUITE R;PASCAGOULA;MS;39567;2287693131
PETAL POST OFFICE;121 MORRIS ST;PETAL;MS;39465;6015823618
CLERK OF CIRCUIT COURT NESHOBA COUNTY;401 E BEACON ST STE 110;PHILADELPHIA;MS;39350;6016564781
PHILADELPHIA POST OFFICE;1 GOVERNMENT ST;PHILADELPHIA;MS;39350;6013894837
PICAYUNE ANNEX US POST OFFICE;6342 HWY 11 N;PICAYUNE;MS;39466;6017982876
CALHOUN COUNTY CIRCUIT COURT;103 W MAIN ST;PITTSBORO;MS;38951;6624123101
PEARL RIVER COUNTY CIRCUIT CLERK OFFICE;200 S. MAIN STREET;POPLARVILLE;MS;39470;6014032328
JEFFERSON DAVIS COUNTY CIRCUIT CLERK OF COURT;1025 THIRD ST;PRENTISS;MS;39474;6017924231
LAMAR COUNTY CIRCUIT CLERK;203 MAIN ST;PURVIS;MS;39475;6017948504
RIDGELAND POST OFFICE;611 S PEAR ORCHARD RD;RIDGELAND;MS;39157;6019910249
TIPPAH COUNTY CHANCERY CLERK;CHANCERY BUILDING;RIPLEY;MS;38663;6628377374
SENATOBIA MAIN POST OFFICE;100 W MAIN ST;SENATOBIA;MS;38668;6625628766
SOUTHAVEN POST OFFICE;7550 AIRWAYS BLVD;SOUTHAVEN;MS;38671;6623498571
CLERK OF CIRCUIT COURT OKTIBBEHA COUNTY;108 WEST MAIN STREET SUITE 118;STARKVILLE;MS;39759;6623231356
CLERK OF CHANCERY COURT LEE COUNTY;200 W JEFFERSON ST;TUPELO;MS;38804;6624322100
TUPELO MAIN POST OFFICE;362 S THOMAS ST;TUPELO;MS;38801;6627918407
UNIVERSITY OF MISSISSIPPI;617 ALL AMERICAN DR;UNIVERSITY;MS;38677;6629151508
CLERK OF CIRCUIT COURT CARROLL COUNTY;803 FRONT ST;VAIDEN;MS;39176;6624645476
VERONA POST OFFICE;5107 RAYMOND AVE;VERONA;MS;38879;6625662442
VICKSBURG MAIN POST OFFICE;3415 PEMBERTON SQ BLVD;VICKSBURG;MS;39180;6016361022
WAYNESBORO POST OFFICE;704 AZALEA DR;WAYNESBORO;MS;39367;6017354417
CLERK OF CHANCERY COURT CLAY COUNTY;365 COURT ST;WEST POINT;MS;39773;6624943124
WIGGINS POST OFFICE;125 BORDER AVE W;WIGGINS;MS;39577;6019283964
WOODVILLE POST OFFICE;381 MAIN ST;WOODVILLE;MS;39669;6018884651
YAZOO CITY POST OFFICE;341 N MAIN ST;YAZOO CITY;MS;39194;6627465733
