facilityName;streetAdress;city;state;zipCode;publicPhone
ADA POST OFFICE;7125 HEADLEY ST;ADA;MI;49301;6166761088
ADRIAN POST OFFICE;413 E MAUMEE STREET;ADRIAN;MI;49221;5172633795
ALBION POST OFFICE;307 N. SUPERIOR STREET;ALBION;MI;49224;5176292598
ALLEGAN COUNTY REGISTER OF DEEDS;113 CHESTNUT ST;ALLEGAN;MI;49010;2696730390
ALMA POST OFFICE;233 N STATE;ALMA;MI;48801;9894638311
ALMONT POST OFFICE;116 N. MAIN STREET;ALMONT;MI;48003;8107988839
ALPENA COUNTY MICHIGAN REGISTER OF DEEDS;720 W CHISHOLM STREET;ALPENA;MI;49707;9893549547
ALPENA POST OFFICE;350 N. 2ND AVENUE;ALPENA;MI;49707;9893563873
ANN ARBOR MAIN PO;2075 W STADIUM BLVD;ANN ARBOR;MI;48103;7346620223
GREEN ROAD POST OFFICE;3000 GREEN ROAD;ANN ARBOR;MI;48105;7346622005
LIBERTY STATION POST OFFICE;200 E. LIBERTY ST;ANN ARBOR;MI;48104;7346622009
WASHTENAW COUNTY CLERK;200 N MAIN STREET;ANN ARBOR;MI;48104;7342226730
ATHENS POST OFFICE;115 N. CAPITAL AVENUE;ATHENS;MI;49011;2697295370
MONTMORENCY COUNTY REGISTER OF DEEDS;12265 M-32 WEST;ATLANTA;MI;49709;9897858079
BAD AXE POST OFFICE;133 NORTH HANSELMAN STREET;BAD AXE;MI;48413;9892697251
BARK RIVER POST OFFICE;1316 OLD HIGHWAY 2/41;BARK RIVER;MI;49807;9064669942
BARODA POST OFFICE;1368 SOUTH STREET;BARODA;MI;49101;2694221888
BARRYTON POST OFFICE;151 E NORTHERN AVENUE;BARRYTON;MI;49305;9893825520
BATTLE CREEK POST OFFICE;90 S MCCAMLY STREET;BATTLE CREEK;MI;49016;2699653286
BAY CITY POST OFFICE;1000 WASHINGTON AVENUE;BAY CITY;MI;48708;9898955555
CITY OF BAY CITY, MI;301 WASHINGTON AVENUE;BAY CITY;MI;48708;9898948168
BELDING POST OFFICE;201 E. MAIN STREET;BELDING;MI;48809;6167940230
ANTRIM COUNTY TREASURER;203 E. CAYUGA ST.;BELLAIRE;MI;49615;2315336720
BELMONT POST OFFICE;6220 BELMONT AVE;BELMONT;MI;49306;6163611120
PLAINFIELD CHARTER TOWNSHIP;6161 BELMONT AVENUE NE;BELMONT;MI;49306;6163648466
BENTON HARBOR POST OFFICE;525 RIVERVIEW DR;BENTON HARBOR;MI;49022;2699268227
BERRIEN SPRINGS POST OFFICE;115 N MAIN ST;BERRIEN SPRINGS;MI;49103;2694733031
GOGEBIC COUNTY REGISTER OF DEEDS OFFICE;200 N MOORE STREET;BESSEMER;MI;49911;9066670381
BENZIE COUNTY REGISTER OF DEEDS;448 COURT PLACE;BEULAH;MI;49617;2318820016
VILLAGE OF BEVERLY HILLS;18500 W 13 MILE ROAD;BEVERLY HILLS;MI;48025;2486466404
DIVISION STREET STATION;826 DIVISION STREET;BIG RAPIDS;MI;49307;2315921498
MECOSTA COUNTY REGISTER OF DEEDS;400 ELM ST.;BIG RAPIDS;MI;49307;2315920148
BIRMINGHAM POST OFFICE;1221 BOWERS STREET;BIRMINGHAM;MI;48012;2486460723
CITY OF BIRMINGHAM CLERKS OFFICE;151 MARTIN STREET;BIRMINGHAM;MI;48009;2485301880
BLOOMFIELD HILLS POST OFFICE;2050 SOUTH BLVD;BLOOMFIELD HILLS;MI;48304;2483323981
BLOOMFIELD HILLS TOWNSQUARE;2211 S TELEGRAPH RD;BLOOMFIELD HILLS;MI;48302;2483326870
BLOOMFIELD TOWNSHIP;4200 TELEGRAPH ROAD;BLOOMFIELD HILLS;MI;48302;2484337702
BOYNE CITY POST OFFICE;301 WATER STREET;BOYNE CITY;MI;49712;2315829941
BRIGHTON POST OFFICE;100 CHARLES H ORNDORF DRIVE;BRIGHTON;MI;48116;8102291698
GREEN OAK CHARTER TOWNSHIP;10001 SILVER LAKE ROAD;BRIGHTON;MI;48116;8102311333
BRONSON POST OFFICE;220 E. CHICAGO STREET;BRONSON;MI;49028;5173695135
BROOKLYN POST OFFICE;235 N. MAIN STREET;BROOKLYN;MI;49230;5175924209
CHARTER TOWNSHIP OF BROWNSTOWN;21313 TELEGRAPH ROAD;BROWNSTOWN;MI;48183;7346750910
BURNIPS POST OFFICE;4273 30TH STREET;BURNIPS;MI;49314;6168968286
BYRON CENTER POST OFFICE;8350 BYRON CENTER AVENUE SW;BYRON CENTER;MI;49315;6168781796
CADILLAC POST OFFICE;118 E HARRIS STREET;CADILLAC;MI;49601;2317756519
WEXFORD COUNTY REGISTER OF DEEDS;437 E. DIVISION STREET;CADILLAC;MI;49601;2317799455
CALEDONIA POST OFFICE;9339 CHERRY VALLEY AVE SE;CALEDONIA;MI;49316;6168919524
CANTON POST OFFICE;480 NORTH CANTON CENTER RD;CANTON;MI;48187;7348440590
CAPAC POST OFFICE;102 W. MILL ST.;CAPAC;MI;48014;8103957090
CARLETON POST OFFICE;12840 GRAFTON ROAD;CARLETON;MI;48117;7346543656
CARO POST OFFICE;210 LINCOLN STREET;CARO;MI;48723;9896733104
CASEVILLE TOWNSHIP;6767 MAIN STREET;CASEVILLE;MI;48725;9898563053
VILLAGE OF CASS CITY;6506 MAIN STREET;CASS CITY;MI;48726;9898722911
CEDAR SPRINGS POST OFFICE;36 E. CHERRY ST;CEDAR SPRINGS;MI;49319;6166961230
CENTER LINE POST OFFICE;26056 VAN DYKE AVENUE;CENTER LINE;MI;48015;5868349994
ST. JOSEPH COUNTY REGISTER OF DEEDS;125 W. MAIN ST;CENTREVILLE;MI;49032;2694675553
CHARLEVOIX POST OFFICE;6700 M 66 HWY N;CHARLEVOIX;MI;49720;2315472631
CHARLOTTE POST OFFICE;117 W LOVETT ST;CHARLOTTE;MI;48813;5175430170
EATON COUNTY REGISTER OF DEEDS;1045 INDEPENDENCE BLVD;CHARLOTTE;MI;48813;5175434203
CHEBOYGAN POST OFFICE;200 N MAIN ST;CHEBOYGAN;MI;49721;2316279898
CHELSEA POST OFFICE;1101 SOUTH MAIN STREET;CHELSEA;MI;48118;7344758483
CHESANING POST OFFICE;230 E BROAD ST;CHESANING;MI;48616;9898453100
CHESTERFIELD  TOWNSHIP;47275 SUGARBUSH;CHESTERFIELD TOWNSHIP;MI;48047;5869490400
CLARE POST OFFICE;111 W. 5TH STREET;CLARE;MI;48617;9893867682
CLARKSTON POSTAL STORE;5799 S. MAIN STREET;CLARKSTON;MI;48347;2486250648
CHARTER TOWNSHIP OF CLINTON;40700 ROMEO PLANK ROAD;CLINTON TOWNSHIP;MI;48038;5862869422
CLIO POST OFFICE;800 S. MILL STREET;CLIO;MI;48420;8106860810
COLDWATER POST OFFICE;100 W. PEARL ST.;COLDWATER;MI;49036;5172782632
COLON POST OFFICE;123 S BLACKSTONE AVE;COLON;MI;49040;2694323775
ALPINE TOWNSHIP;5255 ALPINE AVE NW;COMSTOCK PARK;MI;49321;6167841262
COOPERSVILLE POST OFFICE;314 CENTER ST;COOPERSVILLE;MI;49404;6168377383
SHIAWASSEE COUNTY  CIRCUIT COURT;208 NORTH SHIAWASSEE STREET;CORUNNA;MI;48817;9897432262
CROSWELL POST OFFICE;104 N. HOWARD AVENUE;CROSWELL;MI;48422;8105469062
CRYSTAL FALLS POST OFFICE;501 SUPERIOR AVE;CRYSTAL FALLS;MI;49920;9068754472
DAVISON POST OFFICE;10290 DAVISON ROAD;DAVISON;MI;48423;8106532424
DEARBORN POST OFFICE;3800 GREENFIELD ROAD;DEARBORN;MI;48120;3133374700
DEARBORN HEIGHTS POST OFFICE;26200 FORD ROAD;DEARBORN HEIGHTS;MI;48127;3132030328
DELTON POST OFFICE;10155 S M 43;DELTON;MI;49046;2696235255
GWY - DETROIT MAIN POST OFFICE;1401 W. FORT STREET;DETROIT;MI;48233;3132268075
SPRINGWELLS POST OFFICE;1901 SPRINGWELLS STREET;DETROIT;MI;48209;3138430745
DOWLING POST OFFICE;8599 S M37 HIGHWAY;DOWLING;MI;49050;2697213440
EAST JORDAN POST OFFICE;103 2ND STREET;EAST JORDAN;MI;49727;2315367311
EAST LANSING POST OFFICE;1140 ABBOTT ROAD;EAST LANSING;MI;48823;5173511024
MICHIGAN STATE UNIVERSITY -MAIN LIBRARY;366 WEST CIRCLE DRIVE;EAST LANSING;MI;48824;5178840843
EAU CLAIRE DISTRICT LIBRARY;6528 E. MAIN STREET;EAU CLAIRE;MI;49111;2694616241
EMMETT POST OFFICE;3120 MAIN STREET;EMMETT;MI;48022;8103841720
DELTA COUNTY REGISTER OF DEEDS;310 LUDINGTON STREET;ESCANABA;MI;49829;9067895116
ESCANABA POST OFFICE;2525 1ST AVENUE NORTH;ESCANABA;MI;49829;9067860652
FAIR HAVEN POST OFFICE;8680 DIXIE HIGHWAY;FAIR HAVEN;MI;48023;5867259674
CITY OF FARMINGTON HILLS;31555 W.ELEVEN MILE ROAD;FARMINGTON HILLS;MI;48336;2488712449
FARMINGTON HILLS POST OFFICE;32455 WEST 12 MILE RD;FARMINGTON HILLS;MI;48333;2483243485
FENTON POST OFFICE;210 S. LEROY STREET;FENTON;MI;48430;8106296813
TYRONE TOWNSHIP;8420 RUNYAN LAKE RD;FENTON;MI;48430;8106298631
CITY OF FLAT ROCK;25500 GIBRALTAR ROAD;FLAT ROCK;MI;48134;7347822455
FLAT ROCK POST OFFICE;26216 GIBRALTAR RD;FLAT ROCK;MI;48134;7347830506
FLINT MAIN POST OFFICE;250 E. BOULEVARD DRIVE;FLINT;MI;48502;8102571526
FLUSHING POST OFFICE;127 S. CHERRY STREET;FLUSHING;MI;48433;8106596473
FORT GRATIOT CHARTER TOWNSHIP;3720 KEEWAHDIN ROAD;FORT GRATIOT;MI;48059;8103854489
FRANKENMUTH POST OFFICE;119 N MAIN ST;FRANKENMUTH;MI;48734;9896526751
FRASER POST OFFICE;16925 MASONIC BLVD;FRASER;MI;48026;5868594842
FREMONT POST OFFICE;19 S. DIVISION AVE;FREMONT;MI;49412;2319244820
GAYLORD POST OFFICE;289 W. COMMERCE BLVD;GAYLORD;MI;49735;9897326800
GLADSTONE POST OFFICE;1003 DELTA AVENUE;GLADSTONE;MI;49837;9064283505
GLADWIN COUNTY CLERK 55TH CIRCUIT COURT;401 W CEDAR AVE;GLADWIN;MI;48624;9894267351
GOBLES POST OFFICE;106 E EXCHANGE STREET;GOBLES;MI;49055;2696282931
GOODELLS POST OFFICE;2585 GOODELLS ROAD;GOODELLS;MI;48027;8103251650
GOODRICH POST OFFICE;8283 S. STATE ROAD;GOODRICH;MI;48438;8106367933
GRAND BLANC POST OFFICE;11426 DAVIS STREET;GRAND BLANC;MI;48480;8108669458
GRAND HAVEN POST OFFICE;324 WASHINGTON AVENUE;GRAND HAVEN;MI;49417;6168420510
CASCADE CHARTER TOWNSHIP;2865 THORNHILLS AVE. SE;GRAND RAPIDS;MI;49546;6169491508
CITY OF WALKER;4243 REMEMBRANCE ROAD;GRAND RAPIDS;MI;49534;6167916865
GRAND RAPIDS CITY CLERKS OFFICE;300 MONROE AVE  NW;GRAND RAPIDS;MI;49503;6164563010
GRAND RAPIDS MAIN POST OFFICE;225 MICHIGAN ST NW;GRAND RAPIDS;MI;49501;6167761577
NORTHWEST STATION;1625 WALKER AVE NW;GRAND RAPIDS;MI;49504;6167914005
GRANDVILLE CITY HALL;3195 WILSON AVENUE SW;GRANDVILLE;MI;49418;6165313030
CRAWFORD COUNTY;200 W MICHIGAN AVE;GRAYLING;MI;49738;9893443203
GRAYLING POST OFFICE;300 E. MICHIGAN AVENUE;GRAYLING;MI;49738;9893484591
GREENVILLE POST OFFICE;119 W CASS STREET;GREENVILLE;MI;48838;6167548732
GROSSE ILE TOWNSHIP;9601 GROH ROAD;GROSSE ILE TOWNSHIP;MI;48138;7346764422
GROSSE POINTE BRANCH;18640 MACK AVENUE;GROSSE POINTE FARMS;MI;48236;3132646059
CITY OF GROSSE POINTE WOODS;20025 MACK PLAZA DRIVE;GROSSE POINTE WOODS;MI;48236;3133432604
HALE POST OFFICE;121 E MAIN ST;HALE;MI;48739;9897284401
HAMTRAMCK POST OFFICE;2933 CANIFF STREET;HAMTRAMCK;MI;48212;3138263334
HARBOR SPRINGS POST OFFICE;250 STATE STREET;HARBOR SPRINGS;MI;49740;2315262521
HARRISON POST OFFICE;191 S. 1ST STREET;HARRISON;MI;48625;9895397433
CHARTER TOWNSHIP OF HARRISON;38151 LANSE CREUSE;HARRISON TOWNSHIP;MI;48045;5864661404
ALCONA COUNTY REGISTER OF DEEDS;106 FIFTH STREET;HARRISVILLE;MI;48740;9897249450
HART POST OFFICE;135 S. STATE STREET;HART;MI;49420;2318732850
HARTLAND TOWNSHIP;2655 CLARK ROAD;HARTLAND;MI;48353;8106327498
HAZEL PARK POST OFFICE;23200 JOHN R ROAD;HAZEL PARK;MI;48030;2485424227
HIGHLAND POST OFFICE;376 BEACH FARM CIRCLE;HIGHLAND;MI;48356;2487756963
HILLSDALE POST OFFICE;99 N. BROAD STREET;HILLSDALE;MI;49242;5174371251
HOLLAND CITY HALL;270 SOUTH RIVER AVE;HOLLAND;MI;49423;6163551301
HOLLAND POST OFFICE;190 E. 8TH STREET;HOLLAND;MI;49423;6163965201
DELHI CHARTER TOWNSHIP;2074 AURELIUS ROAD;HOLT;MI;48842;5176942135
HORTON POST OFFICE;220 MAIN ST.;HORTON;MI;49246;5175632014
HOUGHTON COUNTY REGISTER OF DEEDS OFFICE;401 E HOUGHTON AVE;HOUGHTON;MI;49931;9064821311
HOUGHTON POST OFFICE;701 SHELDEN AVENUE;HOUGHTON;MI;49931;8002758777
HOWELL POST OFFICE;325 S. MICHIGAN AVENUE;HOWELL;MI;48843;5175462582
HUDSONVILLE POST OFFICE;3333 CENTRAL BLVD;HUDSONVILLE;MI;49426;6166699456
IMLAY CITY POST OFFICE;310  E. THIRD STREET;IMLAY CITY;MI;48444;8107247545
IONIA POST OFFICE;117 N KIDD ST;IONIA;MI;48846;6165273370
DICKINSON COUNTY TREASURERS OFFICE;705 S. STEPHENSON AVE;IRON MOUNTAIN;MI;49801;9067748130
IRON MOUNTAIN POST OFFICE;101 W. LUDINGTON STREET;IRON MOUNTAIN;MI;49801;9067762047
IRON RIVER POST OFFICE;425 W. GENESEE STREET;IRON RIVER;MI;49935;9062656441
CITY OF IRONWOOD;213 S MARQUETTE STREET;IRONWOOD;MI;49938;9069325050
ISHPEMING POST OFFICE;211 N. 2ND STREET;ISHPEMING;MI;49849;9064866161
GRATIOT COUNTY REGISTER OF DEEDS;214 E CENTER STREET;ITHACA;MI;48847;9898755217
JACKSON COUNTY TREASURER;120 W. MICHIGAN AVE;JACKSON;MI;49201;5177884418
JACKSON POST OFFICE;113 W. MICHIGAN AVENUE;JACKSON;MI;49201;5177680611
JENISON POST OFFICE;408 CHICAGO DR;JENISON;MI;49428;6164572600
JONESVILLE POST OFFICE;114 MAUMEE STREET;JONESVILLE;MI;49250;5178499062
CHARTER TOWNSHIP OF KALAMAZOO;1720 RIVERVIEW DRIVE;KALAMAZOO;MI;49004;2693818080
CHARTER TOWNSHIP OF TEXAS;7110 W Q AVENUE;KALAMAZOO;MI;49009;2693751591
HAENICKE INSTITUTE FOR GLOBAL EDUCATION;WESTERN MICHIGAN UNIVERSITY;KALAMAZOO;MI;49008;2693875890
KALAMAZOO POST OFFICE;1121 MILLER ROAD;KALAMAZOO;MI;49001;2693887228
OSHTEMO POST OFFICE;3885 S. 9TH STREET;KALAMAZOO;MI;49009;2693535005
WESTWOOD BRANCH POST OFFICE;167 N DRAKE RD;KALAMAZOO;MI;49009;2693437425
KALKASKA COUNTY REGISTER OF DEEDS;605 N. BIRCH STREET;KALKASKA;MI;49646;2312583315
CITY OF KENTWOOD;4900 BRETON AVE SE;KENTWOOD;MI;49508;6166989610
TORCH LAKE TOWNSHIP;2355 NORTH US 31 HWY;KEWADIN;MI;49648;2315992036
MISSAUKEE COUNTY TREASURER;111 S. CANAL ST;LAKE CITY;MI;49651;2318394967
LAKE ORION POST OFFICE;611 N. AXFORD STREET;LAKE ORION;MI;48361;2486933253
BARAGA COUNTY TREASURER;2 S. MAIN STREET;LANSE;MI;49946;9065246100
DELTA TOWNSHIP;7710 W. SAGINAW HWY;LANSING;MI;48917;5173238500
LANSING CITY CLERKS OFFICE;124 W. MICHIGAN AVE.;LANSING;MI;48933;5174834131
LAPEER POST OFFICE;567 W. NEPESSING STREET;LAPEER;MI;48446;8106647061
LAWTON POST OFFICE;210 S. MAIN STREET;LAWTON;MI;49065;2696243601
LESLIE POST OFFICE;170 S. MAIN STREET;LESLIE;MI;49251;5175895201
LEXINGTON POST OFFICE;5204 MAIN STREET;LEXINGTON;MI;48450;8103598591
LIVONIA GREENMEAD POST OFFICE;37500 PEMBROKE STREET;LIVONIA;MI;48152;7345911095
LIVONIA MAIN POST OFFICE;11800 MERRIMAN RD;LIVONIA;MI;48150;7344587952
LOWELL POST OFFICE;120 N BROADWAY;LOWELL;MI;49331;6168979949
LUDINGTON POST OFFICE;201 E. LUDINGTON AVENUE;LUDINGTON;MI;49431;2318438646
MASON COUNTY REGISTER OF DEEDS;304 E. LUDINGTON AVENUE;LUDINGTON;MI;49431;2318434466
MACKINAC ISLAND POST OFFICE;7316 MARKET STREET;MACKINAC ISLAND;MI;49757;9068473821
MADISON HEIGHTS POST OFFICE;29441 JOHN R. ROAD;MADISON HEIGHTS;MI;48071;2485472975
MANISTEE POST OFFICE;35 FILER STREET;MANISTEE;MI;49660;2317232523
MANISTIQUE POST OFFICE;301 S CEDAR ST;MANISTIQUE;MI;49854;9063412646
MARINE CITY POST OFFICE;460 S. WATER STREET;MARINE CITY;MI;48039;8107659311
MARLETTE POST OFFICE;2984 FENNER STREET;MARLETTE;MI;48453;9896353560
MARQUETTE COUNTY CLERK OF COURTS;234  W.  BARAGA AVENUE;MARQUETTE;MI;49855;9062258330
PETER WHITE PUBLIC LIBRARY;217 N. FRONT STREET;MARQUETTE;MI;49855;9062264311
MARSHALL POST OFFICE;202 E. MICHIGAN AVENUE;MARSHALL;MI;49068;2697812859
MARYSVILLE POST OFFICE;1238 MICHIGAN AVENUE;MARYSVILLE;MI;48040;8103647922
INGHAM COUNTY PARKS;121 E. MAPLE ST.;MASON;MI;48854;5176762233
MENOMINEE COUNTY REGISTER OF DEEDS;839 10TH AVE.;MENOMINEE;MI;49858;9068632822
MICHIGAN CENTER POST OFFICE;122 BROAD STREET;MICHIGAN CENTER;MI;49254;5177643567
MIDLAND COUNTY CIRCUIT COURT CLERKS;301 W. MAIN STREET;MIDLAND;MI;48640;9898326735
MIDLAND POST OFFICE;2900 RODD STREET;MIDLAND;MI;48640;9896316580
MIO POST OFFICE;213 S. MORENCI AVE;MIO;MI;48647;9898265531
MONROE CHARTER TOWNSHIP;4925 EAST DUNBAR ROAD;MONROE;MI;48161;7342416574
MONROE POST OFFICE;210 W FRONT STREET;MONROE;MI;48161;7342412689
MONTAGUE POST OFFICE;8761 FERRY ST;MONTAGUE;MI;49437;2318944851
MT CLEMENS POST OFFICE;155 SOUTH MAIN STREET;MT CLEMENS;MI;48046;5867832879
ISABELLA COUNTY REGISTER OF DEEDS;200 N. MAIN STREET;MT. PLEASANT;MI;48858;9893174089
MOUNT PLEASANT POST OFFICE;813 MAIN STREET;MT. PLEASANT;MI;48858;9897735276
MUNISING POST OFFICE;220 ELM AVENUE;MUNISING;MI;49862;9063872081
CITY OF MUSKEGON;933 TERRACE ST;MUSKEGON;MI;49440;2317246705
MUSKEGON POST OFFICE;800 1ST STREET;MUSKEGON;MI;49440;2317227292
NEW BALTIMORE MAIN POST OFFICE;35339 23 MILE ROAD;NEW BALTIMORE;MI;48047;5867256575
NEW BUFFALO POST OFFICE;325 W BUFFALO STREET;NEW BUFFALO;MI;49117;2694693200
NEW HUDSON POST OFFICE;56655 GRAND RIVER AVENUE;NEW HUDSON;MI;48165;2482785095
NILES POST OFFICE;741 BROADWAY;NILES;MI;49120;2696835520
NORTHVILLE POST OFFICE;200 S. WING ST;NORTHVILLE;MI;48167;2483492062
CITY OF NOVI CLERKS OFFICE;45175 W. TEN MILE ROAD;NOVI;MI;48375;2483470456
NOVI POST OFFICE;24875 NOVI ROAD;NOVI;MI;48376;2483493152
ONTONAGON POST OFFICE;207 COPPER STREET;ONTONAGON;MI;49953;9068842646
ORTONVILLE POST OFFICE;55 POND STREET;ORTONVILLE;MI;48462;2486272070
OSCODA POST OFFICE;221 N STATE STREET;OSCODA;MI;48750;9897395112
OTSEGO TOWNSHIP HALL;400 N. 16TH STREET;OTSEGO;MI;49078;2696949434
OWOSSO POST OFFICE;319 N WASHINGTON STREET;OWOSSO;MI;48867;9897232929
VAN BUREN COUNTY DEPT OF LAND SERVICES;219 PAW PAW;PAW PAW;MI;49079;2696578243
PETOSKEY POST OFFICE;318 STATE ST;PETOSKEY;MI;49770;2313472671
PINCKNEY POST OFFICE;1325 EAST M-36 ROAD;PINCKNEY;MI;48169;7348783491
PINCONNING POST OFFICE;207 KAISER ST;PINCONNING;MI;48650;9898794971
CHARTER TOWNSHIP OF PLYMOUTH;9955 N HAGGERTY RD;PLYMOUTH;MI;48170;7343543225
CITY OF PLYMOUTH;201 S. MAIN STREET;PLYMOUTH;MI;48170;7344531234
PLYMOUTH MAIN POST OFFICE;47526 CLIPPER STREET;PLYMOUTH;MI;48170;7344534669
OAKLAND COUNTY ELECTIONS OFFICE;1200 N. TELEGRAPH ROAD;PONTIAC;MI;48341;2488580564
PONTIAC MAIN POST OFFICE;735 W. HURON;PONTIAC;MI;48343;2484542413
PORT HURON POST OFFICE;852 32ND ST.;PORT HURON;MI;48061;8109894830
PRUDENVILLE POST OFFICE;899 W. HOUGHTON LAKE DRIVE;PRUDENVILLE;MI;48651;9893665147
REDFORD STATION;12245 BEECH DALY ROAD;REDFORD;MI;48239;3139371242
OSCEOLA COUNTY REGISTER OF DEEDS;301 W. UPTON AVE;REED CITY;MI;49677;2318326113
RICHMOND POST OFFICE;36511 DIVISION ROAD;RICHMOND;MI;48062;5867270697
ROCHESTER MAIN POST OFFICE;511 OLDE TOWNE ROAD;ROCHESTER;MI;48308;2486019998
CITY OF ROCHESTER HILLS - CLERKS OFFICE;1000 ROCHESTER HILLS DRIVE;ROCHESTER HILLS;MI;48309;2486564630
ROCKFORD POST OFFICE;57 COURTLAND STREET NE;ROCKFORD;MI;49341;6168660789
ROGERS CITY POST OFFICE;188 N THIRD STREET;ROGERS CITY;MI;49779;9897344123
ROMEO POST OFFICE;119 CHURCH STREET;ROMEO;MI;48065;5863364499
ROSCOMMON POST OFFICE;281  LAKE STREET;ROSCOMMON;MI;48653;9892755580
ROSEVILLE POST OFFICE;30550 GRATIOT AVENUE;ROSEVILLE;MI;48066;5862852022
ROYAL OAK MAIN POST OFFICE;200 W. SECOND STREET;ROYAL OAK;MI;48068;2485467112
SAGINAW COUNTY CLERK COURT RECORDS OFFICE;111 S. MICHIGAN AVE;SAGINAW;MI;48601;9897905540
SAGINAW MAIN POST OFFICE;1233 S WASHINGTON AVE;SAGINAW;MI;48601;9897715718
THOMAS TOWNSHIP;249 N MILLER ROAD;SAGINAW;MI;48609;9897810150
SALINE MUNICIPAL BUILDING;100 N HARRIS STREET;SALINE;MI;48176;7344294907
SALINE POST OFFICE;108 N. MAPLE RD;SALINE;MI;48176;7349445859
SANILAC COUNTY REGISTER OF DEEDS;60 W. SANILAC AVE;SANDUSKY;MI;48471;8106482313
CHIPPEWA COUNTY REGISTER OF DEEDS;319 COURT STREET;SAULT STE MARIE;MI;49783;9066356312
SAULT ST MARIE POST OFFICE;161 RIDGE STREET;SAULT STE. MARIE;MI;49783;9066329951
CHARTER TOWNSHIP OF SHELBY;52700 VAN DYKE AVE;SHELBY TOWNSHIP;MI;48316;5867315102
SHELBY TOWNSHIP POST OFFICE;7755 22 MILE ROAD;SHELBY TOWNSHIP;MI;48317;5867319613
SOUTH HAVEN POST OFFICE;336 BROADWAY STREET;SOUTH HAVEN;MI;49090;2696371283
SOUTH LYON POST OFFICE;111 SOUTH LAFAYETTE ST;SOUTH LYON;MI;48178;2484374501
SOUTHFIELD POST OFFICE;22200 W. 11 MILE ROAD;SOUTHFIELD;MI;48037;2483682977
SOUTHGATE POST OFFICE;14000 DIX-TOLEDO ROAD;SOUTHGATE;MI;48195;7342837158
SPARTA POST OFFICE;34 E DIVISION ST.;SPARTA;MI;49345;6168877003
SPRING ARBOR POST OFFICE;109 TEFT RD;SPRING ARBOR;MI;49283;5179627336
ST CLAIR POST OFFICE;202 TRUMBULL STREET;ST. CLAIR;MI;48079;8103294555
CITY OF ST CLAIR SHORES CITY CLERK;27600 JEFFERSON AVENUE;ST. CLAIR SHORES;MI;48081;5864473303
ST CLAIR SHORES POST OFFICE;23125 GREATER MACK AVENUE;ST. CLAIR SHORES;MI;48080;5864982874
MACKINAC COUNTY REGISTER OF DEEDS;100 S. MARLEY STREET;ST. IGNACE;MI;49781;9066437306
CLINTON COUNTY REGISTER OF DEEDS;100 E STATE STREET;ST. JOHNS;MI;48879;9892245270
STANDISH POST OFFICE;120 S GROVE STREET;STANDISH;MI;48658;9898466408
MONTCALM COUNTY CIRCUIT COURT;639 NORTH STATE STREET;STANTON;MI;48888;9898313520
STEPHENSON POST OFFICE;W520 SAMUEL ST;STEPHENSON;MI;49887;9067536919
STERLING HEIGHTS POST OFFICE;7007 16 MILE ROAD;STERLING HEIGHTS;MI;48312;5869832319
STEVENSVILLE POST OFFICE;5888 CLEVELAND AVE;STEVENSVILLE;MI;49127;2694293452
STURGIS POST OFFICE;124 E CHICAGO RD;STURGIS;MI;49091;2696591780
LEELANAU COUNTY REGISTER OF DEEDS;8527 E GOVERNMENT CENTER DRIVE;SUTTONS BAY;MI;49682;2312569682
SUTTONS BAY POST OFFICE;106 W. BROADWAY;SUTTONS BAY;MI;49682;2312713622
SWARTZ CREEK POST OFFICE;8055 PAUL FORTINO DRIVE;SWARTZ CREEK;MI;48473;8106357393
IOSCO COUNTY CLERK;422 W LAKE STREET;TAWAS CITY;MI;48763;9893623497
TAYLOR POST OFFICE;24837 GODDARD ROAD;TAYLOR;MI;48180;7349464863
TECUMSEH POST OFFICE;320 EAST CHICAGO BOULEVARD;TECUMSEH;MI;49286;5174231197
BEDFORD TOWNSHIP;8100 JACKMAN ROAD;TEMPERANCE;MI;48182;7342247320
THREE RIVERS POST OFFICE;100 N MAIN ST;THREE RIVERS;MI;49093;2692786595
EAST BAY CHARTER TOWNSHIP;1965 N THREE MILE ROAD;TRAVERSE CITY;MI;49696;2319478647
GRAND TRAVERSE COUNTY TREASURER;400 BOARDMAN AVE.;TRAVERSE CITY;MI;49684;2319224735
TRAVERSE CITY MAIN POST OFFICE;202 SOUTH UNION STREET;TRAVERSE CITY;MI;49684;2319469616
CITY OF TRENTON MI;3101 WEST ROAD;TRENTON;MI;48183;7346757300
CITY OF TROY - TREASURERS OFFICE;500 W. BIG BEAVER;TROY;MI;48084;2485243333
TROY POST OFFICE;2844 LIVERNOIS ROAD;TROY;MI;48099;2486191598
BRADY TOWNSHIP;13123 SOUTH 24TH STREET;VICKSBURG;MI;49097;2696491813
WARREN POST OFFICE;28401 MOUND ROAD;WARREN;MI;48090;5865768966
WASHINGTON POST OFFICE;58757 VAN DYKE;WASHINGTON;MI;48094;5866778603
WATERFORD RETAIL STORE POST OFFICE;5036 DIXIE HIGHWAY;WATERFORD;MI;48329;2485996288
LEIGHTON TOWNSHIP;4451 12TH STREET, SUITE A;WAYLAND;MI;49348;6168918238
WAYLAND POST OFFICE;325 RENO DRIVE;WAYLAND;MI;49348;2697922371
WEST BLOOMFIELD POST OFFICE;6725 DALY ROAD;WEST BLOOMFIELD;MI;48322;2488627450
WEST BLOOMFIELD TOWNSHIP CLERKS OFFICE;4550 WALNUT LAKE ROAD;WEST BLOOMFIELD;MI;48323;2484514848
WEST BRANCH POST OFFICE;122 S THIRD ST;WEST BRANCH;MI;48661;9893452691
OTTAWA COUNTY CLERK-REGISTER OF DEEDS;12220 FILLMORE STREET;WEST OLIVE;MI;49460;6169944510
CITY OF WESTLAND;37201 MARQUETTE;WESTLAND;MI;48185;7347133732
WESTLAND POST OFFICE;6300 N. WAYNE ROAD;WESTLAND;MI;48185;7343260372
NEWAYGO COUNTY REGISTER OF DEEDS;1087 E NEWELL;WHITE CLOUD;MI;49349;2316897246
CHARTER TOWNSHIP OF WHITE LAKE;7525 HIGHLAND ROAD;WHITE LAKE;MI;48383;2486983300
ACME TOWNSHIP;6042 ACME ROAD;WILLIAMSBURG;MI;49690;2319381350
CITY OF WIXOM;49045 PONTIAC TRAIL;WIXOM;MI;48393;2486240865
CITY OF WOODHAVEN;21869 WEST ROAD;WOODHAVEN;MI;48183;7346754903
ROGERS PLAZA POSTAL STORE;1026 28TH ST SW;WYOMING;MI;49509;6065322218
CHARTER TOWNSHIP OF YPSILANTI;7200 S. HURON RIVER DRIVE;YPSILANTI;MI;48197;7344844700
YPSILANTI POST OFFICE;1606 S HURON STREET;YPSILANTI;MI;48197;7344823046
ZEELAND POST OFFICE;155 E. MAIN AVE;ZEELAND;MI;49464;6167722971
