facilityName;streetAdress;city;state;zipCode;publicPhone
ABERNATHY POST OFFICE;801 AVENUE D;ABERNATHY;TX;79311;8062984111
ABILENE MAIN POST OFFICE;341 PINE STREET;ABILENE;TX;79601;3257382135
ADDISON MAIN POST OFFICE;4900 AIRPORT PKWY;ADDISON;TX;75001;9722335520
ALICE POST OFFICE;401 EAST 2ND STREET;ALICE;TX;78332;3616645541
JIM WELLS COUNTY DISTRICT CLERK;200 NORTH ALMOND STREET;ALICE;TX;78332;3616685717
ALLEN POST OFFICE;304  W BOYD DR;ALLEN;TX;75013;9723907993
SUL ROSS STATE UNIVERSITY LIBRARY;400 NORTH HARRISON;ALPINE;TX;79832;4328378123
CITY OF ALTON;509 SOUTH ALTON BOULEVARD;ALTON;TX;78573;9564320760
ALVARADO POST OFFICE;300 E. HWY  67;ALVARADO;TX;76009;8177833384
ALVIN POST OFFICE;455 EAST HOUSE STREET;ALVIN;TX;77511;2813312220
AMARILLO MAIN POST OFFICE;2301 ROSS ST.;AMARILLO;TX;79120;8064682101
JORDAN STATION  POST OFFICE;8301 AMARILLO BLVD WEST;AMARILLO;TX;79124;8063529038
LONE STAR STATION;5000 S WESTERN ST;AMARILLO;TX;79109;8063528825
CHAMBERS COUNTY DISTRICT CLERK;404 WASHINGTON AVENUE;ANAHUAC;TX;77514;4092672432
ANGLETON POST OFFICE;100 CANNAN DRIVE;ANGLETON;TX;77515;9798497500
ARANSAS PASS POST OFFICE;634 SOUTH COMMERCIAL STREET;ARANSAS PASS;TX;78336;3617586938
ARLINGTON MAIN POST OFFICE;300 E. SOUTH ST;ARLINGTON;TX;76004;8175438412
ARLINGTON OAKWOOD POST OFFICE;1009 OAKWOOD LANE;ARLINGTON;TX;76012;8178016860
BARDIN ROAD POST OFFICE;1301 E. BARDIN RD;ARLINGTON;TX;76018;8175575561
TARRANT COUNTY ARLINGTON SUB-COURTHOUSE;700 E. ABRAM;ARLINGTON;TX;76010;8175483963
HENDERSON COUNTY DISTRICT CLERK;100 EAST TYLER STREET;ATHENS;TX;75751;9036756115
AUBREY POST OFFICE;120 STANLEY DR;AUBREY;TX;76227;9403652621
STEVEN E COPELAND GOVERNMENT CENTER;1400 FM 424;AUBREY;TX;76227;9403494400
AUSTIN GENERAL MAIL FACILITY;8225 CROSS PARK DRIVE;AUSTIN;TX;78710;5123681286
AUSTIN OAK HILL STATION;6104 OLD FREDERICKSBURG ROAD;AUSTIN;TX;78749;5128922794
AUSTIN SOUTH EAST STATION;4516 BURLESON ROAD;AUSTIN;TX;78744;5124441083
AUSTIN UNIVERSITY STATION;306 INNER CAMPUS DRIVE;AUSTIN;TX;78712;5122325488
BLUEBONNET POST OFFICE;1822 WEST BRAKER LANE;AUSTIN;TX;78758;5128739289
CHIMNEY CORNERS STATION;3575 FAR WEST BOULEVARD;AUSTIN;TX;78731;5123459739
DISTRICT CLERK JURY OFFICE (TRAVIS COUNTY AIRPORT OFFICE);5501 AIRPORT BOULEVARD;AUSTIN;TX;78751;5128544295
MOCKINGBIRD STATION;7310 MANCHACA ROAD;AUSTIN;TX;78745;5124161094
NORTH AUSTIN STATION;4300 SPEEDWAY;AUSTIN;TX;78705;5124532785
NORTHEAST STATION;900 BLACKSON AVENUE;AUSTIN;TX;78752;5124588947
TRAVIS COUNTY DISTRICT CLERK;1000 GUADALUPE STREET;AUSTIN;TX;78701;5128544295
UT AUSTIN INTERNATIONAL OFFICE;2400 NUECES STREET;AUSTIN;TX;78705;5122325899
AZLE MAIN POST OFFICE;409 COMMERCE ST.;AZLE;TX;76020;8174446332
BALLINGER MAIN POST OFFICE;116 S 8TH STREET;BALLINGER;TX;76821;3253652719
BANDERA COUNTY DISTRICT CLERK;3360 STATE HWY 173 NORTH;BANDERA;TX;78003;8307964606
BARKER MAIN POST OFFICE;211 BAKER ROAD;BARKER;TX;77413;2814922629
BASTROP COUNTY DISTRICT CLERK;804 PECAN STREET;BASTROP;TX;78602;5123327244
BAY CITY POST OFFICE;1309 BAYWOOD DRIVE;BAY CITY;TX;77414;9792452051
BAYTOWN MAIN POST OFFICE;601 WEST BAKER ROAD;BAYTOWN;TX;77521;2814220095
BEAUMONT DOWNTOWN STATION;300 WILLOW STREET;BEAUMONT;TX;77701;4098328205
JEFFERSON COUNTY COURTHOUSE DISTRICT CLERK OFFICE;1085 PEARL STREET;BEAUMONT;TX;77701;4098358580
BEDFORD POST OFFICE;1300 HARWOOD RD.;BEDFORD;TX;76021;8172834264
BEEVILLE POST OFFICE;111 NORTH SAINT MARYS STREET;BEEVILLE;TX;78102;3613583727
BELLAIRE POST OFFICE;5350 BELLAIRE BOULEVARD;BELLAIRE;TX;77401;7136681004
AUSTIN COUNTY DISTRICT CLERK;ONE EAST MAIN STREET;BELLVILLE;TX;77418;9798655911
BIG SPRING MAIN POST OFFICE;501 SOUTH MAIN STREET;BIG SPRING;TX;79720;4322637391
BLUE RIDGE POST OFFICE;301 S BUS HWY 78;BLUE RIDGE;TX;75424;9727525326
KENDALL COUNTY TAX ASSESSOR COLLECTOR;201 EAST SAN ANTONIO STREET;BOERNE;TX;78006;8302499343
BONHAM POST OFFICE;300 N. CENTER ST.;BONHAM;TX;75418;9035834815
FANNIN COUNTY DISTRICT CLERK;200 E. 1ST STREET;BONHAM;TX;75418;9035837459
BORGER POST OFFICE;500 SOUTH MCGEE ST;BORGER;TX;79007;8062733761
BOWIE POST OFFICE;113 N. MASON ST.;BOWIE;TX;76230;9408721170
BRADY MAIN POST OFFICE;229 SOUTH BLACKBURN STREET;BRADY;TX;76925;3255972298
BRAZORIA POST OFFICE;111 GAINES STREET;BRAZORIA;TX;77422;9797987676
BRECKENRIDGE POST OFFICE;123 WEST WILLIAMS STREET;BRECKENRIDGE;TX;76424;2545592877
WASHINGTON COUNTY DISTRICT CLERK;100 EAST MAIN STREET;BRENHAM;TX;77833;9792776231
TERRY COUNTY DISTRICT CLERK;500 WEST MAIN STREET;BROWNFIELD;TX;79316;8066374202
BROWNSVILLE MAIN POST OFFICE;1535 EAST LOS EBANOS BOULEVARD;BROWNSVILLE;TX;78520;9565462411
CAMERON COUNTY DISTRICT CLERK;974 EAST HARRISON STREET;BROWNSVILLE;TX;78520;9565440838
BROWNWOOD MAIN POST OFFICE;600 CENTER AVENUE;BROWNWOOD;TX;76801;3256460656
BRYAN POST OFFICE;2121 E. WM J BRYAN PKWY;BRYAN;TX;77801;9797747068
BURLESON POST OFFICE;232 SW JOHNSON AVENUE;BURLESON;TX;76028;8172950289
JOHNSON COUNTY CLERK;247 ELK DRIVE;BURLESON;TX;76028;8172022968
BURNET COUNTY DISTRICT CLERK;1701 EAST POLK STREET,;BURNET;TX;78611;5127565450
CALDWELL POST OFFICE;201 N. MAIN STREET;CALDWELL;TX;77836;9795674396
MILAM COUNTY DISTRICT CLERK;102 SOUTH FANNIN;CAMERON;TX;76520;2546977052
CANADIAN POST OFFICE;311 PURCELL AVENUE;CANADIAN;TX;79014;8063236272
CANTON POST OFFICE;1001 WEST DALLAS STREET;CANTON;TX;75103;9035672371
VAN ZANDT COUNTY DISTRICT CLERK;121 EAST DALLAS STREET;CANTON;TX;75103;9035676576
CANYON POST OFFICE;1304 4TH AVE;CANYON;TX;79015;8066552507
DENTON COUNTY CLERK OF COURT;1029 W. ROSEMEADE PKWY;CARROLLTON;TX;75007;9724347170
ROSEMEADE POST OFFICE;3755 N. JOSEY LANE;CARROLLTON;TX;75007;18446618730
PANOLA COUNTY DISTRICT CLERK;110 SOUTH SYCAMORE STREET;CARTHAGE;TX;75633;9036930306
CITY OF CASTLE HILLS;209 LEMONWOOD DRIVE;CASTLE HILLS;TX;78213;2102939379
CASTROVILLE MAIN POST OFFICE;1305 US HWY 90 W;CASTROVILLE;TX;78009;8305382251
SHELBY COUNTY DISTRICT CLERK;200 SAN AUGUSTINE ST.;CENTER;TX;75935;9365984164
LEON COUNTY DISTRICT CLERK;139 EAST MAIN STREET;CENTERVILLE;TX;75833;9035362227
CHANNELVIEW POST OFFICE;531 SHELDON ROAD;CHANNELVIEW;TX;77530;2814575479
CHILDRESS POST OFFICE;507 AVE F NW;CHILDRESS;TX;79201;9409373741
CLARENDON POST OFFICE;101 W. 4TH STREET;CLARENDON;TX;79226;8068743353
CLEBURNE POST OFFICE;201 FAIRCREST DRIVE;CLEBURNE;TX;76031;8176453991
JOHNSON COUNTY CLERK;2 NORTH MAIN STREET;CLEBURNE;TX;76033;8175566312
CLIFTON POST OFFICE;407 W. 5TH STREET;CLIFTON;TX;76634;2546753116
CLINT POST OFFICE;13001 ALAMEDA AVE;CLINT;TX;79836;9158514313
COLEMAN POST OFFICE;201 WEST PECAN STREET;COLEMAN;TX;76834;3256254315
COLLEGE STATION MAIN POST OFFICE;2130 HARVEY MITCHELL PARKWAY S;COLLEGE STATION;TX;77840;9796934152
TEXAS AM UNIVERSITY EDUCATION ABROAD;TEXAS AM UNIVERSITY;COLLEGE STATION;TX;77843;9798450544
COLLEYVILLE POST OFFICE;1501 HALL-JOHNSON RD;COLLEYVILLE;TX;76034;8176841950
COLORADO CITY MAIN POST OFFICE;116 W 3RD STREET;COLORADO CITY;TX;79512;3257283612
COLORADO COUNTY DISTRICT CLERK;400 SPRING STREET;COLUMBUS;TX;78934;9797322536
COLUMBUS POST OFFICE;1221 WALNUT STREET;COLUMBUS;TX;78934;9797325556
COMBES POST OFFICE;21659 S BUSINESS HIGHWAY 77;COMBES;TX;78535;9564253235
COMFORT POST OFFICE;726 FRONT STREET;COMFORT;TX;78013;8309953603
COMMERCE PUBLIC LIBRARY;1210 PARK ST;COMMERCE;TX;75428;9038866858
CONROE POST OFFICE;809 WEST DALLAS STREET;CONROE;TX;77301;9364416055
MONTGOMERY COUNTY DISTRICT CLERK;301 NORTH THOMPSON;CONROE;TX;77301;9365388067
CONVERSE POST OFFICE;9155 SCHAEFER ROAD;CONVERSE;TX;78109;2106585129
COPPELL POST OFFICE;450  S DENTON TAP RD.;COPPELL;TX;75019;8446618730
HECTOR P GARCIA MAIN POST OFFICE;809 NUECES BAY BOULEVARD;CORPUS CHRISTI;TX;78469;3618862238
NAVARRO COUNTY DISTRICT CLERK;300 WEST THIRD AVENUE;CORSICANA;TX;75110;9036543040
HOUSTON COUNTY DISTRICT CLERK;401 EAST HOUSTON AVENUE;CROCKETT;TX;75835;9365443255
CROSBY POST OFFICE;133 HARE ROAD;CROSBY;TX;77532;2814628429
CYPRESS POST OFFICE;16635 SPRING CYPRESS ROAD;CYPRESS;TX;77429;2813739716
DALHART MAIN POST OFFICE;702 W. 7TH AVE;DALHART;TX;79022;8062494731
DALLAS COUNTY DISTRICT CLERK;600 COMMERCE;DALLAS;TX;75202;2146537691
DALLAS COUNTY DISTRICT CLERK-EAST;3443 ST FRANCIS STREET;DALLAS;TX;75228;2143213182
DALLAS COUNTY DISTRICT CLERK-NORTH;6820 LYNDON B JOHNSON FWY;DALLAS;TX;75229;2149043030
DALLAS MAIN POST OFFICE FINANCE UNIT;401 W. DFW TURNPIKE;DALLAS;TX;75260;18446618730
RICHLAND POSTAL STATION;9130 MARKVILLE DRIVE;DALLAS;TX;75243;8446618730
DAYTON POST OFFICE;110 SOUTH MAIN STREET;DAYTON;TX;77535;9362585301
DEL RIO MAIN POST OFFICE;2001 NORTH BEDELL AVE;DEL RIO;TX;78840;8307753571
DENTON COUNTY CLERK;1450 E. MCKINNEY ST.;DENTON;TX;76201;9403492010
DENTON MAIN POST OFFICE;101 E. MCKINNEY ST;DENTON;TX;76201;9403878555
UNIVERSITY OF NORTH TEXAS;1511 W MULBERRY ST.;DENTON;TX;76201;9405652207
DESOTO POST OFFICE;229 S. HAMPTON ROAD;DESOTO;TX;75115;8446618730
DICKINSON POST OFFICE;2515 TERMINI STREET;DICKINSON;TX;77539;2815343974
DONNA POST OFFICE;509 N SALINAS BOULEVARD;DONNA;TX;78537;9564643443
MOORE COUNTY DISTRICT CLERK;715 S  DUMAS AVE;DUMAS;TX;79029;8069354218
EAGLE PASS POST OFFICE;410 S. BIBB AVE.;EAGLE PASS;TX;78852;8307733210
MAVERICK COUNTY DISTRICT CLERK;500 QUARRY STREET;EAGLE PASS;TX;78852;8307732629
EASTLAND COUNTY DISTRICT CLERK;100  WEST MAIN STREET;EASTLAND;TX;76448;2546292664
CITY OF EDINBURG SECRETARY;415 W UNIVERSITY DRIVE;EDINBURG;TX;78541;9563888205
EDINBURG TX POST OFFICE;410 SOUTH JACKSON ROAD;EDINBURG;TX;78539;9563833866
HIDALGO COUNTY DISTRICT CLERK;100 NORTH CLOSNER;EDINBURG;TX;78539;9563182200
JACKSON COUNTY DISTRICT CLERK;115 WEST MAIN STREET;EDNA;TX;77957;3617823812
EL CAMPO POST OFFICE;110 SOUTH MECHANIC STREET;EL CAMPO;TX;77437;9795432581
DORRIS VAN DOREN REGIONAL PUBLIC LIBRARY;551 EAST REDD ROAD;EL PASO;TX;79912;9152120440
EL PASO COUNTY DISTRICT CLERK;500 E. SAN ANTONIO RM103;EL PASO;TX;79901;9155462202
EL PASO MAIN POST OFFICE;8401 BOEING DR.;EL PASO;TX;79910;9157807571
ESPERANZA ACOSTA MORENO PUBLIC LIBRARY;12480 PEBBLE HILLS BLVD;EL PASO;TX;79938;9152120442
NORTHGATE STATION;5249 SANDERS AVE;EL PASO;TX;79924;9157553123
RICHARD BURGES REGIONAL LIBRARY BRANCH;9600 DYER ST, SUITE C;EL PASO;TX;79924;9152123135
SANDY CREEK STATION;2100 GEORGE DIETER;EL PASO;TX;79936;9158561516
UNIVERSITY OF TEXAS AT EL PASO INTL PROGRAMS;500 W. UNIVERSITY AVE.;EL PASO;TX;79968;9157475664
WASHINGTON PARK POST OFFICE;4400 E. PAISANO ST.;EL PASO;TX;79905;9155323147
ELGIN POST OFFICE;21 NORTH AVENUE C;ELGIN;TX;78621;5122853189
ELMENDORF POST OFFICE;8302 FM 327;ELMENDORF;TX;78112;2106359258
ELSA POST OFFICE;706 EAST EDINBURG AVENUE;ELSA;TX;78543;9562621611
RAINS COUNTY DISTRICT CLERK;220 W QUITMAN ST.;EMORY;TX;75440;9034735000
ENNIS POST OFFICE;205 NORTH MCKINNEY STREET;ENNIS;TX;75119;9728756701
EULESS POST OFFICE;210 N. ECTOR DR;EULESS;TX;76039;8176840063
FALFURRIAS POST OFFICE;218 E CHAPOTE STREET;FALFURRIAS;TX;78355;3613252868
PARMER COUNTY DISTRICT CLERK;401 THIRD STREET;FARWELL;TX;79325;8064813419
DENTON COUNTY CLERK-FLOWER MOUND;6200 CANYON FALLS DR.;FLOWER MOUND;TX;76226;9724343950
FLOWER MOUND POST OFFICE;2300 OLYMPIA DRIVE;FLOWER MOUND;TX;75028;9723555965
FLOYD COUNTY DISTRICT CLERK;105 S. MAIN,;FLOYDADA;TX;79235;8069834923
FORT HANCOCK POST OFFICE;107 W. TX HIGHWAY 20;FORT HANCOCK;TX;79839;9157693772
PECOS COUNTY DISTRICT CLERK;400 S NELSON;FORT STOCKTON;TX;79735;4323363503
DOWNTOWN STATION;251 W. LANCASTER;FORT WORTH;TX;76102;8178708112
FORT WORTH PUBLIC LIBRARY;500 W. 3RD STREET;FORT WORTH;TX;76102;8173927890
JACK D WATSON PO;4600 MARK IV PARKWAY;FORT WORTH;TX;76161;8173173808
TARRANT COUNTY CLERK SOUTHWEST SUB-COURTHOUSE;6551 GRANBURY RD.;FORT WORTH;TX;76133;8172486210
ROBERTSON COUNTY DISTRICT CLERK;103 EAST MORGAN;FRANKLIN;TX;77856;9798283636
FREDERICKSBURG POST OFFICE;1150 NORTH US HWY 87;FREDERICKSBURG;TX;78624;8309973355
GILLESPIE COUNTY DISTRICT CLERK;101 WEST MAIN STREET;FREDERICKSBURG;TX;78624;8309976517
FREEPORT POST OFFICE;924 NORTH AVENUE F;FREEPORT;TX;77541;9792331884
FRIENDSWOOD POST OFFICE;310 MORNINGSIDE DRIVE;FRIENDSWOOD;TX;77546;2819922832
DENTON COUNTY CLERK-FRISCO;5533 FM 423;FRISCO;TX;75036;9724343900
FRISCO POST OFFICE;8700 STONEBROOK PARKWAY;FRISCO;TX;75034;8446618730
FRISCO PUBLIC LIBRARY;6101 FRISCO SQUARE BLVD.;FRISCO;TX;75034;9722925669
COOKE COUNTY DISTRICT CLERK;101 S. DIXON STREET;GAINESVILLE;TX;76240;9406685450
GAINESVILLE POST OFFICE;321 E. CALIFORNIA STREET;GAINESVILLE;TX;76240;9406655811
GALVESTON COUNTY DISTRICT CLERK;600 59TH STREET;GALVESTON;TX;77551;4097662424
GARLAND MAIN POST OFFICE;1000 W. WALNUT STREET;GARLAND;TX;75040;9722766541
CORYELL COUNTY DISTRICT CLERK;620 EAST MAIN STREET;GATESVILLE;TX;76528;2548655911
GEORGETOWN POST OFFICE;2300 SCENIC DRIVE;GEORGETOWN;TX;78626;5128630072
GIDDINGS POST OFFICE;279 E AUSTIN ST;GIDDINGS;TX;78942;9795422456
LEE COUNTY DISTRICT CLERK;289 S. MAIN ST.;GIDDINGS;TX;78942;9795422947
GOLDEN POST OFFICE;5785 FM 779;GOLDEN;TX;75444;9037682678
GONZALES POST OFFICE;920 N SAINT JOSEPH STREET;GONZALES;TX;78629;8306722629
GRAHAM MAIN POST OFFICE;100 TENNESSEE ST;GRAHAM;TX;76450;9405491333
ACTON POST OFFICE;5561 NORTH GATE ROAD;GRANBURY;TX;76049;8173264088
GRAND PRAIRIE POST OFFICE;802 SOUTH CARRIER PARKWAY;GRAND PRAIRIE;TX;75051;9722372645
GRAPEVINE MAIN POST OFFICE;1251 WILLIAM D TATE AVE;GRAPEVINE;TX;76051;8174883343
GREENVILLE MPO;2600 WESLEY ST.;GREENVILLE;TX;75401;9034558576
GROESBECK POST OFFICE;112 S. DR JB RIGGS DR;GROESBECK;TX;76642;2547293304
GROVES POST OFFICE;5230 39TH STREET;GROVES;TX;77619;4099627485
HAMILTON COUNTY DISTRICT CLERK;102 NORTH RICE;HAMILTON;TX;76531;2543861240
HARLINGEN POST OFFICE;1502 NEW COMBES HWY;HARLINGEN;TX;78550;9564231464
HEBBRONVILLE POST OFFICE;502 NORTH SMITH AVENUE;HEBBRONVILLE;TX;78361;3615273465
CLAY COUNTY DISTRICT CLERK;100 NORTH BRIDGE STREET;HENRIETTA;TX;76365;9405384561
HEREFORD POST OFFICE;408 MAIN STREET;HEREFORD;TX;79045;8063642054
HEWITT POST OFFICE;901 SOUTH HEWITT DRIVE;HEWITT;TX;76643;2546667787
HIDALGO POST OFFICE;920 EAST COMA AVENUE;HIDALGO;TX;78557;9568438685
HILLSBORO POST OFFICE;100 WEST FRANKLIN STREET;HILLSBORO;TX;76645;2545823572
HOCKLEY POST OFFICE;17210 WARREN RANCH ROAD;HOCKLEY;TX;77447;9363723261
ALBERT THOMAS POST OFFICE;14917 EL CAMINO REAL;HOUSTON;TX;77062;2814889173
ALIEF POST OFFICE;11936 BELLAIRE ST;HOUSTON;TX;77072;2814987356
ANSON JONES POST OFFICE;634 WEST CAVALCADE STREET;HOUSTON;TX;77009;7138613577
ASTRODOME POST OFFICE;8205 BRAESMAIN DRIVE;HOUSTON;TX;77025;7136654223
BARBARA JORDAN BRANCH;1500 HADLEY STREET;HOUSTON;TX;77002;7137390616
BEAR CREEK POST OFFICE;16015 CAIRNWAY DRIVE;HOUSTON;TX;77084;2815504413
BEECHNUT STATION POST OFFICE;11703 BEECHNUT STREET;HOUSTON;TX;77072;2816774312
COLLIER REGIONAL LIBRARY;6200 PINEMONT DRIVE;HOUSTON;TX;77092;8323931743
CORNERSTONE BRANCH;14403 WALTERS ROAD;HOUSTON;TX;77014;2812017731
DEBRA SUE SCHATZ POST OFFICE;2909 ROGERDALE ROAD;HOUSTON;TX;77042;7137856478
DEMOSS STATION;6500 DEMOSS DRIVE;HOUSTON;TX;77074;7139951441
EASTWOOD POST OFFICE;5415 LAWNDALE STREET;HOUSTON;TX;77023;7139214772
FLEETWOOD STATION;315 ADDICKS HOWELL ROAD;HOUSTON;TX;77079;2817596458
GRANVILLE ELDER STATION;550 MAXEY ROAD;HOUSTON;TX;77013;7134538136
GREENS NORTH POST OFFICE;1530 GREENSMARK DRIVE;HOUSTON;TX;77067;2818756824
HARRIS COUNTY DISTRICT CLERK;201 CAROLINE STREET;HOUSTON;TX;77002;8329275690
HENINGTON ALIEF REGIONAL LIBRARY;7979 SOUTH KIRKWOOD ROAD;HOUSTON;TX;77072;8323931820
HOUSTON PUBLIC LIBRARY - CENTRAL;500 MCKINNEY STREET;HOUSTON;TX;77002;8323931313
JAMES GRIFFITH STATION;9320 EMNORA LANE;HOUSTON;TX;77080;7139730664
JULIUS MELCHER STATION;2802 TIMMONS LANE;HOUSTON;TX;77027;7135723936
LONG POINT STATION;8000 LONG POINT ROAD;HOUSTON;TX;77055;7134688067
MCGOVERN - STELLA LINK LIBRARY;7405 STELLA LINK;HOUSTON;TX;77025;8323932630
MEMORIAL PARK POST OFFICE;10505 TOWN AND COUNTRY WAY;HOUSTON;TX;77024;7134567109
OAK FOREST POST OFFICE;2499 JUDIWAY STREET;HOUSTON;TX;77018;7136863544
PARK PLACE REGIONAL LIBRARY;8145 PARK PLACE BOULEVARD;HOUSTON;TX;77017;8323931970
RICH HILL STATION;2950 UNITY DRIVE;HOUSTON;TX;77057;7137819145
UNIVERSITY OF HOUSTON;4302 UNIVERSITY DRIVE;HOUSTON;TX;77204;7137434687
UNIVERSITY STATION;1319 RICHMOND AVENUE;HOUSTON;TX;77006;7135227389
WESTBURY PLACE STATION;11805 CHIMNEY ROCK ROAD;HOUSTON;TX;77035;7137295711
WESTFIELD POST OFFICE;17119 RED OAK DRIVE;HOUSTON;TX;77090;2814444509
WINDMILL POST OFFICE;9898 ALMEDA GENOA ROAD;HOUSTON;TX;77075;7139471056
HUFFMAN POST OFFICE;24936 FM 2100 ROAD;HUFFMAN;TX;77333;2813246934
HUMBLE POST OFFICE;1202 FIRST STREET;HUMBLE;TX;77338;2815401775
TEXAS MILITARY VETERANS POST OFFICE;7231 FM 1960 WEST;HUMBLE;TX;77338;2815195519
HUNTSVILLE DOWNTOWN FINANCE UNIT;1315 10TH STREET;HUNTSVILLE;TX;77320;9362953037
HUNTSVILLE POST OFFICE;3190 HWY 30 W;HUNTSVILLE;TX;77340;9362953313
HURST POST OFFICE;825 PRECINCT LINE RD;HURST;TX;76053;8175899797
TARRANT COUNTY NORTHEAST SUB-COURTHOUSE;700 E. 645 GRAPEVINE HWY;HURST;TX;76054;8172486080
HUTCHINS PO;720 LANCASTER HUTCHINS RD;HUTCHINS;TX;75141;9722251204
INGLESIDE POST OFFICE;2230 STATE HWY 361;INGLESIDE;TX;78362;3617760835
IRVING CENTRAL POST OFFICE;2300 STORY RD W;IRVING;TX;75038;9722551637
IRVING MAIN POST OFFICE;2701 W. IRVING BLVD;IRVING;TX;75061;9729866997
VALLEY RANCH STATION;8501 N. MACARTHUR BLVD;IRVING;TX;75063;8446618730
JASPER COUNTY DISTRICT CLERK;121 NORTH AUSTIN;JASPER;TX;75951;4093842721
JOHNSON CITY POST OFFICE;201 SOUTH AVENUE G;JOHNSON CITY;TX;78636;8308687211
ATASCOSA COUNTY DISTRICT CLERK;#1 COURTHOUSE CIRCLE DRIVE STE 4-B;JOURDANTON;TX;78026;8307693011
KATY POST OFFICE;20180 PARK ROW DRIVE;KATY;TX;77449;2818295062
KAUFMAN COUNTY DISTRICT CLERK;100 WEST MULBERRY STREET;KAUFMAN;TX;75142;9729320279
KEMAH POST OFFICE;1129 HIGHWAY 146;KEMAH;TX;77565;2813343883
KERR COUNTY DISTRICT CLERK;700 MAIN STREET;KERRVILLE;TX;78028;8307922281
KERRVILLE POST OFFICE;244 CULLY DRIVE;KERRVILLE;TX;78028;8302575040
KILGORE MAIN POST OFFICE;500 NORTH KILGORE STREET;KILGORE;TX;75662;9039842313
KILLEEN POST OFFICE;300 NORTH 10TH STREET;KILLEEN;TX;76541;2546340281
KINGSVILLE POST OFFICE;103 EAST KLEBERG AVENUE;KINGSVILLE;TX;78363;3615922801
TEXAS A AND M UNIVERSITY - KINGSVILLE;925 W. SANTA GERTRUDIS AVE.;KINGSVILLE;TX;78363;3615933558
KINGWOOD POST OFFICE;4025 FEATHERS LAKE WAY;KINGWOOD;TX;77066;2819131881
KIRBYVILLE PUBLIC LIBRARY;210 SOUTH ELIZABETH AVENUE;KIRBYVILLE;TX;75956;4094234653
LA FERIA POST OFFICE;201 WEST FIRST STREET;LA FERIA;TX;78559;9567971812
FAYETTE COUNTY DISTRICT CLERK;151 NORTH WASHINGTON STREET;LA GRANGE;TX;78945;9799683548
LA VERNIA MAIN POST OFFICE;2560 FM 775;LA VERNIA;TX;78121;8307794131
LAKE JACKSON POST OFFICE;210 OAK DRIVE S;LAKE JACKSON;TX;77566;9792972172
TARRANT COUNTY NORTHWEST SUB-COURTHOUSE;6713 TELEPHONE ROAD;LAKE WORTH;TX;76135;8172384457
DAWSON COUNTY DISTRICT CLERK;400 SOUTH 1ST STREET;LAMESA;TX;79331;8068727373
LAMPASAS COUNTY DISTRICT CLERK;409 SOUTH PECAN STREET;LAMPASAS;TX;76550;5125568271
LAMPASAS POST OFFICE;1700 E. 4TH STREET;LAMPASAS;TX;76550;5125565131
LAREDO MAIN POST OFFICE;2700 EAST SAUNDERS STREET;LAREDO;TX;78041;9567232043
LAREDO PUBLIC LIBRARY;1120 EAST CALTON ROAD;LAREDO;TX;78041;9567952400
TEXAS A AND M INTERNATIONAL UNIVERSITY;5201 UNIVERSITY BLVD.;LAREDO;TX;78041;9563262282
WEBB COUNTY DISTRICT CLERK;1110 VICTORIA STREET;LAREDO;TX;78040;9565234268
WEBB COUNTY TAX OFFICE;1110 VICTORIA STREET;LAREDO;TX;78042;9565234200
GALVESTON COUNTY DISTRICT CLERK OF COURT;174 CALDER ROAD;LEAGUE CITY;TX;77573;2813168726
LEAGUE CITY POST OFFICE;240 W. GALVESTON STREET;LEAGUE CITY;TX;77573;2815549219
HOCKLEY COUNTY DISTRICT CLERK;802 HOUSTON STREET;LEVELLAND;TX;79336;8068948527
DENTON COUNTY CLERK IN LEWISVILLE, TX;400 NORTH VALLEY PARKWAY, SUITE 2094;LEWISVILLE;TX;75067;9724344790
LIBERTY POST OFFICE;1515 SAM HOUSTON STREET;LIBERTY;TX;77575;9363366182
LITTLE ELM MAIN POST OFFICE;1012 W. ELDORADO PKWY;LITTLE ELM;TX;75068;9722921864
LAMB COUNTY DISTRICT CLERK;100 6TH DRIVE, ROOM 212;LITTLEFIELD;TX;79339;8063854222
LIVINGSTON POST OFFICE;1325 W. CHURCH STREET;LIVINGSTON;TX;77351;9363278713
POLK COUNTY DISTRICT CLERK;101 WEST MILL STREET;LIVINGSTON;TX;77351;9363276814
LLANO COUNTY DISTRICT CLERK;832 FORD STREET;LLANO;TX;78643;3252475036
GREGG COUNTY DISTRICT CLERK;101 EAST METHVIN;LONGVIEW;TX;75601;9032343192
LONGVIEW POST OFFICE;2336 S MOBBERLY AVENUE;LONGVIEW;TX;75602;9037537644
LOS EBANOS POST OFFICE;185 ROSENDO BENAVIDEZ STREET;LOS EBANOS;TX;78565;9564852262
LOS FRESNOS MAIN POST OFFICE;301 W OCEAN BOULEVARD;LOS FRESNOS;TX;78566;9562335522
LOS INDIOS POST OFFICE;810 EAST US HIGHWAY 281;LOS INDIOS;TX;78567;9563990470
LUBBOCK COUNTY DISTRICT CLERK;904 BROADWAY;LUBBOCK;TX;79401;8067751317
LUBBOCK DOWNTOWN STATION;411 AVENUE L;LUBBOCK;TX;79408;8067443802
LUBBOCK MONTEREY STATION;5014 GARY AVENUE;LUBBOCK;TX;79413;8067950836
TEXAS TECH UNIVERSITY;601 INDIANA AVE;LUBBOCK;TX;79409;8067423667
ANGELINA COUNTY DISTRICT CLERK;215 EAST LUFKIN AVENUE;LUFKIN;TX;75902;9366344312
LUFKIN MAIN POST OFFICE;800 SOUTH JOHN REDDITT DRIVE;LUFKIN;TX;75901;9366347749
LUMBERTON PUBLIC LIBRARY;130 EAST CHANCE ROAD;LUMBERTON;TX;77657;4097557400
LYTLE POST OFFICE;14841 MAIN STREET;LYTLE;TX;78052;8307723730
MADISON COUNTY DISTRICT CLERKS OFFICE;101 WEST MAIN;MADISONVILLE;TX;77864;9362416212
MAGNOLIA POST OFFICE;815 GOODSON ROAD;MAGNOLIA;TX;77355;2813568427
MANSFIELD POST OFFICE;752 N. MAIN ST.;MANSFIELD;TX;76063;8174732089
MANVEL POST OFFICE;6925 MASTERS ROAD;MANVEL;TX;77578;2814892861
MARBLE FALLS POST OFFICE;1212 US HIGHWAY 281;MARBLE FALLS;TX;78654;8306933531
MARFA POST OFFICE;100 N HIGHLAND AVE;MARFA;TX;79843;4327294001
HARRISON COUNTY DISTRICT CLERK;200 WEST HOUSTON STREET;MARSHALL;TX;75670;9039358409
MARSHALL MAIN POST OFFICE;202 EAST TRAVIS STREET;MARSHALL;TX;75670;9039384086
MATHIS POST OFFICE;121 SOUTH BEE STREET;MATHIS;TX;78368;3615473061
CITY OF MCALLEN-DOWNTOWN PARKING GARAGE;221 SOUTH 15TH STREET;MCALLEN;TX;78505;9566811450
MCALLEN DOWNTOWN STATION;406 S 12TH STREET;MCALLEN;TX;78501;9569949800
MCALLEN POST OFFICE;620 EAST PECAN BOULEVARD;MCALLEN;TX;78501;9569711701
MCKINNEY MAIN POST OFFICE;550 N. CENTRAL EXPRESSWAY;MCKINNEY;TX;75070;9725422931
MERIDIAN POST OFFICE;512 E LIVE OAK;MERIDIAN;TX;76665;2544352261
MESQUITE POST OFFICE;120 E. GRUBB DRIVE;MESQUITE;TX;75149;9722884477
CITY OF MIDLAND - CITY SECRETARYS OFFICE;300 NORTH LORAINE,;MIDLAND;TX;79701;4326857430
MIDLAND COUNTY PUBLIC LIBRARY;301 W. MISSOURI;MIDLAND;TX;79701;4326884342
MIDLAND GMF;10000 LOOP 40;MIDLAND;TX;79711;4325605066
MISSION POST OFFICE;901 NORTH FRANCISCO AVENUE;MISSION;TX;78572;9565851481
MISSOURI CITY POST OFFICE;1902 TEXAS PARKWAY;MISSOURI CITY;TX;77489;2814994412
WARD COUNTY DISTRICT COURT;400 SOUTH ALLEN, SUITE 202;MONAHANS;TX;79756;4329432751
MONTGOMERY MPO;20821 EVA SUITE H;MONTGOMERY;TX;77356;9365978099
MOODY POST OFFICE;501 AVENUE EAST;MOODY;TX;76557;2548532142
TITUS COUNTY DISTRICT CLERK;105 WEST 1ST STREET;MOUNT PLEASANT;TX;75455;9035776724
FRANKLIN COUNTY DISTRICT CLERK;200 N. KAUFMAN ST.;MT. VERNON;TX;75457;9035378337
BAILEY COUNTY DISTRICT CLERK;300 SOUTH FIRST STREET;MULESHOE;TX;79347;8062723165
NACOGDOCHES COUNTY DISTRICT CLERK;101 WEST MAIN;NACOGDOCHES;TX;75961;9365607730
NEDERLAND POST OFFICE;223 NORTH 14TH STREET;NEDERLAND;TX;77627;4097298837
NEVADA POST OFFICE;102 S FM 1138;NEVADA;TX;75173;9728533621
COMAL COUNTY DISTRICT CLERK;150 NORTH SEGUIN AVENUE;NEW BRAUNFELS;TX;78130;8302211250
NEW BRAUNFELS POST OFFICE;686 SOUTH SEGUIN AVENUE;NEW BRAUNFELS;TX;78130;8306257736
NEW CANEY POST OFFICE;20811 US HWY 59;NEW CANEY;TX;77357;2813991190
NEW WAVERLY MPO;9301 STATE HIGHWAY 75 SOUTH;NEW WAVERLY;TX;77358;9363446259
ECTOR COUNTY DISTRICT CLERK;300 NORTH GRANT AVENUE;ODESSA;TX;79761;4324984290
OLMITO POST OFFICE;7955 NORTH EXPRESSWAY 77;OLMITO;TX;78575;9563504712
ONALASKA POST OFFICE;203 N FM 356;ONALASKA;TX;77360;9366463313
PALESTINE POST OFFICE;1213 NORTH LINK STREET;PALESTINE;TX;75803;9037231084
PAMPA POST OFFICE;120 E. FOSTER AVE;PAMPA;TX;79065;8066654260
PANHANDLE POST OFFICE;402 MAIN;PANHANDLE;TX;79068;8065373721
PARIS MAIN POST OFFICE;500 CLARKSVILLE STREET;PARIS;TX;75460;9037843381
JIM FONTENO POST OFFICE;1199 PASADENA BOULEVARD;PASADENA;TX;77501;7134750209
PEARSALL POST OFFICE;411 EAST COLORADO STREET;PEARSALL;TX;78061;8303343303
PENITAS POST OFFICE;500 TOM GILL ROAD;PENITAS;TX;78576;9565854655
OCHILTREE COUNTY DISTRICT CLERK;511 S MAIN;PERRYTON;TX;79070;8064358054
PERRYTON POST OFFICE;2722 S. MAIN ST;PERRYTON;TX;79070;8064352542
PFLUGERVILLE POST OFFICE;301 SOUTH HEATHERWILDE BOULEVARD;PFLUGERVILLE;TX;78660;5122511184
PINEHURST POST OFFICE;34635 WRIGHT ROAD;PINEHURST;TX;77362;2812590234
YOAKUM COUNTY DISTRICT CLERK;600 COWBOY WAY;PLAINS;TX;79355;8064567491
HALE COUNTY DISTRICT CLERK;225 BROADWAY STREET;PLAINVIEW;TX;79072;8062915226
PLANO COIT;3400 COIT ROAD;PLANO;TX;75075;9725965951
PLANO MAIN POST OFFICE;1200 JUPITER RD.;PLANO;TX;75074;9726335754
PLANO NORTHWEST;3905 HEDGCOXE ROAD;PLANO;TX;75025;9723773166
PORT ARTHUR POST OFFICE;345 LAKESHORE DRIVE;PORT ARTHUR;TX;77640;4099837611
PORT NECHES POST OFFICE;1324 PORT NECHES AVENUE;PORT NECHES;TX;77651;4097298894
PORTLAND MAIN POST OFFICE;120 LANG ROAD;PORTLAND;TX;78374;3617770845
POTH POST OFFICE;1100 STORTS STREET;POTH;TX;78147;8304842279
PRAIRIE VIEW POST OFFICE;21212NFM 1098;PRAIRIE VIEW;TX;77446;9368573570
PRESIDIO POST OFFICE;202 E OREILLY ST;PRESIDIO;TX;79845;4322293375
REFUGIO MPO;507 OSAGE STREET;REFUGIO;TX;78377;3615264024
RICHARDSON MAIN POST OFFICE;433 BELLE GROVE DR;RICHARDSON;TX;75080;9722354843
FORT BEND COUNTY DISTRICT CLERK;1422 EUGENE HEIMANN CIRCLE;RICHMOND;TX;77469;2813414509
RICHMOND POST OFFICE;5560 FM 1640 ROAD;RICHMOND;TX;77469;2816330386
RIO GRANDE CITY POST OFFICE;500 W. EISENHOWER STREET;RIO GRANDE CITY;TX;78582;9564873315
ROARING SPRINGS POST OFFICE;403 2ND STREET;ROARING SPRINGS;TX;79256;8063487951
ROBSTOWN MAIN POST OFFICE;313 E MAIN AVE;ROBSTOWN;TX;78380;3613874786
ARANSAS COUNTY DISTRICT CLERK;2840 HWY 35 NORTH;ROCKPORT;TX;78382;3617900128
ROCKWALL COUNTY DISTRICT CLERK;1111 E YELLOWJACKET LANE,;ROCKWALL;TX;75087;9722046500
ROCKWALL POST OFFICE;609 S. GOLIAD STREET;ROCKWALL;TX;75087;8446618730
ROMA POST OFFICE;1724 EAST GRANT STREET;ROMA;TX;78584;9568491516
ROSENBERG POST OFFICE;2103 AVENUE G;ROSENBERG;TX;77471;2815867004
ROUND ROCK FRONTIER STATION;2250 DOUBLE CREEK DRIVE;ROUND ROCK;TX;78664;5122440065
ROWLETT POST OFFICE;3416 ENTERPRISE DRIVE;ROWLETT;TX;75088;2142919721
ANGELO STATE UNIVERSITY;2419 WEST AVENUE N;SAN ANGELO;TX;76909;3259422083
SAN ANGELO MAIN POST OFFICE;1 NORTH ABE ST;SAN ANGELO;TX;76902;3256597799
SOUTHWEST STATION;3201 WEST LOOP 306;SAN ANGELO;TX;76904;3259478817
ALAMO HEIGHTS STATION;4801 BROADWAY STREET;SAN ANTONIO;TX;78209;2108264731
ARSENAL STATION;1140 SOUTH LAREDO STREET;SAN ANTONIO;TX;78204;2102276900
BEXAR COUNTY DISTRICT CLERK;101 WEST NUEVA STREET;SAN ANTONIO;TX;78205;2103352179
CEDAR ELM STATION;5837 DE ZAVALA ROAD;SAN ANTONIO;TX;78249;2106410735
DOWNTOWN SAN ANTONIO STATION;615 EAST HOUSTON STREET;SAN ANTONIO;TX;78205;2102128046
ENCINO PARK STATION;20403 ENCINO LEDGE;SAN ANTONIO;TX;78259;2104976391
FRANK TEJEDA STATION;7411 BARLITE BOULEVARD;SAN ANTONIO;TX;78224;2109230941
HERITAGE POST OFFICE;702 RICHLAND HILLS;SAN ANTONIO;TX;78245;2105438237
J FRANK DOBIE STATION;4950 EAST HOUSTON STREET;SAN ANTONIO;TX;78220;2106627302
LEON VALLEY BRANCH POST OFFICE;6825 HUEBNER ROAD;SAN ANTONIO;TX;78238;2105205962
LOCKHILL STATION;12951 HUEBNER ROAD;SAN ANTONIO;TX;78230;2104939533
OFFICE OF THE CLERK - MUNICIPAL ARCHIVES AND RECORDS;719 SOUTH SANTA ROSA;SAN ANTONIO;TX;78204;2102077253
SAN ANTONIO GENERAL MAIL FACILITY;10410 PERRIN-BIETEL ROAD;SAN ANTONIO;TX;78284;2103681720
SOUTH TEXAS MEDICAL CENTER STATION;4835 MEDICAL DRIVE;SAN ANTONIO;TX;78229;2109491327
THOUSAND OAKS STATION;15610 HENDERSON PASS;SAN ANTONIO;TX;78232;2104952984
VALLEY HI POST OFFICE;5510 SOUTWEST LOOP 410;SAN ANTONIO;TX;78227;2106745977
CITY OF SAN MARCOS;630 EAST HOPKINS;SAN MARCOS;TX;78666;5123938086
SAN MARCOS POST OFFICE;210 S STAGECOACH TRAIL;SAN MARCOS;TX;78666;5123924832
SEALY POST OFFICE;222 MOODY STREET;SEALY;TX;77474;9798853439
SEBASTIAN POST OFFICE;3476 BUSINESS 77;SEBASTIAN;TX;78594;9563475007
GUADALUPE COUNTY DISTRICT CLERK;211 WEST COURT STREET STE 209;SEGUIN;TX;78155;8303038875
SEMINOLE POST OFFICE;201 SE 3RD STREET;SEMINOLE;TX;79360;4327582141
SEYMOUR POST OFFICE;210 N WASHINGTON ST.;SEYMOUR;TX;76380;9408893550
GRAYSON COUNTY DISTRICT CLERK;200 S CROCKETT STREET;SHERMAN;TX;75090;9038134358
SHERMAN POST OFFICE;701 E. PEYTON;SHERMAN;TX;75090;9038929234
SILSBEE POST OFFICE;111 WEST AVENUE P;SILSBEE;TX;77656;4093853776
SCURRY COUNTY DISTRICT CLERK OFFICE;1806 25TH STREET,;SNYDER;TX;79549;3255735641
SONORA POST OFFICE;102 WEST MAIN STREET;SONORA;TX;76950;3253873161
SOUTH HOUSTON POST OFFICE;315 NORTH ALLEN GENOA ROAD;SOUTH HOUSTON;TX;77587;7139461767
SOUTHLAKE POST OFFICE;300 STATE STREET;SOUTHLAKE;TX;76092;8174166129
TARRANT COUNTY CLERK SOUTHLAKE SUB-COURTHOUSE;1400 MAIN STREET;SOUTHLAKE;TX;76092;8174818190
SPEARMAN POST OFFICE;101 N. BERNICE ST.;SPEARMAN;TX;79081;8066593313
KLEIN POST OFFICE;7717 LOUETTA ROAD;SPRING;TX;77379;2812573806
THE WOODLANDS METRO STATION;9450 PINECROFT DR.;SPRING;TX;77380;2814197948
SPRING BRANCH POST OFFICE;132 BLAZING MEADOW;SPRING BRANCH;TX;78070;8308854508
STAFFORD MAIN POST OFFICE;4110 BLUEBONNET DRIVE;STAFFORD;TX;77477;2414942248
ERATH COUNTY DISTRICT CLERK;112 WEST COLLEGE;STEPHENVILLE;TX;76401;2549651486
STEPHENVILLE POST OFFICE;431 NORTH GRAHAM STREET;STEPHENVILLE;TX;76401;2549655870
HUTCHINSON COUNTY DISTRICT CLERK;500 MAIN ST;STINNETT;TX;79083;8068784017
FIRST COLONY POST OFFICE;3130 GRANTS LAKE BOULEVARD;SUGAR LAND;TX;77479;2814944150
SUGAR LAND MAIN POST OFFICE;225 MATLAGE WAY;SUGAR LAND;TX;77478;2814940013
HOPKINS COUNTY DISTRICT CLERK;282 ROSEMONT ST.;SULPHUR SPRINGS;TX;75482;9034384081
NOLAN COUNTY DISTRICT CLERK;100 E 3RD STREET;SWEETWATER;TX;79556;3252352111
TAFT POST OFFICE;110 VICTORIA AVENUE;TAFT;TX;78390;3615282844
LYNN COUNTY DISTRICT CLERK;1501 S. FIRST STREET;TAHOKA;TX;79373;8065614274
TAYLOR POST OFFICE;202 W 4TH STREET;TAYLOR;TX;76574;5123523162
TEMPLE MAIN POST OFFICE;401 NORTH MAIN STREET;TEMPLE;TX;76501;2547735879
TERRELL POST OFFICE;1250 STATE HIGHWAY 34 SOUTH;TERRELL;TX;75160;9725632708
TEXARKANA MAIN POST OFFICE;2211 NORTH ROBISON RD;TEXARKANA;TX;75501;8446678730
TEXAS CITY POST OFFICE;2002 11TH AVE N;TEXAS CITY;TX;77590;4099481578
PANTHER CREEK POST OFFICE;10800 GOSLING ROAD;THE WOODLANDS;TX;77381;2814198231
TOMBALL POST OFFICE;122 N. HOLDERRIETH BOULEVARD;TOMBALL;TX;77375;2813512845
THE UNIVERSITY OF TEXAS AT TYLER;3620 VARSITY DRIVE;TYLER;TX;75701;9035655701
TYLER POST OFFICE;2100 WEST MARTIN LUTHER KING BOULEVARD;TYLER;TX;75702;9035798674
UVALDE COUNTY DISTRICT CLERK;100 MAIN;UVALDE;TX;78801;8302783918
VALENTINE POST OFFICE;311 W CALIFORNIA AVE.;VALENTINE;TX;79854;4324672912
VICTORIA MAIN POST OFFICE;2804 SAM HOUSTON DR.;VICTORIA;TX;77904;3615755611
VIDOR POST OFFICE;285 SOUTH ARCHIE STREET;VIDOR;TX;77662;4097832074
VON ORMY POST OFFICE;13636 IH 35 SOUTH;VON ORMY;TX;78073;2106228990
WACO DOWNTOWN STATION;424 CLAY AVENUE;WACO;TX;76706;2547544189
WOODWAY STATION;430 W STATE HWY 6;WACO;TX;76702;2543992201
WASKOM POST OFFICE;265 SPUR 156;WASKOM;TX;75692;9036872202
ELLIS COUNTY DISTRICT CLERK;109 S JACKSON;WAXAHACHIE;TX;75165;9728255094
WEATHERFORD POST OFFICE;1145 SANTA FE DRIVE;WEATHERFORD;TX;76086;8175943072
WESLACO POST OFFICE;109 NORTH BORDER AVENUE;WESLACO;TX;78596;9569687412
WEST POST OFFICE;301 W COLUMBUS STREET;WEST;TX;76691;2548265731
WEST COLUMBIA POST OFFICE;350 W. BRAZOS AVENUE;WEST COLUMBIA;TX;77486;9793453242
WHEELER COUNTY DISTRICT CLERK;401 S MAIN ST.;WHEELER;TX;79096;8068265931
WHITESBORO PUBLIC LIBRARY;308 WEST MAIN ST.;WHITESBORO;TX;76273;9035645432
WICHITA COUNTY CLERK;900 7TH STREET;WICHITA FALLS;TX;76301;9407668100
WICHITA FALLS MAIN POST OFFICE;1000 LAMAR ST;WICHITA FALLS;TX;76301;9403975065
WILLIS POST OFFICE;609 N. CAMPBELL STREET;WILLIS;TX;77378;9368564981
TYLER COUNTY DISTRICT CLERK;100 WEST BLUFF STREET;WOODVILLE;TX;75979;4092832162
ZAPATA POST OFFICE;810 N US HWY 83;ZAPATA;TX;78076;9567654666
