facilityName;streetAdress;city;state;zipCode;publicPhone
USPO - AKRON;182 ADAMS AVE;AKRON;CO;80720;9703456691
USPO - ALAMOSA;505 THIRD STREET;ALAMOSA;CO;81101;7195894909
CITY OF ARVADA;8101 RALSTON ROAD;ARVADA;CO;80002;7208987552
USPO - ARVADA;5885 ALLISON STREET;ARVADA;CO;80001;3034322092
USPO - ASPEN;235 PUPPY SMITH RD;ASPEN;CO;81611;9709257523
USPO - ATWOOD;16255 FRONT AVENUE;ATWOOD;CO;80722;9705229788
USPO - AULT;122 1ST AVENUE;AULT;CO;80610;9708342840
USPO - ALTURA MEGACENTER;15355 E. COLFAX AVE.;AURORA;CO;80042;3033643018
USPO - BAILEY;24 RIVER DRIVE;BAILEY;CO;80421;3038382084
PINE RIVER LIBRARY;395 BAYFIELD CENTER DR.;BAYFIELD;CO;81122;9708842222
USPO - BAYFIELD;145 W. PARK ST.;BAYFIELD;CO;81122;9708849618
TOWN OF BERTHOUD;807 MOUNTAIN AVENUE;BERTHOUD;CO;80513;9705322643
USPO - BOULDER;1905 15TH ST.;BOULDER;CO;80302;3039383704
USPO - BRECKENRIDGE;305 SOUTH RIDGE ST.;BRECKENRIDGE;CO;80424;9705470347
ADAMS COUNTY CLERK AND RECORDER;4430 S. ADAMS COUNTY PARKWAY;BRIGHTON;CO;80601;7205236020
USPO - BRIGHTON;90 N. FOURTH AVENUE;BRIGHTON;CO;80601;3036370826
CITY AND COUNTY OF BROOMFIELD;ONE DESCOMBES DR.;BROOMFIELD;CO;80020;3034386390
USPO - EAGLE VIEW STATION;8800 WEST 116TH CIRCLE;BROOMFIELD;CO;80021;3034669449
USPO - BUENA VISTA;110 BROOKDALE AVE;BUENA VISTA;CO;81211;7193952445
USPO - BURLINGTON;259 14TH STREET;BURLINGTON;CO;80807;7193468902
USPO - CALHAN;655 CASCADE ST;CALHAN;CO;80808;7193473254
USPO - CANON CITY;1501 MAIN ST.;CANON CITY;CO;81212;7192756877
DOUGLAS COUNTY CLERK AND RECORDER;301 WILCOX STREET;CASTLE ROCK;CO;80104;3036607446
CITY OF CENTENNIAL;13133 E. ARAPAHOE RD.;CENTENNIAL;CO;80112;3033258000
USPO - CENTER;255 S. WORTH STREET;CENTER;CO;81125;7197542215
GILPIN COUNTY;203 EUREKA STREET;CENTRAL CITY;CO;80427;3035825214
USPO - BRIARGATE STATION;8585 CRITERION DRIVE;COLORADO SPRINGS;CO;80920;7195987516
USPO - MAIN OFFICE;201 EAST PIKES PEAK AVE.;COLORADO SPRINGS;CO;80903;7195705208
USPO - SECURITY STATION;5755 KITTERY DRIVE;COLORADO SPRINGS;CO;80911;7193939276
COMMERCE CITY CIVIC CENTER;7887 E. 60TH AVE;COMMERCE CITY;CO;80022;3032893611
USPO - CORTEZ;35 SOUTH BEECH ST;CORTEZ;CO;81321;9705653181
USPO - CRAIG;556 PERSHING ST;CRAIG;CO;81625;9708248506
USPO - CRESTED BUTTE;217 ELK AVE;CRESTED BUTTE;CO;81224;9703495568
USPO - CRESTONE;166 S. ALDER AVE;CRESTONE;CO;81131;7192564760
USPO - DELTA;360 MEEKER ST.;DELTA;CO;81416;9708742652
DENVER COUNTY COURT;520 WEST COLFAX AVE ROOM 160;DENVER;CO;80204;7203370410
USPO - DOWNTOWN STATION;951 20TH STREET;DENVER;CO;80202;3032962071
USPO - UNIVERSITY PARK STATION;3800 BUCHTEL BLVD.;DENVER;CO;80210;3037595794
USPO - DIVIDE;66 HYBROOK ROAD S;DIVIDE;CO;80814;7196872885
USPO - DOLORES;1000 RAILROAD AVE;DOLORES;CO;81323;9708827796
FT. LEWIS COLLEGE INTERNATION PROGRAMS OFFICE;1000 RIM DR.;DURANGO;CO;81301;9702477672
USPO - DURANGO;222 W. 8TH ST.;DURANGO;CO;81301;9702473434
USPO - ERIE;150 WELLS STREET;ERIE;CO;80516;3038280781
USPO - EVANS;3344 11TH AVENUE;EVANS;CO;80620;9703304841
USPO - EVERGREEN;3649 EVERGREEN PARKWAY;EVERGREEN;CO;80439;3036799861
USPO - FAIRPLAY;517 HATHAWAY ST;FAIRPLAY;CO;80440;7198362423
USPO - FLAGLER;315 MAIN AVENUE;FLAGLER;CO;80815;7197654815
USPO - FLORENCE;121 N. PIKES PEAK AVE.;FLORENCE;CO;81226;7197843818
USPO - FLORISSANT;18101 CRD 1;FLORISSANT;CO;80816;7197483891
COLORADO STATE UNIVERSITY - EDUCATION ABROAD;700 OVAL DRIVE;FORT COLLINS;CO;80523;9704915917
FORT COLLINS CITY CLERKS OFFICE;300 LAPORTE AVE;FORT COLLINS;CO;80521;9702216515
LARIMER COUNTY - CITIZEN INFO CENTER;200 W OAK ST.;FORT COLLINS;CO;80521;9704987860
USPO - FORT COLLINS;301 EAST BOARDWALK DR.;FORT COLLINS;CO;80525;9702254100
USPO - FORT LUPTON;533 4TH ST.;FORT LUPTON;CO;80621;3038574734
USPO - FORT MORGAN;300 STATE ST;FORT MORGAN;CO;80701;9708677111
USPO - FOWLER;34191 COUNTY RD 3.5;FOWLER;CO;81039;7192635260
USPO - FRASER;520 ZEREX;FRASER;CO;80442;9707265578
USPO - FREDERICK;411 OAK ST.;FREDERICK;CO;80530;3038332581
USPO - GLENWOOD SPRINGS;113 9TH ST.;GLENWOOD SPRINGS;CO;81601;9709455611
CITY OF GOLDEN;911 10TH STREET;GOLDEN;CO;80401;3033848000
JEFFERSON COUNTY GOVERNMENT OFFICES;100 JEFFERSON COUNTY PKWY. SUITE 2530;GOLDEN;CO;80419;3032718191
USPO - GOLDEN;1100 JOHNSON ROAD;GOLDEN;CO;80401;3034458900
USPO - GRANBY;54 ZERO STREET;GRANBY;CO;80446;9708873612
USPO - GRAND JUNCTION;241 N. 4TH ST.;GRAND JUNCTION;CO;81501;9702443402
UNC CENTER FOR INTERNATIONAL EDUCATION;2045 10TH AVENUE;GREELEY;CO;80631;9703512396
USPO - GREELEY;925 11TH AVENUE;GREELEY;CO;80631;9703922782
USPO - GUNNISON;200 NORTH WISCONSIN ST;GUNNISON;CO;81230;9706411884
TOWN OF GYPSUM;50 LUNDGREN BLVD.;GYPSUM;CO;81637;9705247514
USPO - HENDERSON;12210 BRIGHTON ROAD;HENDERSON;CO;80640;3036591612
USPO - HESPERUS;10864 HWY 160;HESPERUS;CO;81326;9703854393
USPO - HIGHLANDS RANCH BRANCH;9609 SOUTH UNIVERSITY BLVD;HIGHLANDS RANCH;CO;80130;3032275500
USPO - HOLYOKE;226 S INTEROCEAN AVE;HOLYOKE;CO;80734;9708543100
USPO - HUDSON;738 CEDAR ST;HUDSON;CO;80642;3035364775
USPO - IDAHO SPRINGS;2420 COLORADO BLVD.;IDAHO SPRINGS;CO;80452;3035672903
USPO - IDLEDALE;21659 HWY 74;IDLEDALE;CO;80453;3036978476
USPO - IGNACIO;1001 WILLIAMS AVE;IGNACIO;CO;81137;9705634322
USPO - JOES;6461 HWY 36;JOES;CO;80822;9703584346
USPO - JOHNSTOWN;121 CASTLE PINES AVE;JOHNSTOWN;CO;80534;9705874246
USPO - KERSEY;331 1ST STREET;KERSEY;CO;80644;9703534884
USPO - KIOWA;708 COMMANCHE ST;KIOWA;CO;80117;3036212011
USPO - LA JARA;525 MAIN STREET;LA JARA;CO;81140;7192745331
USPO - LA JUNTA;324 COLORADO AVE.;LA JUNTA;CO;81050;7193845917
USPO - LAFAYETTE;603 S. PUBLIC RD.;LAFAYETTE;CO;80026;3039261048
CITY OF LAKEWOOD;480 S. ALLISON PARKWAY;LAKEWOOD;CO;80226;3039877080
RED ROCKS COMMUNITY COLLEGE;13300 W 6TH AVENUE;LAKEWOOD;CO;80228;3039146416
USPO - LAKEWOOD;10799 W ALAMEDA AVE.;LAKEWOOD;CO;80226;3039693200
USPO - LARKSPUR;96 PERRY PARK AVE.;LARKSPUR;CO;80118;3036812449
USPO - LEADVILLE;130 WEST 5TH ST.;LEADVILLE;CO;80461;7194869397
USPO - LIMON;250 F AVENUE;LIMON;CO;80828;7197752264
ARAPAHOE COUNTY CLERK AND  RECORDER;5334 SOUTH PRINCE ST.;LITTLETON;CO;80120;3037954520
USPO - LONGMONT;201 COFFMAN STREET;LONGMONT;CO;80501;3036519618
USPO - LOUISVILLE;566 S. MCCASLIN BLVD.;LOUISVILLE;CO;80027;3036650030
USPO - LOVELAND;446 EAST 29TH STREET;LOVELAND;CO;80538;9706633010
USPO - LYONS;305 RAILROAD AVENUE;LYONS;CO;80540;3038230109
USPO - MANCOS;291 N. WALNUT ST;MANCOS;CO;81328;9705337754
TOWN OF MEAD;441 THIRD ST;MEAD;CO;80542;9705354477
USPO - MEEKER;365 6TH ST.;MEEKER;CO;81641;9708785830
USPO - MONTE VISTA;150 WASHINTON STREET;MONTE VISTA;CO;81144;7198523431
MONTROSE REGIONAL LIBRARY DISTRICT;320 S. 2ND STREET;MONTROSE;CO;81401;9702499656
USPO - MONTROSE;321 S 1ST ST.;MONTROSE;CO;81401;9702496655
CITY OF NORTHGLENN;11701 COMMUNITY CENTER DRIVE;NORTHGLENN;CO;80233;3034508999
USPO - NUCLA;145 WEST 5TH AVENUE;NUCLA;CO;81424;9708647326
USPO - OURAY;620 MAIN STREET;OURAY;CO;81427;9703254302
USPO - PAGOSA SPRINGS;250 HOT SPRINGS BLVD.;PAGOSA SPRINGS;CO;81147;9702645440
USPO - PALMER LAKE;10 PRIMROSE ST;PALMER LAKE;CO;80133;7194812146
USPO - PEETZ;602 MAIN ST.;PEETZ;CO;80747;9703342345
USPO - PLATTEVILLE;400 MARION STREET;PLATTEVILLE;CO;80651;9707852295
USPO - BELMONT STATION;1025 E US HWY 50;PUEBLO;CO;81001;7195460903
USPO - SUNSET STATION;3000 WEDGEWOOD DRIVE;PUEBLO;CO;81005;7195660020
USPO - SALIDA;310 D ST.;SALIDA;CO;81201;7195392548
USPO - SEDGWICK;211 MAIN AVENUE;SEDGWICK;CO;80749;9704635690
USPO - SOUTH FORK;130 WEST FRONTAGE ROAD;SOUTH FORK;CO;81154;7198735611
USPO - SPRINGFIELD;188 EAST 9TH AVENUE;SPRINGFIELD;CO;81073;7195236609
USPO - STEAMBOAT SPRINGS;200 LINCOLN AVENUE;STEAMBOAT SPRINGS;CO;80487;9708798360
USPO - SUGAR CITY;208 COLORADO AVENUE;SUGAR CITY;CO;81076;7192673333
USPO - TELLURIDE;150 S. WILLOW ST.;TELLURIDE;CO;81435;9707283900
WILKINSON PUBLIC LIBRARY;100 W. PACIFIC AVE.;TELLURIDE;CO;81435;9707284519
CITY OF THORNTON;9500 CIVIC CENTER DRIVE;THORNTON;CO;80229;3035387230
USPO - TRINIDAD;301 EAST MAIN STREET;TRINIDAD;CO;81082;7198451180
USPO - USAF ACADEMY;5136 COMMUNITY CENTER DRIVE;USAF ACADEMY;CO;80840;7194720510
USPO - VAIL;1300 N. FRONTAGE RD. W;VAIL;CO;81657;9704765217
USPO - WALSENBURG;204 E. 6TH ST.;WALSENBURG;CO;81089;7197385762
USPO - WATKINS;33151 E. 16TH DR.;WATKINS;CO;80137;3032619655
CITY OF WESTMINSTER;4800 WEST 92ND AVENUE;WESTMINSTER;CO;80031;3036582337
USPO - HARRIS PARK;7262 MEADE ST;WESTMINSTER;CO;80030;3034870620
USPO - WILEY;301 MAIN ST;WILEY;CO;81092;7198294953
USPO - WINTER PARK;78490 U.S. HIGHWAY 40;WINTER PARK;CO;80482;9707266775
USPO - WOODLAND PARK;900 TAMARAC PARKWAY;WOODLAND PARK;CO;80863;7196860240
USPO - WRAY;407 WEST 7TH ST.;WRAY;CO;80758;9703325819
