facilityName;streetAdress;city;state;zipCode;publicPhone
BROWN COUNTY DISTRICT COURT;148 WEST FOURTH ST. SUITE 5;AINSWORTH;NE;69210;4023872705
BOONE COUNTY DISTRICT COURT;222 SOUTH 4TH STREET;ALBION;NE;68620;4023952057
BOX BUTTE COUNTY DISTRICT COURT;515 BOX BUTTE AVE;ALLIANCE;NE;69301;3087626293
HARLAN COUNTY DISTRICT COURT;706 W. 2ND ST.;ALMA;NE;68920;3089282173
USPO - ARNOLD;214 S WALNUT;ARNOLD;NE;69120;3088482210
NEMAHA COUNTY DISTRICT COURT;1824 N. ST.;AUBURN;NE;68305;4022743616
HAMILTON COUNTY DISTRICT COURT;1111 13TH STREET SUITE 4;AURORA;NE;68818;4026943533
ROCK COUNTY DISTRICT COURT;400 S STATE ST.;BASSETT;NE;68714;4026843933
GAGE COUNTY DISTRICT COURT;612 GRANT STREET;BEATRICE;NE;68310;4022231332
FURNAS COUNTY DISTRICT COURT;912 R STREET;BEAVER CITY;NE;68926;3082684015
USPO - BELLEVUE;2609 VICTORIA AVENUE;BELLEVUE;NE;68005;4022911167
USPO - BLAIR;201 N 16TH ST.;BLAIR;NE;68008;4024263100
MORRILL COUNTY DISTRICT COURT;600 BLOCK MAIN;BRIDGEPORT;NE;69336;3082621261
CUSTER COUNTY DISTRICT COURT;604 HERITAGE DRIVE;BROKEN BOW;NE;68822;3088722121
BOYD COUNTY DISTRICT COURT;401 THAYER STREET;BUTTE;NE;68722;4027752391
USPO - CAMBRIDGE;710 PATTERSON ST;CAMBRIDGE;NE;69022;3086974234
KNOX COUNTY DISTRICT COURT;206 MAIN ST.;CENTER;NE;68724;4022885606
MERRICK COUNTY DISTRICT COURT;1510 18TH STREET;CENTRAL CITY;NE;68826;3089462461
DAWES COUNTY DISTRICT COURT;451 MAIN STREET;CHADRON;NE;69337;3084320109
DEUEL COUNTY DISTRICT COURT;718 3RD STREET;CHAPPELL;NE;69129;3088743308
CLAY COUNTY DISTRICT COURT;111 WEST FAIRFIELD ST.;CLAY CENTER;NE;68933;4027623595
PLATTE COUNTY DISTRICT COURT;2610 14TH STREET;COLUMBUS;NE;68601;4025634906
USPO - COLUMBUS;1555 24TH AVE;COLUMBUS;NE;68601;4025643208
USPO - COZAD;102 E 9TH ST;COZAD;NE;69130;3087843400
USPO - CULBERTSON;407 WYOMING ST;CULBERTSON;NE;69024;3082782254
DAKOTA COUNTY DISTRICT COURT;1601 BROADWAY;DAKOTA CITY;NE;68731;4029872115
BUTLER COUNTY DISTRICT COURT;451 N 5TH ST.;DAVID CITY;NE;68632;4023677460
JEFFERSON COUNTY DISTRICT COURT;411 4TH STREET;FAIRBURY;NE;68352;4027296807
RICHARDSON COUNTY DISTRICT COURT;1700  STONE STREET #301;FALLS CITY;NE;68355;4022452023
FRANKLIN COUNTY DISTRICT COURT;405 15TH AVENUE;FRANKLIN;NE;68939;3084256202
DODGE COUNTY DISTRICT COURT;428 NORTH BROAD ST.;FREMONT;NE;68025;4027272780
USPO - FREMONT;348 EAST 6TH ST;FREMONT;NE;68025;4027211914
NANCE COUNTY DISTRICT COURT;209 ESTHER;FULLERTON;NE;68638;3085362365
FILLMORE COUNTY DISTRICT COURT;900 G STREET;GENEVA;NE;68361;4027593811
SCOTTS BLUFF COUNTY DISTRICT COURT;1725 10TH STREET;GERING;NE;69341;3084366641
USPO - GOTHENBURG;1021 LAKE AVENUE;GOTHENBURG;NE;69138;3085372121
HALL COUNTY PASSPORT ACCEPTANCE OFFICE;121 SOUTH PINE STREET;GRAND ISLAND;NE;68801;3083855012
PERKINS COUNTY COURTHOUSE;200 LINCOLN AVE;GRANT;NE;69140;3083527560
SIOUX COUNTY DISTRICT COURT;325 MAIN ST.;HARRISON;NE;69346;3086682401
CEDAR COUNTY DISTRICT COURT;101 S. BROADWAY;HARTINGTON;NE;68739;4022546957
ADAMS COUNTY DISTRICT COURT;500 W. 4TH ST.;HASTINGS;NE;68901;4024617264
THAYER COUNTY DISTRICT COURT;225 N 4TH ST;HEBRON;NE;68370;4027686116
PHELPS COUNTY DISTRICT COURT;715 5TH AVENUE;HOLDREGE;NE;68949;3089952281
GRANT COUNTY DISTRICT COURT;105 EAST HARRISON STREET;HYANNIS;NE;69350;3084582488
CHASE COUNTY DISTRICT COURT;921 BROADWAY STREET;IMPERIAL;NE;69033;3088827500
BUFFALO COUNTY DISTRICT COURT;1512 CENTRAL AVE;KEARNEY;NE;68847;3082361246
USPO - KEARNEY;2401 E AVE.;KEARNEY;NE;68847;3082342051
KIMBALL COUNTY CLERK OF COURT;114 EAST 3RD STREET;KIMBALL;NE;69145;3082353591
DAWSON COUNTY DISTRICT COURT;700 N WASHINGTON ST;LEXINGTON;NE;68850;3083244261
NEBRASKA LIBRARY COMMISSION;1200 N STREET SUITE 120;LINCOLN;NE;68508;4024712045
UNL PASSPORT ACCEPTANCE AGENCY;1700 Y STREET, (BSC) ROOM 106;LINCOLN;NE;68588;4024727446
USPO - GATEWAY STATION;6401 Q STREET;LINCOLN;NE;68505;4023256242
MADISON COUNTY CLERK OF COURT;1313 N MAIN STREET;MADISON;NE;68748;4024543311
RED WILLOW COUNTY DISTRICT COURT;502 NORRIS AVENUE;MCCOOK;NE;69001;3083454583
KEARNEY COUNTY DISTRICT COURT;424 N. COLORADO AVE;MINDEN;NE;68959;3088321742
HOOKER COUNTY DISTRICT COURT;303 NW 1ST ST.;MULLEN;NE;69152;3085462244
OTOE COUNTY DISTRICT COURT;1021 CENTRAL AVE ROOM 209;NEBRASKA CITY;NE;68410;4028739550
ANTELOPE COUNTY DISTRICT COURT;501 MAIN STREET;NELIGH;NE;68756;4028874508
NUCKOLLS COUNTY DISTRICT COURT;150 SOUTH MAIN ST.;NELSON;NE;68961;4022254341
USPO - NORFOLK;1100 S. PINE INDUSTRIAL RD;NORFOLK;NE;68701;4026444134
LINCOLN COUNTY DISTRICT COURT;301 N JEFFERS ST;NORTH PLATTE;NE;69101;3085344350
KEITH COUNTY DISTRICT COURT;511 NORTH SPRUCE ST. ROOM 202;OGALLALA;NE;69153;3082843849
USPO - OMAHA MAIN;1124 PACIFIC ST.;OMAHA;NE;68108;4023482696
USPO - POSTAL IMPRESSIONS;5346 S. 136TH ST.;OMAHA;NE;68137;Â 
HOLT COUNTY DISTRICT COURT;204 NORTH 4TH STREET;ONEILL;NE;68763;4023362840
VALLEY COUNTY DISTRICT COURT;125 SOUTH 15TH STREET;ORD;NE;68862;3087283700
POLK COUNTY DISTRICT COURT;400 HAWKEYE ST;OSCEOLA;NE;68651;4027473487
GARDEN COUNTY DISTRICT COURT;611 MAIN STREET;OSHKOSH;NE;69154;3087723924
SARPY COUNTY CLERK;1210 GOLDEN GATE DR.;PAPILLION;NE;68046;4025935957
PAWNEE COUNTY DISTRICT COURT;625 6TH ST.;PAWNEE CITY;NE;68420;4028522963
THURSTON COUNTY DISTRICT COURT;106 SOUTH 5TH ST;PENDER;NE;68047;4023853318
PIERCE COUNTY CLERK OF COURT;111 W. COURT ST. SUITE 12;PIERCE;NE;68767;4023294335
CASS COUNTY DISTRICT COURT;346 MAIN ST #303;PLATTSMOUTH;NE;68048;4022969339
DIXON COUNTY DISTRICT COURT;302 W. 3RD ST;PONCA;NE;68770;4027555604
WEBSTER COUNTY DISTRICT COURT;621 N. CEDAR ST;RED CLOUD;NE;68970;4027462716
SHERIDAN COUNTY DISTRICT COURT;301 EAST 2ND STREET;RUSHVILLE;NE;69360;3083275654
COLFAX COUNTY DISTRICT COURT;411 E. 11TH;SCHUYLER;NE;68661;4023528506
USPO - SCHUYLER;119 E 11TH ST;SCHUYLER;NE;68661;4023522313
USPO - SCOTTSBLUFF;112 W 20TH ST;SCOTTSBLUFF;NE;69361;3086351121
SEWARD COUNTY DISTRICT COURT;261 SOUTH 8TH ST;SEWARD;NE;68434;4026434895
CHEYENNE COUNTY DISTRICT COURT;1000  10TH AVENUE;SIDNEY;NE;69162;3082542814
USPO - SIDNEY;844 ILLINOIS STREET;SIDNEY;NE;69162;3082542911
KEYA PAHA COUNTY DISTRICT COURT;310 COURTHOUSE DR.;SPRINGVIEW;NE;68778;4024973791
STANTON COUNTY DISTRICT COURT;804 IVY STREET;STANTON;NE;68779;4024392222
FRONTIER COUNTY DISTRICT COURT;1 WELLINGTON ST.;STOCKVILLE;NE;69042;3083678641
USPO - SUTHERLAND;110 WALNUT STREET;SUTHERLAND;NE;69165;3083864440
JOHNSON COUNTY DISTRICT COURT;351 BROADWAY;TECUMSEH;NE;68450;4023356300
BURT COUNTY DISTRICT COURT;111 NORTH 13TH STREET;TEKAMAH;NE;68061;4023742905
THOMAS COUNTY DISTRICT COURT;503 MAIN ST.;THEDFORD;NE;69166;3086452261
CHERRY COUNTY DISTRICT COURT;365 NORTH MAIN ST. SUITE 11;VALENTINE;NE;69201;4023761840
SAUNDERS COUNTY DISTRICT COURT;387 NORTH CHESTNUT SUITE 6;WAHOO;NE;68066;4024438113
WAYNE COUNTY DISTRICT COURT;510 PEARL ST., STE. 6;WAYNE;NE;68787;4023752260
CUMING COUNTY DISTRICT COURT;200 SOUTH LINCOLN, ROOM 200;WEST POINT;NE;68788;4023726004
SALINE COUNTY DISTRICT COURT;204 SOUTH HIGH ST;WILBER;NE;68465;4028212823
YORK COUNTY DISTRICT COURT;510 LINCOLN AVENUE;YORK;NE;68467;4023624038
