facilityName;streetAdress;city;state;zipCode;publicPhone
ADDISON POST OFFICE IL;175 S LINCOLN AVENUE;ADDISON;IL;60101;6303790860
ADDISON TOWNSHIP CLERK;401 N ADDISON ROAD;ADDISON;IL;60101;6305308161
ALGONQUIN POST OFFICE;801 W ALGONQUIN RD;ALGONQUIN;IL;60102;8476580012
WORTH TOWNSHIP CLERK;11601 S. PULASKI ROAD;ALSIP;IL;60803;7083712900
ALTON IL POST OFFICE;2350 HOMER ADAMS PARKWAY;ALTON;IL;62002;6184622501
ARLINGTON HEIGHTS POST OFFICE;909 W EUCLID AVENUE;ARLINGTON HEIGHTS;IL;60004;8472537806
ELK GROVE TOWNSHIP;2400 S ARLINGTON HEIGHTS ROAD;ARLINGTON HEIGHTS;IL;60005;8474370300
ASHKUM POST OFFICE;103 E MAIN STREET;ASHKUM;IL;60911;8156982412
ASTORIA POST OFFICE;214 W. BROADWAY;ASTORIA;IL;61501;3093292700
AURORA POST OFFICE;525 N BROADWAY;AURORA;IL;60505;6308448820
KANE COUNTY CLERK - AURORA OFFICE;5 E. DOWNER PLACE;AURORA;IL;60505;6302325964
BARRINGTON MAIN POST OFFICE;1515 S GROVE AVE;BARRINGTON;IL;60010;8473810510
CUBA TOWNSHIP;28000 W. CUBA ROAD;BARRINGTON;IL;60010;8473811924
HANOVER TOWNSHIP;250 S. ILLINOIS ROUTE 59;BARTLETT;IL;60103;6308370301
BATAVIA POST OFFICE;500 N  RANDALL ROAD;BATAVIA;IL;60510;6308791483
BEDFORD PARK RETAIL STORE IL;6801 W 73RD STREET;BEDFORD PARK;IL;60499;7085637854
BEECHER POST OFFICE IL;712 PENFIELD STREET;BEECHER;IL;60401;7089462550
BELLEVILLE POST OFFICE;120 W WASHINGTON STREET;BELLEVILLE;IL;62220;6182330390
BELLEVILLE PUBLIC LIBRARY;121 E. WASHINGTON;BELLEVILLE;IL;62220;6182340441
DUTCH HOLLOW POST OFFICE;5731 MOUNT PLEASANT LN.;BELLEVILLE;IL;62223;6183976616
BELVIDERE POST OFFICE;1800 DOC WOLF DRIVE;BELVIDERE;IL;61008;8155475457
BENSENVILLE COMMUNITY PUBLIC LIBRARY DISTRICT;200 S. CHURCH RD.;BENSENVILLE;IL;60106;6307664642
BENTON POST OFFICE;301 N DUQUOIN ST;BENTON;IL;62812;6184384931
BERWYN POST OFFICE;6625 W. CERMAK ROAD;BERWYN;IL;60402;7084845392
BETHALTO POST OFFICE;115 W CENTRAL STREET;BETHALTO;IL;62010;6183778714
BLOOMINGDALE POST OFFICE;108 W. SCHICK ROAD;BLOOMINGDALE;IL;60108;6305295287
BLOOMINGDALE TOWNSHIP;123 N  ROSEDALE ROAD  # 200;BLOOMINGDALE;IL;60108;6305297715
EAGLE STATION BLOOMINGTON POST OFFICE;1211 N TOWANDA AVENUE;BLOOMINGTON;IL;61701;3096644600
BLUE ISLAND POST OFFICE IL;2441 VERMONT STREET;BLUE ISLAND;IL;60406;7083850957
DUPAGE TOWNSHIP;241 CANTERBURY LN;BOILINGBROOK;IL;60440;6307591317
BOLINGBROOK POST OFFICE IL;105 CANTERBURY LANE;BOLINGBROOK;IL;60440;6307593811
BOURBONNAIS POST OFFICE;850 MAIN STREET NW;BOURBONNAIS;IL;60914;8159391531
BRADLEY POST OFFICE;258 W. BROADWAY ST;BRADLEY;IL;60915;8159324133
BRAIDWOOD POST OFFICE;280 W MAIN ST;BRAIDWOOD;IL;60408;8154583422
BREESE POST OFFICE;501 N 2ND STREET;BREESE;IL;62230;6185267912
MORAINE VALLEY FACILITY BRIDGEVIEW IL;7401 W 100TH PLACE;BRIDGEVIEW;IL;60455;7082335562
BROOKFIELD POST OFFICE IL;3731 PRAIRIE AVENUE;BROOKFIELD;IL;60513;7084850572
BUFFALO GROVE POST OFFICE IL;255 N BUFFALO GROVE ROAD;BUFFALO GROVE;IL;60089;8475200268
VERNON TOWNSHIP;3050 N MAIN STREET;BUFFALO GROVE;IL;60089;8476344600
STICKNEY TOWNSHIP IL;5635 STATE ROAD;BURBANK;IL;60459;7082378966
CALUMET CITY POST OFFICE IL;1200 RING ROAD;CALUMET CITY;IL;60409;7088626900
CARBONDALE POST OFFICE;1301 E MAIN STREET;CARBONDALE;IL;62901;6183515640
MACOUPIN COUNTY CIRCUIT COURT CLERK CARLINVILLE IL;201 E MAIN STREET;CARLINVILLE;IL;62626;2178543211
CAROL STREAM POST OFFICE;550 E FULLERTON AVENUE;CAROL STREAM;IL;60188;6302605665
CARY AREA PUBLIC LIBRARY;1606 THREE OAKS RD;CARY;IL;60013;8476394210
CASEYVILLE POST OFFICE IL;113 S LONG STREET;CASEYVILLE;IL;62232;6183444594
CENTRALIA POST OFFICE;314 S POPLAR STREET;CENTRALIA;IL;62801;6185326717
CHAMPAIGN POST OFFICE;2001 N MATTIS AVENUE;CHAMPAIGN;IL;61821;2173526022
CHANNAHON POST OFFICE IL;25150 W  CHANNAHON DRIVE;CHANNAHON;IL;60410;8154675488
CHARLESTON IL POST OFFICE;667 WINDSOR RD.;CHARLESTON;IL;61920;2173452900
COLES COUNTY TREASURERS OFFICE;651 JACKSON AVE.;CHARLESTON;IL;61920;2173480511
CHERRY VALLEY PUBLIC LIBRARY DISTRICT;755 E. STATE ST;CHERRY VALLEY;IL;61016;8153325161
CHESTER POST OFFICE;1321 SWANWICK STREET;CHESTER;IL;62233;6188262233
AMOCO;200 E RANDOLPH STREET;CHICAGO;IL;60601;3128610473
AUBURN PARK STATION;8345 S. ASHLAND AVENUE;CHICAGO;IL;60620;7732395088
CARDISS COLLINS POSTAL STORE;433 W HARRISON STREET;CHICAGO;IL;60699;3129838330
CESAR E CHAVEZ PILSEN POST OFFICE;1859 S  ASHLAND AVENUE;CHICAGO;IL;60608;3124885641
CHICAGO LAWN STATION;6037 S. KEDZIE STREET;CHICAGO;IL;60629;7739251210
CHINATOWN FINANCE STATION PO;2345 S WENTWORTH AVENUE;CHICAGO;IL;60616;3123266440
CLEARING POST OFFICE;5645 S ARCHER;CHICAGO;IL;60638;7737671917
COOK CO IL CIRCUIT COURT CLERK;PROBATE DIVISION - ROOM 1202;CHICAGO;IL;60602;3126036441
CRAGIN STATION POST OFFICE;5100 W GRAND AVENUE;CHICAGO;IL;60639;7732374116
DANIEL J DOFFYN STATION;3750 N  KEDZIE AVENUE;CHICAGO;IL;60618;7735396210
ELSDON STATION POST OFFICE;4922 S KEDZIE AVE;CHICAGO;IL;60632;7738631402
FORT DEARBORN STATION;540 N DEARBORN STREET;CHICAGO;IL;60610;3126443919
GRACELAND FINANCE STATION USPS;3024 N ASHLAND AVENUE;CHICAGO;IL;60657;7732480201
HENRY MCGEE POST OFFICE;4601 S. COTTAGE GROVE;CHICAGO;IL;60653;7739246658
IRVING PARK STATION POST OFFICE;3319 N  CICERO AVENUE;CHICAGO;IL;60641;7737253701
JAMES E WORSHAM PO;7715 S. COTTAGE GROVE;CHICAGO;IL;60619;7733470017
JEFFERSON PARK;5401 W LAWRENCE AVENUE;CHICAGO;IL;60630;7737361672
JOHN J BUCHANAN POST OFFICE;9308 S SOUTH CHICAGO AVENUE;CHICAGO;IL;60617;7732219578
LOOP STATION;211 S CLARK STREET;CHICAGO;IL;60604;3123853530
MORGAN PARK STATION;1805 W MONTEREY STREET;CHICAGO;IL;60643;7732600119
MOUNT GREENWOOD;3349 W 111TH STREET;CHICAGO;IL;60655;7732382849
NILES IL POST OFFICE;6977 W OAKTON STREET;CHICAGO;IL;60714;8479671989
NORTHTOWN STATION;3401 W DEVON AVENUE;CHICAGO;IL;60659;7735838640
NORWOOD PARK STATION;6300 N NORTHWEST HIGHWAY;CHICAGO;IL;60631;7736312204
RAVENSWOOD STATION POST OFFICE;2522 W.  LAWRENCE STREET;CHICAGO;IL;60625;7735618633
ROBERTO CLEMENTE POST OFFICE;2339 N  CALIFORNIA AVENUE;CHICAGO;IL;60647;7734891475
ROGER P MC AULIFFE USPO;6441 W IRVING PARK ROAD;CHICAGO;IL;60634;7737360714
ROGERS PARK;1723 W. DEVON AVE;CHICAGO;IL;60660;7737432650
STATION E;100 W RANDOLPH STREET;CHICAGO;IL;60601;3122632686
STOCKYARD STATION IL;4101 S HALSTED STREET;CHICAGO;IL;60609;7732470731
UPTOWN STATION POST OFFICE;4850 N. BROADWAY;CHICAGO;IL;60640;7735614846
CHICAGO HEIGHTS POST OFFICE IL;1333 WEST END AVENUE;CHICAGO HEIGHTS;IL;60411;7087542277
CHICAGO RIDGE POST OFFICE;10525 S RIDGELAND AVENUE;CHICAGO RIDGE;IL;60415;7084233346
CHICAGO RIDGE VILLAGE CLERKS OFFICE;10455 S. RIDGELAND AVENUE;CHICAGO RIDGE;IL;60415;7084257700
CICERO POST OFFICE;2440 S  LARAMIE AVENUE;CICERO;IL;60804;7086526880
TOWN OF CICERO;4949 W. CERMAK RD.;CICERO;IL;60804;7086563600
CLARENDON HILLS POST OFFICE IL;312 PARK  AVENUE;CLARENDON HILLS;IL;60514;6303230309
CLINTON IL MAIN POST OFFICE;105 N. QUINCY;CLINTON;IL;61727;2179355584
COAL CITY POST OFFICE IL;495 S BROADWAY;COAL CITY;IL;60416;8156344501
COAL CITY PUBLIC LIBRARY;85 N. GARFIELD ST.;COAL CITY;IL;60416;8156344552
COLLINSVILLE POST OFFICE;1610 EASTPORT PLAZA DRIVE;COLLINSVILLE;IL;62234;6183443820
COLUMBIA POST OFFICE IL;800 COLUMBIA CENTER;COLUMBIA;IL;62236;6182815300
WHITE OAK LIBRARY DISTRICT: CREST HILL BRANCH;20670 KUBINSKI DR;CREST HILL;IL;60403;8155524270
CRETE POST OFFICE IL;515 CASS STREET;CRETE;IL;60417;7086728571
CRYSTAL LAKE POST OFFICE IL;301 E CONGRESS PARKWAY;CRYSTAL LAKE;IL;60014;8154598084
CRYSTAL LAKE PUBLIC LIBRARY;126 W. PADDOCK ST.;CRYSTAL LAKE;IL;60014;8154591687
DANVILLE POST OFFICE;303 N HAZEL ST.;DANVILLE;IL;61832;2174469440
INDIAN PRAIRIE PUBLIC LIBRARY;401 PLAINFIELD RD.;DARIEN;IL;60561;6308878760
DAVIS POST OFFICE;420 N. STANTON ST;DAVIS;IL;61019;8158655416
DECATUR MEMORIAL STATION;1601 E MOUND STREET;DECATUR;IL;62526;2178774361
DEERFIELD POST OFFICE IL;707 OSTERMAN AVENUE;DEERFIELD;IL;60015;8479450293
WEST DEERFIELD TOWNSHIP;601 DEERFIELD ROAD;DEERFIELD;IL;60015;8479450614
DEKALB POST OFFICE;600 E LINCOLN HIGHWAY;DEKALB;IL;60115;8157586677
DES PLAINES POST OFFICE;1000 E  OAKTON STREET;DES PLAINES;IL;60018;8478275592
DIXON POST OFFICE;405 W 2ND STREET;DIXON;IL;61021;8152845015
DOLTON POST OFFICE;14212 COTTAGE GROVE AVENUE;DOLTON;IL;60419;7088492780
DOWNERS GROVE POST OFFICE;920 CURTISS STREET;DOWNERS GROVE;IL;60515;6309692001
DOWNERS GROVE TOWNSHIP;4340 PRINCE STREET;DOWNERS GROVE;IL;60515;6307196600
DOWNS POST OFFICE;403 S SEMINARY STREET;DOWNS;IL;61736;3093784431
DU QUOIN POST OFFICE;304 E MAIN STREET;DUQUOIN;IL;62832;6185423933
MADISON COUNTY CIRCUIT COURT CLERK;155 N MAIN STREET;EDWARDSVILLE;IL;62025;6186926200
CIRCUIT CLERK OF EFFINGHAM COUNTY;120 W JEFFERSON;EFFINGHAM;IL;62401;2173424065
EFFINGHAM POST OFFICE;210 N 3RD STREET;EFFINGHAM;IL;62401;2173426311
TOWN COUNTRY PUBLIC LIBRARY DISTRICT;320 E NORTH STREET;ELBURN;IL;60119;6303652244
ELGIN POST OFFICE;66 GROVE COURT;ELGIN;IL;60120;8477410725
ELGIN TOWNSHIP;729 S MCLEAN BLVD;ELGIN;IL;60123;8477412045
GAIL BORDEN PUBLIC LIBRARY DISTRICT;270 N. GROVE AVE;ELGIN;IL;60120;8477422411
ELMHURST POST OFFICE;154 W PARK AVE;ELMHURST;IL;60126;6308335375
WOODFORD CO CIRCUIT CLERKS OFFICE;115 N MAIN ST;EUREKA;IL;61530;3094673312
EVANSTON CITY CLERK;2100 RIDGE AVENUE;EVANSTON;IL;60201;8474488189
EVANSTON POST OFFICE;1101 DAVIS STREET;EVANSTON;IL;60201;8473286288
EVERGREEN PARK STATION IL;9359 S KEDZIE AVENUE;EVERGREEN PARK;IL;60805;7084220740
FAIRBURY IL POST OFFICE;127 E LOCUST ST;FAIRBURY;IL;61739;8156922041
WAYNE COUNTY CIRCUIT CLERK FAIRFIELD IL;301 E MAIN STREET, SUITE 204;FAIRFIELD;IL;62837;6188427684
FARMINGTON POST OFFICE;67 W. FORT ST.;FARMINGTON;IL;61531;3092454823
FLORA POST OFFICE;312 E. NORTH AVENUE;FLORA;IL;62839;6186625626
FLOSSMOOR POST OFFICE IL;1020 PARK DRIVE;FLOSSMOOR;IL;60422;7087998573
FRANKFORT POST OFFICE IL;21201 S ELSNER ROAD;FRANKFORT;IL;60423;8154695907
VILLAGE OF FRANKLIN PARK IL;9500 W. BELMONT AVENUE;FRANKLIN PARK;IL;60131;8476718242
FREEPORT;103 N CHICAGO AVENUE;FREEPORT;IL;61032;8152327119
GALESBURG POST OFFICE;476 E  MAIN STREET;GALESBURG;IL;61401;3093426166
KNOX COUNTY CIRCUIT COURT CLERK GALESBURG IL;200 S. CHERRY STREET;GALESBURG;IL;61401;3093453817
GARDNER POST OFFICE;106 E JEFFERSON STREET;GARDNER;IL;60424;8152372262
COUNTY OF KANE;719 S. BATAVIA AVENUE;GENEVA;IL;60134;6302325964
GENEVA POST OFFICE IL;26 S THIRD STREET;GENEVA;IL;60134;6302326262
GIBSON CITY POST OFFICE;127 E. 9TH ST;GIBSON CITY;IL;60936;2177845260
GLEN CARBON POST OFFICE IL;105 N MAIN STREET;GLEN CARBON;IL;62034;6182889503
GLEN ELLYN POST OFFICE;757 DUPAGE BOULEVARD;GLEN ELLYN;IL;60137;6304691166
GLEN ELLYN PUBLIC LIBRARY;400 DUANE ST;GLEN ELLYN;IL;60137;6304690879
GLENSIDE PUBLIC LIBRARY DISTRICT;25 E FULLERTON AVE;GLENDALE HEIGHTS;IL;60139;6302601550
GLENVIEW POST OFFICE IL;1400 PATRIOT BLVD;GLENVIEW;IL;60025;8478324690
NORTHFIELD TOWNSHIP IL;2550 WAUKEGAN RD, SUITE 100;GLENVIEW;IL;60025;8477248300
GLENWOOD POST OFFICE IL;19 W MAIN STREET;GLENWOOD;IL;60425;7087585170
GODFREY POST OFFICE IL;400 TOLLE LANE;GODFREY;IL;62035;6184663121
GRANITE CITY IL POST OFFICE;2350 MADISON AVENUE;GRANITE CITY;IL;62040;6188770700
SIX MILE REGIONAL LIBRARY DISTRICT;2001 DELMAR AVENUE;GRANITE CITY;IL;62040;6184526238
GRAYSLAKE POST OFFICE;75 COMMERCE DRIVE;GRAYSLAKE;IL;60030;8472232787
BOND COUNTY IL CIRCUIT COURT CLERK;200 W COLLEGE AVENUE;GREENVILLE;IL;62246;6186643208
GURNEE POST OFFICE IL;1 N OPLAINE RD;GURNEE;IL;60031;8476626943
HARRISBURG POST OFFICE;101 W CHURCH STREET;HARRISBURG;IL;62946;6182537836
HARVEY POST OFFICE IL;15441 S  CENTER AVENUE;HARVEY;IL;60426;7083391211
HAZEL CREST POST OFFICE IL;17541 S KEDZIE STREET;HAZEL CREST;IL;60429;7086470465
HERRIN POST OFFICE IL;200 S PARK AVENUE;HERRIN;IL;62948;6189424845
HIGHLAND POST OFFICE;801 MAIN STREET;HIGHLAND;IL;62249;6186546791
HIGHLAND PARK POST OFFICE;833 CENTRAL AVENUE;HIGHLAND PARK;IL;60035;8474333201
MORAINE TOWNSHIP;800 CENTRAL AVENUE;HIGHLAND PARK;IL;60035;8474323240
CIRCUIT COURT CLERK HILLSBORO IL;120 N MAIN ST RM 125;HILLSBORO;IL;62049;2175329546
HINSDALE IL POST OFFICE;109 SYMONDS DRIVE;HINSDALE;IL;60521;6303231490
HODGKINS PUBLIC LIBRARY;6500 WENZ AVE;HODGKINS;IL;60525;7085791844
TOWNSHIP OF SCHAUMBURG;1 ILLINOIS BOULEVARD;HOFFMAN ESTATES;IL;60169;8478840030
VILLAGE OF HOFFMAN ESTATES;1900 HASSELL ROAD;HOFFMAN ESTATES;IL;60169;8477812625
HOMEWOOD POST OFFICE;1921 RIDGE ROAD;HOMEWOOD;IL;60430;7087540674
HOOPESTON POST OFFICE;314 S. MARKET ST;HOOPESTON;IL;60942;2172836321
HUDSON POST OFFICE;104 E WALNUT STREET;HUDSON;IL;61748;3097261511
ISLAND LAKE POST OFFICE;129 E STATE ROAD;ISLAND LAKE;IL;60042;8002758777
ITASCA COMMUNITY LIBRARY;500 W IRVING PARK RD;ITASCA;IL;60143;6307731699
ITASCA POST OFFICE IL;1050 W  IRVING PARK ROAD;ITASCA;IL;60143;6307730979
CIRCUIT COURT CLERK JACKSONVILLE IL;300 W STATE ST;JACKSONVILLE;IL;62650;2172435419
JERSEYVILLE POST OFFICE IL;115 N  WASHINGTON STREET;JERSEYVILLE;IL;62052;6184986713
JOLIET DOWNTOWN POSTAL STATION;51 E  CLINTON STREET;JOLIET;IL;60435;8157233663
JOLIET POST OFFICE;2000 W MCDONOUGH STREET;JOLIET;IL;60436;8157731063
VILLAGE OF JUSTICE;7800 ARCHER ROAD;JUSTICE;IL;60458;7084582520
COUNTY CLERK KANKAKEE IL;189 E COURT STREET;KANKAKEE;IL;60901;8159372990
KANKAKEE POST OFFICE IL;475 EAST COURT STREET;KANKAKEE;IL;60901;8159357440
LA GRANGE POST OFFICE IL;121 W  HILLGROVE AVENUE;LA GRANGE;IL;60525;7083523611
LACON POST OFFICE;209 N WASHINGTON ST;LACON;IL;61540;3092467312
MARSHALL COUNTY CIRCUIT COURT CLERK IL;122 N  PRAIRIE STREET;LACON;IL;61540;3092466435
LAKE BLUFF PUBLIC LIBRARY;123 E. SCRANTON AVE;LAKE BLUFF;IL;60044;8472342540
SHIELDS TOWNSHIP;906 MUIR AVENUE;LAKE BLUFF;IL;60044;8472340802
LAKE FOREST POST OFFICE IL;230 NORTHGATE STREET;LAKE FOREST;IL;60045;8472340454
ANTIOCH TOWNSHIP CLERKS OFFICE;1625 DEEP LAKE ROAD;LAKE VILLA;IL;60046;8473953378
LAKE VILLA MAIN POST OFFICE IL;206 CEDAR AVENUE;LAKE VILLA;IL;60046;8473565995
LAKE VILLA TOWNSHIP;37908 N FAIRFIELD ROAD;LAKE VILLA;IL;60046;8473562116
ELA PUBLIC LIBRARY;275 MOHAWK TRAIL;LAKE ZURICH;IL;60047;8474383433
LAKE ZURICH MAIN POST OFFICE;25 TELSER ROAD;LAKE ZURICH;IL;60047;8474385225
LANSING POST OFFICE;18125 S. ROY STREET;LANSING;IL;60438;7084740080
LEMONT POST OFFICE IL;42 STEPHEN STREET;LEMONT;IL;60439;6302576204
LEMONT PUBLIC LIBRARY;50 E WEND ST;LEMONT;IL;60439;6302576541
LIBERTYVILLE POST OFFICE IL;1520 ARTAIUS PARKWAY;LIBERTYVILLE;IL;60048;8473622266
LOGAN COUNTY CIRCUIT CLERK;601 BROADWAY;LINCOLN;IL;62656;2177352376
LISLE POST OFFICE;817 W OGDEN AVENUE;LISLE;IL;60532;6309690548
LISLE TOWNSHIP;4711 INDIANA AVENUE;LISLE;IL;60532;6309682087
LITCHFIELD POST OFFICE;202 E  KIRKHAM STREET;LITCHFIELD;IL;62056;2173242004
LOCKPORT POST OFFICE;1059 E 9TH STREET;LOCKPORT;IL;60441;8158380296
WHITE OAK LIBRARY DISTRICT: LOCKPORT BRANCH;121 E. 8TH STREET;LOCKPORT;IL;60441;8155524250
HELEN PLUM LIBRARY;110 W MAPLE STREET;LOMBARD;IL;60148;6306270316
YORK TOWNSHIP;1502 S MEYERS ROAD;LOMBARD;IL;60148;6306202400
GLENWOOD-LYNWOOD PUBLIC LIBRARY DISTRICT;19901 STONY ISLAND AVE;LYNWOOD;IL;60411;7087580090
LYONS POST OFFICE IL;7836 OGDEN AVENUE;LYONS;IL;60534;7084425400
MACOMB IL POST OFFICE;205 S RANDOLPH ST;MACOMB;IL;61455;3098335593
MCDONOUGH CIRCUIT CLERK;#1 COURTHOUSE SQUARE;MACOMB;IL;61455;3098374889
MANHATTAN POST OFFICE;185 S  STATE STREET;MANHATTAN;IL;60442;8154783112
MARION POST OFFICE IL;205 E  MAIN STREET;MARION;IL;62959;6189932933
MARYVILLE POST OFFICE IL;1 OAK DRIVE;MARYVILLE;IL;62062;6182881720
MATTESON POST OFFICE;20650 S CICERO AVENUE;MATTESON;IL;60443;7087488630
MATTESON PUBLIC LIBRARY;801 SCHOOL AVENUE;MATTESON;IL;60443;7087484431
MATTOON TOWNSHIP;1716 RICHMOND AVE;MATTOON;IL;61938;2172343877
MAYWOOD PUBLIC LIBRARY;121 S. 5TH AVE;MAYWOOD;IL;60153;7083431847
MCHENRY IL USPO;4530 W CRYSTAL LAKE ROAD;MCHENRY;IL;60050;8153852108
MELROSE PARK POST OFFICE;1824 N. 25TH AVENUE;MELROSE PARK;IL;60160;7083432150
MENDOTA POST OFFICE;818 WASHINGTON ST;MENDOTA;IL;61342;8155396366
METROPOLIS IL POST OFFICE;101 W 5TH STREET;METROPOLIS;IL;62960;6185244921
MINONK POST OFFICE;160 W 5TH ST;MINONK;IL;61760;3094322848
MINOOKA POST OFFICE IL;301 W MONDAMIN STREET;MINOOKA;IL;60447;8154676360
MOKENA POST OFFICE;19934 S WOLF ROAD;MOKENA;IL;60448;7084799431
MOLINE POST OFFICE;514   17TH STREET;MOLINE;IL;61265;3097645011
MOLINE PUBLIC LIBRARY;3210 41ST STREET;MOLINE;IL;61265;3095242470
WARREN COUNTY CIRCUIT CLERK;100 W  BROADWAY;MONMOUTH;IL;61462;3097345179
MONTGOMERY POST OFFICE IL;1899 VILLAGE CENTER PARKWAY;MONTGOMERY;IL;60538;6308441655
PIATT COUNTY IL CIRCUIT COURT CLERK;100 W  WASHINGTON;MONTICELLO;IL;61856;2177624966
GRUNDY COUNTY CIRCUIT CLERK MORRIS IL;111 E  WASHINGTON STREEET;MORRIS;IL;60450;8159413256
MORRIS AREA PUBLIC LIBRARY;604 LIBERTY STREET;MORRIS;IL;60450;8159426880
MORRIS POST OFFICE IL;202 E  WASHINGTON STREET;MORRIS;IL;60450;8159420345
MORTON POST OFFICE;600 W JEFFERSON STREET;MORTON;IL;61550;3092666421
MORTON GROVE POST OFFICE;9114 WAUKEGAN ROAD;MORTON GROVE;IL;60053;8479651621
WABASH COUNTY CIRCUIT CLERK;401 MARKET STREET;MOUNT CARMEL;IL;62863;6182625362
MT PROSPECT POST OFFICE IL;300 W  CENTRAL ROAD;MOUNT PROSPECT;IL;60056;8473922731
MT VERNON IL POST OFFICE;726 PARK PLAZA;MOUNT VERNON;IL;62864;6182420640
MURPHYSBORO POST OFFICE IL;203 N 11TH STREET;MURPHYSBORO;IL;62966;6186844841
BOOK ROAD POSTAL STORE IL;3075 BOOK RD;NAPERVILLE;IL;60564;6309229539
NAPERVILLE IL POST OFFICE;1750 W OGDEN AVENUE;NAPERVILLE;IL;60540;6307172662
NAPERVILLE TOWNSHIP IL;139 WATER STREET;NAPERVILLE;IL;60540;6303552786
CIRCUIT COURT CLERK NASHVILLE IL;125 EAST ELM STREET;NASHVILLE;IL;62263;6183274800
NEW BADEN POST OFFICE;203 E HANOVER STREET;NEW BADEN;IL;62265;6185884733
NEW LENOX POST OFFICE IL;300 N  VINE STREET;NEW LENOX;IL;60451;8154858273
NEW LENOX PUBLIC LIBRARY;120 VETERANS PARKWAYS;NEW LENOX;IL;60451;8154852605
NILES-MAINE DISTRICT LIBRARY;6960 W. OAKTON ST.;NILES;IL;60714;8476631234
HARWOOD HEIGHTS POST OFFICE;7101 W GUNNISON STREET;NORRIDGE;IL;60706;7088677269
VILLAGE OF NORRIDGE;4000 N  OLCOTT AVENUE;NORRIDGE;IL;60706;7084530800
NORTH RIVERSIDE POST OFFICE IL;7300 W  25TH STREET;NORTH RIVERSIDE;IL;60546;7084428207
NORTHBROOK POST OFFICE;2460 DUNDEE ROAD;NORTHBROOK;IL;60062;8472720174
NORTHLAKE POST OFFICE IL;47 W  NORTH AVENUE;NORTHLAKE;IL;60164;7084920533
NORTHLAKE PUBLIC LIBRARY DISTRICT;231 N. WOLF ROAD;NORTHLAKE;IL;60164;7085622301
O FALLON PUBLIC LIBRARY;120 CIVIC PLAZA;O FALLON;IL;62269;6186323783
OAK BROOK IL MAIN POST OFFICE;1314 KENSINGTON ROAD;OAK BROOK;IL;60523;6309904224
OAK FOREST POST OFFICE IL;15811 S  CENTRAL STREET;OAK FOREST;IL;60452;7086872137
OAK LAWN STATION;9249 S CICERO;OAK LAWN;IL;60454;7084240880
OAK PARK POST OFFICE;901 W LAKE STREET;OAK PARK;IL;60301;7088487901
OFALLON, IL 62269;1111 S LINCOLN AVENUE;OFALLON;IL;62269;6186324691
OLYMPIA FIELDS POST OFFICE;3033 203RD STREET;OLYMPIA FIELDS;IL;60461;7087489222
OREGON PUBLIC LIBRARY;300 JEFFERSON ST;OREGON;IL;61061;8157322724
ORLAND PARK MAIN POST OFFICE;9500 144TH PL;ORLAND PARK;IL;60462;7083498030
ORLAND PARK RETAIL POSTAL STORE;15128 LA GRANGE RD;ORLAND PARK;IL;60462;7082260249
LASALLE CO CIRCUIT COURT CLERK OTTAWA IL;119 W. MADISON #200;OTTAWA;IL;61350;8154348671
PALATINE POST OFFICE;440 W COLFAX STREET;PALATINE;IL;60067;8473591799
PALATINE VILLAGE CLERKS OFFICE;200 E WOOD STREET;PALATINE;IL;60067;8473587500
PALOS HEIGHTS POST OFFICE;12238 S HARLEM AVENUE;PALOS HEIGHTS;IL;60463;7084482040
PALOS PARK POST OFFICE IL;12100 S  80TH AVENUE;PALOS PARK;IL;60464;7084486134
PARIS POST OFFICE;139 E WOOD STREET;PARIS;IL;61944;2174665960
PARK FOREST POST OFFICE;123 INDIANWOOD BLVD;PARK FOREST;IL;60466;7087485471
MAINE TOWNSHIP;1700 BALLARD ROAD;PARK RIDGE;IL;60068;8472972510
PAXTON POST OFFICE;209 SOUTH MARKET  STREET;PAXTON;IL;60957;2173793131
PEKIN POST OFFICE IL;514 BROADWAY STREET;PEKIN;IL;61554;3093467878
PEKIN PUBLIC LIBRARY;301 S. FOURTH STREET;PEKIN;IL;61554;3093477111
NORTH UNIVERSITY STATION;6310 N UNIVERSITY ST;PEORIA;IL;61614;3096929818
PEORIA COUNTY CIRCUIT CLERK;324 MAIN STREET ROOM G-22;PEORIA;IL;61602;3096726015
PEORIA IL MAIN POST OFFICE;95 STATE STREET;PEORIA;IL;61601;3096718836
PERU POST OFFICE IL;1500 4TH STREET;PERU;IL;61354;8152230320
MENARD COUNTY IL CIRCUIT CLERK;102 S 7TH STREET;PETERSBURG;IL;62675;2176322615
CIRCUIT COURT CLERK PITTSFIELD IL;100 E.  WASHINGTON STREET;PITTSFIELD;IL;62363;2172856612
PLAINFIELD POST OFFICE;14855 S VAN DYKE ROAD;PLAINFIELD;IL;60544;8154363095
PLAINFIELD TOWNSHIP;22525 W  LOCKPORT ROAD;PLAINFIELD;IL;60544;8154368308
PLANO POST OFFICE IL;102 N. CENTER STREET;PLANO;IL;60545;6305523451
POSEN POST OFFICE;2720 W 147TH STREET;POSEN;IL;60469;7083887788
BUREAU COUNTY CIRCUIT CLERKS OFFICE;700 S. MAIN STREET;PRINCETON;IL;61338;8158722001
PROSPECT HEIGHTS PUBLIC LIBRARY;12 N ELM STREET;PROSPECT HEIGHTS;IL;60070;8472593500
ADAMS COUNTY CIRCUIT CLERK;521 VERMONT STREET;QUINCY;IL;62301;2172772100
QUINCY POST OFFICE;3535 LOCUST STREET;QUINCY;IL;62301;2172244950
RICHTON PARK POST OFFICE;22332 GOVERNORS HIGHWAY;RICHTON PARK;IL;60471;7087481688
RIVER GROVE PUBLIC LIBRARY;8638 W. GRAND AVE.;RIVER GROVE;IL;60171;7084534484
CRAWFORD COUNTY CIRCUIT COURT;100 COURT ST;ROBINSON;IL;62454;6185443512
ROCHELLE POST OFFICE;501 LINCOLN HIGHWAY;ROCHELLE;IL;61068;8155624634
ROCK FALLS POST OFFICE;210 2ND AVE;ROCK FALLS;IL;61071;8156260514
ROCK ISLAND COUNTY CIRCUIT COURT;1317 3RD AVENUE;ROCK ISLAND;IL;61201;3095583538
ROCK ISLAND IL POST OFFICE;2633 11TH STREET;ROCK ISLAND;IL;61201;3097882142
ROCKFORD POST OFFICE;5225 HARRISON AVENUE;ROCKFORD;IL;61125;8152294850
ROMEOVILLE POST OFFICE IL;315 W ROMEO ROAD;ROMEOVILLE;IL;60446;8158869040
WHITE OAK LIBRARY DISTRICT: ROMEOVILLE BRANCH;201 W. NORMANTOWN RD.;ROMEOVILLE;IL;60446;8155524200
ROUND LAKE AREA PUBLIC LIBRARY;906 HART ROAD;ROUND LAKE;IL;60073;8475467060
ROUND LAKE POST OFFICE IL;1940 MUNICIPAL WAY;ROUND LAKE;IL;60073;8477406528
SCHUYLER COUNTY CIRCUIT COURT CLERK RUSHVILLE IL;102 S CONGRESS STREET;RUSHVILLE;IL;62681;2173224633
SALEM POST OFFICE;125 S  DELMAR AVENUE;SALEM;IL;62881;6185480503
SANDWICH POST OFFICE IL;22 N  EDDY STREET;SANDWICH;IL;60548;8157866716
SAVOY POST OFFICE;415 N DUNLAP AVENUE;SAVOY;IL;61874;2173558298
SCHAUMBURG IL POST OFFICE;450 W SCHAUMBURG ROAD;SCHAUMBURG;IL;60194;8478856501
SCHAUMBURG POST OFFICE - WOODFIELD BRANCH;1951 MCCONNOR PARKWAY;SCHAUMBURG;IL;60173;8478856501
SENECA POST OFFICE;121 E. AMOUR ST;SENECA;IL;61360;8153578393
CIRCUIT COURT CLERK SHELBYVILLE IL;301 E MAIN;SHELBYVILLE;IL;62565;2177744212
SHOREWOOD-TROY PUBLIC LIBRARY;650 DEERWOOD DRIVE;SHOREWOOD;IL;60404;8157251715
NILES TOWNSHIP IL;5255 LINCOLN AVENUE;SKOKIE;IL;60077;8476739300
SKOKIE POST OFFICE;4950 MADISON STREET;SKOKIE;IL;60076;8476762232
VILLAGE OF SKOKIE;5127 OAKTON STREET;SKOKIE;IL;60077;8479338203
SOUTH HOLLAND POST OFFICE;16260 LOUIS AVENUE;SOUTH HOLLAND;IL;60473;7083310302
SANGAMON COUNTY CIRCUIT CLERK;200 S 9TH STREET;SPRINGFIELD;IL;62701;2177536674
SPRINGFIELD DOWNTOWN POST OFFICE;411 E  MONROE;SPRINGFIELD;IL;62701;2177887480
SPRINGFIELD MAIN POST OFFICE IL;2105 E  COOK STREET;SPRINGFIELD;IL;62703;2177887223
ST CHARLES POST OFFICE IL;2600 OAK ST;ST. CHARLES;IL;60175;6304856210
STAUNTON POST OFFICE;113 S  EDWARDSVILLE STREET;STAUNTON;IL;62088;6186352676
STEGER POST OFFICE;23 W 34TH STREET;STEGER;IL;60475;7087542128
STERLING POST OFFICE;408 THIRD AVE;STERLING;IL;61081;8156250812
STERLING PUBLIC LIBRARY;102 W 3RD. STREET;STERLING;IL;61081;8156251370
VILLAGE OF STONE PARK;1825 N. 32ND AVENUE;STONE PARK;IL;60165;7083455550
POPLAR CREEK PUBLIC LIBRARY;1405 S. PARK AVENUE;STREAMWOOD;IL;60107;6304834940
STREAMWOOD POST OFFICE IL;115 E  IRVING PARK ROAD;STREAMWOOD;IL;60107;6308373500
STREATOR POST OFFICE;221 E HICKORY ST;STREATOR;IL;61364;8156722606
SUGAR GROVE POST OFFICE IL;45 E CROSS STREET;SUGAR GROVE;IL;60554;6304664386
SULLIVAN POST OFFICE;16 S. MADISON ST;SULLIVAN;IL;61951;2177287111
SUMMIT ARGO POST OFFICE IL;7415 W  63RD STREET;SUMMIT;IL;60501;7084580551
COUNTY CLERK SYCAMORE IL;110 E SYCAMORE STREET;SYCAMORE;IL;60178;8158957149
TAYLORVILLE POST OFFICE;300 SOUTH MAIN ST;TAYLORVILLE;IL;62568;2178243210
TECHNY IL POST OFFICE;2001A  WAUKEGAN ROAD;TECHNY;IL;60082;8472720258
THORNTON POST OFFICE;103 E ELEANOR STREET;THORNTON;IL;60476;7088776072
TINLEY PARK POST OFFICE;7230 W 171ST STREET;TINLEY PARK;IL;60477;7085323131
TOULON POST OFFICE;111 W. VINE ST;TOULON;IL;61483;3092866441
TROY POST OFFICE;515 EDWARDSVILLE RD;TROY;IL;62294;6186676421
TUSCOLA IL POST OFFICE;120 E SALE;TUSCOLA;IL;61953;2172533513
CHAMPAIGN COUNTY CIRCUIT CLERK;101 E  MAIN STREET;URBANA;IL;61801;2173843725
URBANA MAIN POST OFFICE;3100 EAST TATMAN COURT;URBANA;IL;61802;2173376297
VANDALIA POST OFFICE;304 S.4TH ST;VANDALIA;IL;62471;6182830328
VERNON HILLS POST OFFICE IL;675 LAKEVIEW PARKWAY;VERNON HILLS;IL;60061;8475663901
VILLAGE OF VERNON HILLS;290 EVERGREEN DRIVE;VERNON HILLS;IL;60061;8473673700
VILLA PARK POST OFFICE IL;1415 S  ARDMORE AVENUE;VILLA PARK;IL;60181;6303790534
VILLA PARK PUBLIC LIBRARY;305 S. ARDMORE AVENUE;VILLA PARK;IL;60181;6308341164
VIOLA POST OFFICE;1508 13TH ST;VIOLA;IL;61486;3095962707
CASS COUNTY TREASURER;100 E. SPRINGFIELD;VIRGINIA;IL;62691;2174522277
WARRENVILLE POST OFFICE IL;3 S 101 ROCKWELL STREET;WARRENVILLE;IL;60555;6303931109
WASCO POST OFFICE IL;40 W  514 ROUTE 64;WASCO;IL;60183;6305847299
WASHINGTON POST OFFICE;106 SOUTH HIGH STREET;WASHINGTON;IL;61571;3094444044
MONROE COUNTY CIRCUIT CLERK;100 S MAIN STREET;WATERLOO;IL;62298;6189398681
WATERLOO POST OFFICE IL;305 E.3RD STREET;WATERLOO;IL;62298;6189397317
IROQUOIS COUNTY CIRCUIT CLERK;550 S 10TH STREET;WATSEKA;IL;60970;8154326991
LAKE COUNTY CIRCUIT CLERK;18 N COUNTY STREET;WAUKEGAN;IL;60085;8473773380
WAUKEGAN POST OFFICE;326 N GENESEE STREET;WAUKEGAN;IL;60085;8476626802
WAUKEGAN TOWNSHIP;149 S GENESEE STREET;WAUKEGAN;IL;60085;8472444900
WEST CHICAGO POST OFFICE IL;1130 W WASHINGTON STREET;WEST CHICAGO;IL;60185;6302312020
WESTERN SPRINGS POST OFFICE IL;4479 LAWN AVENUE;WESTERN SPRINGS;IL;60558;7082460807
WESTMONT POST OFFICE IL;5707 S CASS AVENUE;WESTMONT;IL;60559;6309680855
DU PAGE COUNTY CIRCUIT COURT CLERK;505 N COUNTY FARM ROAD;WHEATON;IL;60187;6304078577
WHEATON POST OFFICE;122 N WHEATON AVENUE;WHEATON;IL;60187;6306683530
WHEELING POST OFFICE IL;250 W DUNDEE ROAD;WHEELING;IL;60090;8475371150
WHITE HALL POST OFFICE IL;120 S JACKSONVILLE STREET;WHITE HALL;IL;62092;2173742311
WILMETTE POST OFFICE;1241 CENTRAL AVENUE;WILMETTE;IL;60091;8472516039
WILMINGTON POST OFFICE;301 N WATER STREET;WILMINGTON;IL;60481;8154769052
WINFIELD POST OFFICE;27W525 HIGHLAKE ROAD;WINFIELD;IL;60190;6306652977
NEW TRIER TOWNSHIP;739 ELM STREET;WINNETKA;IL;60093;8474468202
WOOD DALE POST OFFICE;270  N. WOOD DALE RD;WOOD DALE;IL;60191;6307660504
WOOD RIVER POST OFFICE;161 E FERGUSON AVE;WOOD RIVER;IL;62095;6182546422
WOODRIDGE POST OFFICE IL;2 PLAZA DRIVE;WOODRIDGE;IL;60517;6305159070
MCHENRY COUNTY TREASURER;2100 N SEMINARY AVENUE;WOODSTOCK;IL;60098;8153344260
WOODSTOCK IL POST OFFICE;1050 COUNTRY CLUB ROAD;WOODSTOCK;IL;60098;8153380631
VILLAGE OF WORTH;7112 W. 111TH STREET;WORTH;IL;60482;7084481181
WORTH POST OFFICE;11114  S HARLEM AVE;WORTH;IL;60482;7083614787
YORKVILLE POST OFFICE IL;601 E. COUNTRYSIDE PKWY;YORKVILLE;IL;60560;6305537100
ZION POSTAL OFFICE;1225 SHILOH BLVD;ZION;IL;60099;8477319210
ZION TOWNSHIP;1015 27TH STREET;ZION;IL;60099;8478722811
