facilityName;streetAdress;city;state;zipCode;publicPhone
USPO - ALBANY;525 SECOND AVE. SW;ALBANY;OR;97321;5419249691
SOUTHERN OREGON UNIVERSITY;STEVENSON UNION, RM 322;ASHLAND;OR;97520;5415526336
CLATSOP COUNTY CLERK AND ELECTIONS;820 EXCHANGE STREET, STE 220;ASTORIA;OR;97103;5033258511
BAKER COUNTY CLERK;1995 THIRD ST. STE 150;BAKER CITY;OR;97814;5415238207
CITY OF BEAVERTON-FINANCE DEPARTMENT;12725 SW MILLIKAN WAY;BEAVERTON;OR;97076;5035262509
USPO - BEAVERTON;4550 SW BETTS AVE;BEAVERTON;OR;97005;5036435263
DESCHUTES COUNTY CLERK;1300 NW WALL ST, STE 202;BEND;OR;97703;5413886549
USPO - BEND;2300 NE 4TH ST.;BEND;OR;97701;5413185068
USPO - BORING;28515 SE HWY. 212;BORING;OR;97009;5036630289
HARNEY COUNTY CLERK;450 N. BUENA VISTA, #14;BURNS;OR;97720;5415736641
GRANT COUNTY CLERK;201 S. HUMBOLT, SUITE 290;CANYON CITY;OR;97820;5415751675
USPO - COOS BAY;470 GOLDEN AVE;COOS BAY;OR;97420;5412670379
USPO - COQUILLE;75 N BIRCH STREET;COQUILLE;OR;97423;5413963549
BENTON COUNTY COURTHOUSE;120 NW 4TH ST. RM 13;CORVALLIS;OR;97330;5417666756
USPO - CORVALLIS;311 SW 2ND ST.;CORVALLIS;OR;97333;5417524358
USPO - DALLAS;768 SW CHURCH ST.;DALLAS;OR;97338;5036233835
USPO - DUNDEE;279 SW 5TH ST.;DUNDEE;OR;97115;5035388250
WALLOWA COUNTY CLERK;101 S. RIVER, RM 100;ENTERPRISE;OR;97828;5414264543
USPO - ESTACADA;205 SW 2ND AVE.;ESTACADA;OR;97023;5036304874
UNIVERSITY OF OREGON-UO TICKET OFFICE;1395 UNIVERSITY STREET;EUGENE;OR;97403;5413464363
USPO - EUGENE;520 WILLAMETTE STREET;EUGENE;OR;97401;5413413601
CITY OF FOREST GROVE;1924 COUNCIL STREET;FOREST GROVE;OR;97116;5039923221
WHEELER COUNTY;401 FOURTH ST;FOSSIL;OR;97830;5417632912
CURRY COUNTY CLERK;29821 ELLENSBURG AVE;GOLD BEACH;OR;97444;5412473295
JOSEPHINE COUNTY CLERKS OFFICE;500 NW. 6TH ST. STE 170;GRANTS PASS;OR;97526;5414745240
CITY OF GRESHAM;1333 NW EASTMAN PARKWAY;GRESHAM;OR;97030;5036182619
CITY OF HAPPY VALLEY;16000 SE MISTY DR;HAPPY VALLEY;OR;97086;5037833800
USPO - HARRISBURG;204 SMITH ST.;HARRISBURG;OR;97446;5419951003
MORROW COUNTY CLERK;100  S. COURT ST. RM 102;HEPPNER;OR;97836;5416765604
USPO - HERMISTON;375 W. ORCHARD AVE;HERMISTON;OR;97838;5415647921
USPO - HILLSBORO;125 S. 1ST AVE;HILLSBORO;OR;97123;5036152825
WASHINGTON COUNTY ASSESSMENT AND TAXATION;155 N 1ST AVE;HILLSBORO;OR;97124;5038468741
HOOD RIVER COUNTY;601 STATE ST.;HOOD RIVER;OR;97031;5413861442
USPO - INDEPENDENCE;216 S. 2ND ST.;INDEPENDENCE;OR;97351;5038385207
CITY OF KING CITY;15300 SW 116TH AVE;KING CITY;OR;97224;5036394082
KLAMATH COUNTY CLERK;305 MAIN ST.;KLAMATH FALLS;OR;97601;5418835134
USPO - KLAMATH FALLS;317 S. 7TH ST;KLAMATH FALLS;OR;97601;5418849846
UNION COUNTY CLERK AND RECORDER;1001 - 4TH ST, STE D;LA GRANDE;OR;97850;5419631006
CITY OF LAKE OSWEGO;380 A AVE.;LAKE OSWEGO;OR;97034;5036350260
LAKE COUNTY CLERK;513 CENTER ST;LAKEVIEW;OR;97630;5419476006
JEFFERSON COUNTY CLERKS OFFICE;66 SE D ST., SUITE C;MADRAS;OR;97741;5414754451
USPO MARCOLA;92162 MARCOLA RD;MARCOLA;OR;97454;5419332821
YAMHILL COUNTY CLERK;414 NE EVANS ST.;MCMINNVILLE;OR;97128;5034347518
USPO - MEDFORD;325 S. RIVERSIDE AVE;MEDFORD;OR;97501;5412458540
USPO - MILTON - FREEWATER;109 W. BROADWAY AVE;MILTON-FREEWATER;OR;97862;5419382744
SHERMAN COUNTY CLERKS OFFICE;500 COURT STREET;MORO;OR;97039;5415653606
LINCOLN COUNTY CLERK;225 W. OLIVE ST, ROOM 201;NEWPORT;OR;97365;5412654131
USPO - ONTARIO;88 SW 2ND AVE;ONTARIO;OR;97914;5418896692
CLACKAMAS COUNTY RECORDS MANAGEMENT;1810 RED SOILS CT, STE 120;OREGON CITY;OR;97045;5036558323
USPO - OREGON CITY;19300 MOLALLA AVE.;OREGON CITY;OR;97045;5037222086
UMATILLA COUNTY RECORDS;216 SE 4TH STREET, ROOM 106;PENDLETON;OR;97801;5412786236
USPO PENDLETON;104 SW DORION AVE;PENDLETON;OR;97801;5412784053
MULTNOMAH COUNTY (D.A.R.T.);501 SE HAWTHORNE BLVD, #175;PORTLAND;OR;97214;5039883326
USPO - EAST PORTLAND STATION;1020 SE 7TH AVE.;PORTLAND;OR;97214;5032346182
USPO - MIDWAY;400 SE 103RD DR;PORTLAND;OR;97216;5032512609
USPO - MULTNOMAH STATION;7805 SW 40TH AVE;PORTLAND;OR;97219;5034523112
USPO - PORTLAND;715 NW HOYT ST.;PORTLAND;OR;97208;5032942399
USPO - WATERFRONT;101 SW MADISON;PORTLAND;OR;97204;5032275697
CROOK COUNTY CLERK;300 NE THIRD ST. RM # 23;PRINEVILLE;OR;97754;5414476553
USPO - REDMOND;618 NW HEMLOCK AVE;REDMOND;OR;97756;5419230829
USPO - ROGUE RIVER;522 E. MAIN ST.;ROGUE RIVER;OR;97537;5415829747
USPO - ROSEBURG;519 SE KANE;ROSEBURG;OR;97470;5416733620
MARION COUNTY CLERK;555 COURT ST NE, RM 2130;SALEM;OR;97301;5035885226
USPO - SALEM;1050 25TH ST SE;SALEM;OR;97301;5033704750
USPO - SISTERS;694 N. LARCH ST.;SISTERS;OR;97759;5415490412
USPO - GATEWAY;3148 GATEWAY STREET;SPRINGFIELD;OR;97477;5413413696
COLUMBIA COUNTY CLERKS OFFICE;230 STRAND STREET;ST. HELENS;OR;97051;5033973796
USPO - SUBLIMITY;211 NW STARR ST.;SUBLIMITY;OR;97385;5037695526
CITY OF SWEET HOME;3225 MAIN STREET;SWEET HOME;OR;97386;5413675128
USPO - TERREBONNE;8080 11TH ST.;TERREBONNE;OR;97760;5415049422
USPO - THE DALLES;101 W. 2ND ST;THE DALLES;OR;97058;5412961065
TILLAMOOK COUNTY CLERK;201 LAUREL AVE.;TILLAMOOK;OR;97141;5038423402
CITY OF TUALATIN;18880 SW MARTINAZZI AVE;TUALATIN;OR;97062;5036922000
MALHEUR COUNTY CLERK;251 B ST. W. STE 4;VALE;OR;97918;5414735151
USPO - VENETA;25042 DUNHAM AVE.;VENETA;OR;97487;5419359533
USPO - WALDPORT;165 NW JOHN ST;WALDPORT;OR;97394;5415637396
USPO - WARRENTON;99 N. MAIN AVE.;WARRENTON;OR;97146;5038617035
USPO WESTLAKE;82853 LAKE BLVD;WESTLAKE;OR;97493;5419978678
USPO - WILSONVILLE;29333 SW TOWN CENTER LOOP EAST;WILSONVILLE;OR;97070;5035707703
