facilityName;streetAdress;city;state;zipCode;publicPhone
ACCORD POST OFFICE;30 MAIN STREET;ACCORD;NY;12404;8456265881
ADAMS POST OFFICE;27 E CHURCH STREET;ADAMS;NY;13605;3152322312
ADDISON POST OFFICE;150 FRONT ST;ADDISON;NY;14801;6073592136
AKRON POST OFFICE;118 MAIN STREET;AKRON;NY;14001;7165429756
ALBANY CITY CLERK;24 EAGLE ST.;ALBANY;NY;12207;5184345092
ALBANY COUNTY CLERK OF COURT;16 EAGLE ST;ALBANY;NY;12207;5184875102
ALBANY GMF POST OFFICE;30 KARNER RD;ALBANY;NY;12288;5184522286
PINE HILLS BRANCH - ALBANY PUBLIC LIBRARY;517 WESTERN AVE.;ALBANY;NY;12203;5184827911
ALBERTSON POST OFFICE;860 WILLIS AVENUE;ALBERTSON;NY;11507;5167463512
ALBION POST OFFICE;8 SOUTH MAIN STREET;ALBION;NY;14411;5855895928
ORLEANS COUNTY CLERK OF COURT;3 SOUTH MAIN STREETCOURT HOUSE SQUARE;ALBION;NY;14411;5855895334
ALDEN POST OFFICE;13127 BROADWAY ST;ALDEN;NY;14004;7169376020
ALEXANDRIA BAY POST OFFICE;13 BETHUNE STREET;ALEXANDRIA BAY;NY;13607;3154829521
ALFRED POST OFFICE;63 N MAIN ST;ALFRED;NY;14802;6075878449
ALTAMONT POST OFFICE;108 PARK ST;ALTAMONT;NY;12009;5188616953
AMAGANSETT MAIN POST OFFICE;501 MONTAUK HIGHWAY;AMAGANSETT;NY;11930;6312672804
AMENIA POST OFFICE;3296 ROUTE 343;AMENIA;NY;12501;8453739306
AMHERST BRANCH POST OFFICE;5500 NORTH BAILEY AVENUE;AMHERST;NY;14226;7168318651
AMITYVILLE POST OFFICE;77 IRELAND PLACE;AMITYVILLE;NY;11701;6312643532
TOWN OF EVANS;8787 ERIE ROAD;ANGOLA;NY;14006;7165495755
ARCADE POST OFFICE;23 EDWARD STREET;ARCADE;NY;14009;5854965377
ARDSLEY POST OFFICE;875 SAW MILL RIVER ROAD;ARDSLEY;NY;10502;9146930476
ARDSLEY - ON - HUDSON POST OFFICE;110 ARDSLEY AVE. WEST WESTCHESTER CO;ARDSLEY-ON-HUDSON;NY;10503;9145917299
ARVERNE POST OFFICE;329 B 59TH STREET;ARVERNE;NY;11692;7184746973
ATLANTIC BEACH POST OFFICE;2009 PARK STREET;ATLANTIC BEACH;NY;11509;5162391178
ATTICA POST OFFICE;76 MAIN STREET;ATTICA;NY;14011;5855910900
AUBURN POST OFFICE;1 JAMES STREET;AUBURN;NY;13021;3152529554
CAYUGA COUNTY CLERK;160 GENESEE STREET;AUBURN;NY;13021;3152531271
AVON POST OFFICE;80 PROSPECT ST;AVON;NY;14414;5852263550
BALDWIN POST OFFICE;2260 GRAND AVENUE;BALDWIN;NY;11510;5162235024
BALDWIN PUBLIC LIBRARY;2385 GRAND AVENUE;BALDWIN;NY;11510;5162236228
BALDWINSVILLE POST OFFICE;26 E GENESEE ST.;BALDWINSVILLE;NY;13027;3156355241
LYSANDER TOWN CLERK;8220 LOOP RD;BALDWINSVILLE;NY;13027;3156380224
VAN BUREN TOWN CLERK;7575 VAN BUREN ROAD;BALDWINSVILLE;NY;13027;3156353010
SARATOGA COUNTY CLERKS OFFICE;40 MCMASTER ST;BALLSTON SPA;NY;12020;5188852213
SOMERSET TOWN CLERK;8700 HAIGHT ROAD TOWN OF SOMERSET;BARKER;NY;14012;7167953575
BATAVIA POST OFFICE;2 W MAIN ST;BATAVIA;NY;14020;5853430491
GENESEE COUNTY CLERK OF COURT;15 MAIN STREET;BATAVIA;NY;14020;5858157802
STEUBEN COUNTY CLERK OF COURT;3 EAST PULTENEY SQUARE;BATH;NY;14810;6076642564
BAY SHORE POST OFFICE;1314 FIFTH AVENUE;BAY SHORE;NY;11706;6319693504
QUEENSBOROUGH COMMUNITY COLLEGE;222-05 56TH AVENUE;BAYSIDE;NY;11364;7186316265
BEACON POST OFFICE;369 MAIN STREET;BEACON;NY;12508;8458314372
BELLMORE POST OFFICE;2611 MERRICK ROAD;BELLMORE;NY;11710;5167818111
BELLPORT MAIN POST OFFICE;26 STATION ROAD;BELLPORT;NY;11713;6312868561
ALLEGANY COUNTY CLERK;7 COURT STREET;BELMONT;NY;14813;5852689270
BETHPAGE POST OFFICE;339 HICKSVILLE ROAD;BETHPAGE;NY;11714;5169383901
BINGHAMTON POST OFFICE;115 HENRY STREET;BINGHAMTON;NY;13902;6077732385
BROOME COUNTY CLERKS OFFICE;44 HAWLEY STREET;BINGHAMTON;NY;13901;6077782255
BLACK RIVER POST OFFICE;28553 STATE ROUTE 3;BLACK RIVER;NY;13612;3157735000
BLAUVELT POST OFFICE;545 WESTERN HIGHWAY;BLAUVELT;NY;10913;8453593477
BLOOMFIELD POST OFFICE;2 ELM STREET;BLOOMFIELD;NY;14469;5856577225
BAYPORT-BLUE POINT LIBRARY;203 BLUE POINT AVENUE;BLUE POINT;NY;11715;6313636133
BOHEMIA POST OFFICE;200 ORVILLE DRIVE;BOHEMIA;NY;11716;6315892487
CONNETQUOT PUBLIC LIBRARY;760 OCEAN AVENUE;BOHEMIA;NY;11716;6315675079
BOONVILLE POST OFFICE;100 MAIN STREET;BOONVILLE;NY;13309;3159424816
BOWMANSVILLE POST OFFICE;515 HARRIS HILL ROAD;BOWMANSVILLE;NY;14026;7166851390
BRENTWOOD POST OFFICE;25 SECOND AVENUE;BRENTWOOD;NY;11717;6312730947
BREWERTON POST OFFICE;5560 BARTEL ROAD;BREWETON;NY;13029;3156767790
BREWSTER POST OFFICE;3 MOUNT EBO ROAD NORTH;BREWSTER;NY;10509;8452798022
BRIARCLIFF MANOR POST OFFICE;1077 PLEASANTVILLE RD;BRIARCLIFF MANOR;NY;10510;9149416177
THE HAMPTON LIBRARY IN BRIDGEHAMPTON;2478 MAIN STREET (MONTAUK HIGHWAY);BRIDGEHAMPTON;NY;11932;6315370015
BROCKPORT POST OFFICE;14 SOUTH MAIN STREET;BROCKPORT;NY;14420;5856374400
BRONX COUNTY CLERK;851 GRAND CONCOURSE, ROOM 118;BRONX;NY;10451;7186183302
BRONX GPO;558 GRAND CONCOURSE;BRONX;NY;10451;7184022330
CITY ISLAND STATION;199 CITY ISLAND AVENUE;BRONX;NY;10464;7188853153
CORNELL STATION;1950 LAFAYETTE AVENUE;BRONX;NY;10473;7188927054
FORDHAM POST OFFICE;465 EAST 188TH STREET;BRONX;NY;10458;7185843577
HUNTS POINT;800 MANIDA STREET;BRONX;NY;10474;7189911586
KINGSBRIDGE STATION;5517 BROADWAY;BRONX;NY;10463;7185496962
MOTT HAVEN STATION;517 EAST 139TH STREET;BRONX;NY;10454;7185859611
PARKCHESTER STATION;1449 WEST AVENUE;BRONX;NY;10462;7188920557
RIVERDALE STATION;5951 RIVERDALE AVENUE;BRONX;NY;10471;7185497952
THROGGS NECK POST OFFICE;3630 EAST TREMONT AVENUE;BRONX;NY;10465;7188223851
WEST FARMS STATION;362 DEVOE AVENUE;BRONX;NY;10460;7188231245
WESTCHESTER STATION;2619 PONTON AVENUE;BRONX;NY;10461;7188234013
WOODLAWN STATION;4364 KATONAH AVENUE;BRONX;NY;10470;7183243838
ADELPHI STATION;950 FULTON ST;BROOKLYN;NY;11238;7187832444
BATH BEACH POST OFFICE;1865 BENSON AVENUE;BROOKLYN;NY;11214;7182367197
BAY RIDGE STATION POST OFFICE;5501 7TH AVENUE;BROOKLYN;NY;11220;7184350642
BAY STATION;2628 EAST 18TH STREET;BROOKLYN;NY;11235;7187438210
BLYTHBOURNE STATION;1200 51ST STREET;BROOKLYN;NY;11219;7184361675
BREVOORT STATION;1205 ATLANTIC AVENUE;BROOKLYN;NY;11216;7188573714
BROOKLYN PUBLIC LIBRARY;10 GRAND ARMY PLAZA;BROOKLYN;NY;11238;7182302292
BROOKLYN PUBLIC LIBRARY - ARLINGTON;203 ARLINGTON AVENUE;BROOKLYN;NY;11207;7182302293
BROOKLYN PUBLIC LIBRARY - KINGS HIGHWAY;2115 OCEAN AVENUE;BROOKLYN;NY;11229;7183753037
BROWNSVILLE POST OFFICE;167 BRISTOL STREET;BROOKLYN;NY;11212;3477500646
BUSH TERMINAL STATION;900 3RD AVENUE;BROOKLYN;NY;11232;7187883452
BUSHWICK STATION;1369 BROADWAY;BROOKLYN;NY;11221;7186023111
CADMAN PLAZA/BROOKLYN GENERAL POST OFFICE;271 CADMAN PLAZA EAST;BROOKLYN;NY;11201;7188550292
CANARSIE PASSPORT SECTION;102-01 FLATLANDS AVENUE;BROOKLYN;NY;11236;7186494062
CONEY ISLAND STATION;2727 MERMAID AVENUE;BROOKLYN;NY;11224;7182269030
DYKER HEIGHTS STATION;8320 13TH AVENUE;BROOKLYN;NY;11228;7188331758
EAST NEW YORK STATION;2645 ATLANTIC AVENUE;BROOKLYN;NY;11207;7185343570
FLATBUSH STATION POST OFFICE;2273 CHURCH AVENUE;BROOKLYN;NY;11226;3472941069
FORT HAMILTON STATION;8801 5TH AVE;BROOKLYN;NY;11209;7188335073
GRAVESEND STATION;344 AVENUE U;BROOKLYN;NY;11223;7184498738
GREENPOINT STATION;66 MESEROLE AVENUE;BROOKLYN;NY;11222;7183895679
HOMECREST FINANCE STATION;2302 AVENUE U;BROOKLYN;NY;11229;7188917533
JAMES E DAVIS STATION (LEFFERTS);315 EMPIRE BOULEVARD;BROOKLYN;NY;11225;7187732438
KINGS COUNTY CLERK;360 ADAMS ST;BROOKLYN;NY;11201;3474049760
METROPOLITAN STATION POST OFFICE;47 DEBEVOISE STREET;BROOKLYN;NY;11206;3472721755
MIDWOOD POST OFFICE;1288 CONEY ISLAND AVENUE;BROOKLYN;NY;11230;3475788835
NEW LOTS STATION;1223 SUTTER AVENUE;BROOKLYN;NY;11208;7182270217
PRATT STATION;609 MYRTLE AVENUE;BROOKLYN;NY;11205;7183992395
RED HOOK STATION POST OFFICE;615 CLINTON STREET;BROOKLYN;NY;11231;7186247247
RUGBY POST OFFICE;726 UTICA AVE;BROOKLYN;NY;11203;7182721735
RYDER RETAIL STATION;2222 FLATBUSH AVENUE;BROOKLYN;NY;11234;7183385982
TIMES PLAZA POST OFFICE;539 ATLANTIC AVENUE;BROOKLYN;NY;11217;7187971516
VAN BRUNT STATION;275 9TH STREET;BROOKLYN;NY;11215;7187681284
WILLIAMSBURG STATION;263 SOUTH FOURTH STREET;BROOKLYN;NY;11211;7183877605
WYCKOFF POST OFFICE;86 WYCKOFF AVENUE;BROOKLYN;NY;11237;7183863629
BUFFALO CAYUGA BRANCH;285 CAYUGA ROAD;BUFFALO;NY;14241;7166313531
BUFFALO NIAGARA SQ STATION POST OFFICE;229 W GENESEE STREET;BUFFALO;NY;14202;7168564601
BUFFALO POST OFFICE MAIN OFFICE WINDOW;1200 WILLIAM STREET;BUFFALO;NY;14240;7168462301
BUFFALO WEST SIDE STATION POST OFFICE;465 GRANT STREET;BUFFALO;NY;14213;7168838032
CENTRAL PARK POST OFFICE;170 MANHATTAN AVE;BUFFALO;NY;14215;7168343215
ERIE COUNTY CLERK OF COURT - BUFFALO;92 FRANKLIN ST.;BUFFALO;NY;14202;7168588785
NORTHSIDE STATION;725 HERTEL AVE;BUFFALO;NY;14207;7168747007
UB LAW LIBRARY;211 OBRIEN HALL;BUFFALO;NY;14260;7166452204
CAIRO POST OFFICE;540 MAIN STREET;CAIRO;NY;12413;5186229766
CALLICOON POST OFFICE;13 RIVER ROAD;CALLICOON;NY;12723;8458876810
CALVERTON POST OFFICE;3690 MIDDLE COUNTRY ROAD;CALVERTON;NY;11933;6317270067
CAMBRIDGE POST OFFICE;51 EAST MAIN ST;CAMBRIDGE;NY;12816;5186773585
CAMDEN POST OFFICE;100 MAIN STREET;CAMDEN;NY;13316;3152450430
CAMILLUS POST OFFICE;120 KASSON ROAD;CAMILLUS;NY;13031;3154879097
CANANDAIGUA POST OFFICE;405 EASTERN BLVD;CANANDAIGUA;NY;14424;5853941500
ONTARIO COUNTY CLERK OF COURT;20 ONTARIO STREET;CANANDAIGUA;NY;14424;5853964206
CANASTOTA POST OFFICE;118 S PETERBORO STREET;CANASTOTA;NY;13032;3156977717
CANISTEO POST OFFICE;6 DEPOT ST;CANISTEO;NY;14823;6076984081
CANTON POST OFFICE;100 MAIN ST;CANTON;NY;13617;3153864502
ST LAWRENCE COUNTY CLERKS OFFICE;48 COURT STREET;CANTON;NY;13617;3153792237
CARLE PLACE POST OFFICE;309 WESTBURY AVENUE;CARLE PLACE;NY;11514;5163333147
PUTNAM COUNTY CLERK;40 GLENEIDA AVENUE;CARMEL;NY;10512;8458081142
CARTHAGE POST OFFICE;521 STATE ST;CARTHAGE;NY;13619;3154933600
SCHODACK TOWN CLERK;265 SCHUURMAN ROAD;CASTLETON;NY;12033;5184777590
GREENE COUNTY CLERK;411 MAIN STREET;CATSKILL;NY;12414;5187193255
CEDARHURST POST OFFICE;124 GROVE AVENUE;CEDARHURST;NY;11516;5162951452
CENTER MORICHES FREE PUBLIC LIBRARY;235 MAIN STREET;CENTER MORICHES;NY;11934;6318780940
CENTEREACH POST OFFICE;245 CENTEREACH MALL;CENTEREACH;NY;11720;6315889176
MIDDLE COUNTRY PUBLIC LIBRARY;101 EASTWOOD BLVD;CENTEREACH;NY;11720;6315859393
CENTRAL ISLIP POST OFFICE;110 EAST SUFFOLK AVENUE;CENTRAL ISLIP;NY;11722;6312340547
USPS FEDERAL COURT HOUSE;101 FEDERAL PLAZA;CENTRAL ISLIP;NY;11722;6317876000
CENTRAL VALLEY MPO;28 SMITH CLOVE ROAD;CENTRAL VALLEY;NY;10917;8459286016
CHAMPLAIN POST OFFICE;880 STATE ROUTE 11;CHAMPLAIN;NY;12919;5182983341
CHAPPAQUA POST OFFICE;107 N. GREELEY AVE.;CHAPPAQUA;NY;10514;9142387592
CHATEAUGAY POST OFFICE;19 RIVER ST;CHATEAUGAY;NY;12920;5184976012
CHATHAM POST OFFICE;35 RAILROAD AVENUE;CHATHAM;NY;12037;5183923961
CHAUTAUQUA POST OFFICE;10-12 ROBERTS AVENUE;CHAUTAUQUA;NY;14722;7163573275
CHEEKTOWAGA BRANCH POST OFFICE;125 GALLERIA DRIVE;CHEEKTOWAGA;NY;14225;7166814523
CHEEKTOWAGA TOWN CLERK;3301 BROADWAY STREET;CHEEKTOWAGA;NY;14227;7166867431
CHESTER POST OFFICE;76 BROOKSIDE AVENUE;CHESTER;NY;10918;8454692106
CHESTER PUBLIC LIBRARY;1784 KINGS HWY;CHESTER;NY;10918;8454694252
VILLAGE OF CHURCHVILLE;23 EAST BUFFALO STREET;CHURCHVILLE;NY;14428;5852933720
CLARENCE POST OFFICE;9845 MAIN STREET;CLARENCE;NY;14031;7167591243
CLARKSON TOWN CLERK;3710 LAKE ROAD;CLARKSON;NY;14420;5856371130
CICERO - CLAY POST OFFICE;5601 STATE RT. 31;CLAY;NY;13041;3156995721
CLAY TOWN CLERK;4401 STATE ROUTE 31;CLAY;NY;13041;3156523800
CLAYTON POST OFFICE;236 JOHN ST;CLAYTON;NY;13624;3156863311
HALFMOON POST OFFICE;2 PROGRESS DR;CLIFTON PARK;NY;12065;5183715460
CLINTON POST OFFICE;40 COLLEGE STREET;CLINTON;NY;13323;3158532033
CLYMER POST OFFICE;8727 EAST MAIN STREET;CLYMER;NY;14724;7163554443
BUTTERFIELD LIBRARY;10 MORRIS AVENUE;COLD SPRING;NY;10516;8452653040
COLD SPRING POST OFFICE;51 CHESTNUT STREET;COLD SPRING;NY;10516;8452653486
COLDEN TOWN CLERK;8812 STATE ROAD;COLDEN;NY;14033;7169415012
COMMACK POST OFFICE;150 VETERANS MEMORIAL HIGHWAY;COMMACK;NY;11725;6315433647
COOPERSTOWN POST OFFICE;40 MAIN ST;COOPERSTOWN;NY;13326;6075472311
COPIAGUE MEMORIAL PUBLIC LIBRARY;50 DEAUVILL BLVD.;COPIAGUE;NY;11726;6316911111
CORAM POST OFFICE;117 PAULS PATH;CORAM;NY;11727;6317328691
CORNING POST OFFICE;198 BAKER STREET;CORNING;NY;14830;6079366132
CORNWALL POST OFFICE;33 QUAKER AVE;CORNWALL;NY;12518;8455349801
CORTLAND COUNTY CLERK;46 GREENBUSH STREET;CORTLAND;NY;13045;6077535021
CORTLAND POST OFFICE;88 MAIN STREET;CORTLAND;NY;13045;6077530266
CROGHAN POST OFFICE;6915 BANK STREET;CROGHAN;NY;13327;3153466012
CROSS RIVER POST OFFICE;20 SHOPPING PLAZA;CROSS RIVER;NY;10518;9147633798
CROTON FALLS POST OFFICE;8 FRONT ST;CROTON FALLS;NY;10519;9142771427
CROTON - ON - HUDSON POST OFFICE;50 MAPLE STREET;CROTON-ON-HUDSON;NY;10520;9142717589
CUTCHOGUE NEW SUFFOLK FREE LIBRARY;27550 MAIN ROAD;CUTCHOGUE;NY;11935;6317346360
CUTCHOGUE POST OFFICE;240 GRIFFING STREET;CUTCHOGUE;NY;11935;6317346032
DANNEMORA POST OFFICE;1079 COOK STREET;DANNEMORA;NY;12929;5184927115
DANSVILLE POST OFFICE;116 MAIN STREET;DANSVILLE;NY;14437;5853352720
DEER PARK POST OFFICE;375 CARLLS PATH;DEER PARK;NY;11729;6316676490
DELAWARE COUNTY CLERK;3 COURT STREET;DELHI;NY;13753;6078325700
DELMAR POST OFFICE;357 DELAWARE AVE;DELMAR;NY;12054;5184391933
DEPEW POST OFFICE;165 WARSAW ST;DEPEW;NY;14043;7166832656
DERBY POST OFFICE;7350 ERIE ROAD;DERBY;NY;14047;7169475550
SYRACUSE POST OFFICE DEWITT STATION;6581 KINNE ROAD;DEWITT;NY;13214;3154451645
DOBBS FERRY POST OFFICE;120 MAIN STREET;DOBBS FERRY;NY;10522;9146930451
DOBBS FERRY PUBLIC LIBRARY;55 MAIN STREET;DOBBS FERRY;NY;10522;9146936614
DOVER PLAINS POST OFFICE;3042 ROUTE 22;DOVER PLAINS;NY;12522;8458776953
DRYDEN TOWN HALL;93 EAST MAIN ST;DRYDEN;NY;13053;6078448888
DUNKIRK POST OFFICE;410 CENTRAL AVE;DUNKIRK;NY;14048;7163661780
EAST AMHERST POST OFFICE;9630 TRANSIT ROAD;EAST AMHERST;NY;14051;7166889595
EAST AURORA POST OFFICE;408 QUAKER RD;EAST AURORA;NY;14052;7166520172
EAST GREENBUSH POST OFFICE;10 GREENWOOD DR;EAST GREENBUSH;NY;12061;5184775212
EAST HAMPTON POST OFFICE;12 GAY ROAD;EAST HAMPTON;NY;11937;6313246320
INCORPORATED VILLAGE OF EAST HILLS;209 HARBOR HILL ROAD;EAST HILLS;NY;11576;5166215600
EAST ISLIP POST OFFICE;11 GREENWOOD AVENUE;EAST ISLIP;NY;11730;6315814801
EAST MEADOW POST OFFICE;446 EAST MEADOW AVENUE;EAST MEADOW;NY;11554;5167944509
EAST NORTHPORT POST OFFICE;297 LARKFIELD ROAD;EAST NORTHPORT;NY;11731;6313685632
EAST QUOGUE POST OFFICE;6 BAY AVENUE;EAST QUOGUE;NY;11942;6316535247
EAST ROCHESTER POST OFFICE;206 WEST COMMERCIAL ST;EAST ROCHESTER;NY;14445;5855862978
EAST SETAUKET POST OFFICE;450 ROUTE 25A;EAST SETAUKET;NY;11733;6319414005
DEWITT TOWN CLERK;5400 BUTTERNUT DRIVE;EAST SYRACUSE;NY;13057;3154463826
EAST SYRACUSE POST OFFICE;404 W MANLIUS STREET;EAST SYRACUSE;NY;13057;3154372113
EDEN POST OFFICE;8230 NORTH MAIN ST;EDEN;NY;14057;7169923875
ESSEX COUNTY CLERK;7559 COURT STREET;ELIZABETHTOWN;NY;12932;5188733600
ELLENVILLE POST OFFICE;1 LIBERTY SQUARE;ELLENVILLE;NY;12428;8456479584
CHEMUNG COUNTY CLERK OF COURT;210 LAKE STREET;ELMIRA;NY;14901;6077372920
ELMIRA POST OFFICE;255 CLEMENS CENTER PARKWAY;ELMIRA;NY;14901;6077347251
ENDICOTT POST OFFICE;200 WASHINGTON AVE.;ENDICOTT;NY;13760;6077488207
FABIUS TOWN CLERK;7786 MAIN STREET;FABIUS;NY;13063;3156835215
FAIRPORT POST OFFICE;770 AYRAULT RD.;FAIRPORT;NY;14450;5852239650
PERINTON TOWN HALL;1350 TURK HILL RD;FAIRPORT;NY;14450;5852230770
FAR ROCKAWAY MPO;1836 MOTT AVENUE;FAR ROCKAWAY;NY;11691;7183277701
ROCKAWAY BEACH STATION;90-14 ROCKAWAY BEACH BOULEVARD;FAR ROCKAWAY;NY;11693;7186344075
FARMINGDALE POST OFFICE;380 MAIN STREET;FARMINGDALE;NY;11735;5162491552
FARMINGTON BRANCH CANANDAIGUA POST OFFICE;1560 STATE ROUTE 332;FARMINGTON;NY;14425;5853983830
FARMINGVILLE POST OFFICE;500 HORSEBLOCK ROAD;FARMINGVILLE;NY;11738;6317328625
FAYETTEVILLE POST OFFICE;599 E GENESEE ST.;FAYETTEVILLE;NY;13066;3156376761
MANLIUS TOWN CLERK;301 BROOKLEA DRIVE;FAYETTEVILLE;NY;13066;3156373521
FLORAL PARK POST OFFICE;35 TULIP AVENUE;FLORAL PARK;NY;11001;5164376621
FLORIDA POST OFFICE;15 EDWARD J. LEMPKA DRIVE;FLORIDA;NY;10921;8456510044
FLUSHING MAIN POST OFFICE;41-65 MAIN STREET;FLUSHING;NY;11355;7183216898
JACKSON HEIGHTS;78-02 37TH AVENUE;FLUSHING;NY;11372;7188038461
MONTGOMERY COUNTY CLERKS OFFICE;64 BROADWAY;FONDA;NY;12068;5188538111
FOREST HILLS POST OFFICE;106-28 QUEENS BOULEVARD;FOREST HILLS;NY;11375;7182633165
FORT DRUM POST OFFICE;10720 MT. BELVEDERE BLVD;FORT DRUM;NY;13602;3157725220
WASHINGTON COUNTY CLERK OF COURT;383 BROADWAY;FORT EDWARD;NY;12828;5187462170
FORT MONTGOMERY POST OFFICE;130 FIREFIGHTERS MEMORIAL DRIVE;FORT MONTGOMERY;NY;10922;8454468459
FRANKLIN SQUARE STATION;867 HEMPSTEAD TURNPIKE;FRANKLIN SQUARE;NY;11010;5163526411
FREDONIA POST OFFICE;21 DAY STREET;FREDONIA;NY;14063;7166726756
FREEPORT POST OFFICE;132 WEST MERRICK ROAD;FREEPORT;NY;11520;5163786512
FREEVILLE POST OFFICE;46 MAIN ST;FREEVILLE;NY;13068;6078448410
FULTON POST OFFICE;214 SOUTH FIRST STREET;FULTON;NY;13069;3155927158
GARDEN CITY POST OFFICE;600 FRANKLIN AVENUE;GARDEN CITY;NY;11530;5167472201
ROOSEVELT FIELD POST OFFICE (MALL);630 OLD COUNTRY ROAD, UNIT 507;GARDEN CITY;NY;11530;5167461394
WESTERN NASSAU POST OFFICE;830 STEWART AVENUE;GARDEN CITY;NY;11599;5162287592
GENESEO POST OFFICE;13 SOUTH STREET;GENESEO;NY;14454;5852432000
LIVINGSTON COUNTY CLERK OF COURT;6 COURT STREET, ROOM 201;GENESEO;NY;14454;5852437010
GENEVA POST OFFICE;67 CASTLE STREET;GENEVA;NY;14456;3157890922
GETZVILLE POST OFFICE;2655 MILLERSPORT HIGHWAY;GETZVILLE;NY;14068;7166898874
GLEN COVE POST OFFICE;2 GLEN COVE AVENUE;GLEN COVE;NY;11542;5166711713
GLEN HEAD POST OFFICE;240 GLEN HEAD ROAD - SUITE 1;GLEN HEAD;NY;11545;5166768465
GLENS FALLS POST OFFICE;16 HUDSON AVENUE;GLENS FALLS;NY;12801;5187454525
GLOVERSVILLE POST OFFICE;115 NORTH MAIN ST;GLOVERSVILLE;NY;12078;5187251214
GOLDENS BRIDGE POST OFFICE;104 NORTH COUNTY SHOPPING CENTER;GOLDENS BRIDGE;NY;10526;9142328036
ORANGE COUNTY CLERK;255 MAIN STREET;GOSHEN;NY;10924;8452912698
GOUVERNEUR POST OFFICE;35 GROVE ST;GOUVERNEUR;NY;13642;3152870520
GOWANDA POST OFFICE;63 W MAIN ST;GOWANDA;NY;14070;7165325163
GRAHAMSVILLE POST OFFICE;215 MAIN STREET;GRAHAMSVILLE;NY;12740;8459857735
GRAND ISLAND POST OFFICE;2391 BASELINE ROAD;GRAND ISLAND;NY;14072;7164046036
GRAND ISLAND TOWN CLERK;2255 BASELINE ROAD;GRAND ISLAND;NY;14072;7167739600
GREAT NECK POST OFFICE;1 WELWYN ROAD;GREAT NECK;NY;11021;5164825013
INCORPORATED VILLAGE OF RUSSELL GARDENS;6 TAIN DRIVE;GREAT NECK;NY;11021;5164828246
GREENLAWN POST OFFICE;55 BROADWAY;GREENLAWN;NY;11740;6312616437
GREENPORT POST OFFICE;131 FRONT STREET;GREENPORT;NY;11944;6314771493
HAMBURG POST OFFICE;5501 CAMP ROAD;HAMBURG;NY;14075;7166491631
HAMBURG TOWN CLERK;6100 SOUTH PARK AVENUE;HAMBURG;NY;14075;7166496111
HAMILTON POST OFFICE;32 BROAD STREET;HAMILTON;NY;13346;3158242350
HAMLIN TOWN CLERK;1658 LAKE ROAD;HAMLIN;NY;14464;5859642421
HARRISON POST OFFICE;258 HALSTEAD AVE;HARRISON;NY;10528;9148354937
HEMPSTEAD POST OFFICE;200 FULTON AVENUE;HEMPSTEAD;NY;11550;5165601120
HEMPSTEAD TOWN CLERK;ONE WASHINGTON STREET;HEMPSTEAD;NY;11550;5168123100
HENRIETTA POST OFFICE;25 GOODBURLET ROAD;HENRIETTA;NY;14467;5853343700
HENRIETTA TOWN CLERK;475 CALKINS ROAD;HENRIETTA;NY;14467;5853597035
HERKIMER COUNTY CLERK OF COURT;109 MARY STREET, SUITE 1111;HERKIMER;NY;13350;3158671129
HICKSVILLE POST OFFICE;185 WEST JOHN STREET;HICKSVILLE;NY;11801;5169332475
HILTON POST OFFICE;25 SOUTH AVENUE;HILTON;NY;14468;5853922910
HOLBROOK POST OFFICE;445 FURROWS ROAD;HOLBROOK;NY;11741;6315880226
HOLLAND POST OFFICE;11765 PARTRIDGE ROAD;HOLLAND;NY;14080;7165379400
HOMER POST OFFICE;2 SOUTH MAIN STREET;HOMER;NY;13077;6077493071
HONEOYE POST OFFICE;8627 MAIN ST;HONEOYE;NY;14471;5852295476
HONEOYE FALLS POST OFFICE;39 W MAIN ST;HONEOYE FALLS;NY;14472;5856243200
HOPEWELL JUNCTION PO;815 ROUTE 82;HOPEWELL JUNCTION;NY;12533;8452233048
HORSEHEADS POST OFFICE;624 TUTTLE AVE;HORSEHEADS;NY;14845;6077390371
HOWARD BEACH POST OFFICE;160-50 CROSSBAY BOULEVARD;HOWARD BEACH;NY;11414;7188485491
HOWELLS POST OFFICE;126 NEW VERNON RD.SUITE 1;HOWELLS;NY;10932;8453864222
COLUMBIA COUNTY CLERKS OFFICE;560 WARREN STREET;HUDSON;NY;12534;5188283339
HUDSON POST OFFICE;402 UNION ST;HUDSON;NY;12534;5188283672
HUNTINGTON POST OFFICE;55 GERARD STREET;HUNTINGTON;NY;11743;6314273825
HUNTINGTON STATION;888 EAST JERICHO TURNPIKE;HUNTINGTON STATION;NY;11746;6314270594
SOUTH HUNTINGTON PUBLIC LIBRARY;145 PIDGEON HILL ROAD;HUNTINGTON STATION;NY;11746;6315494411
HURLEY POST OFFICE;4 MAIN ST;HURLEY;NY;12443;8453386018
HYDE PARK POST OFFICE;1 EAST MARKET ST;HYDE PARK;NY;12538;8452290112
ILION POST OFFICE;48 FIRST ST;ILION;NY;13357;3158945007
IRVINGTON POST OFFICE;25 N. BUCKHOUT STREET;IRVINGTON;NY;10533;9145916487
ISLIP POST OFFICE;309 MAIN STREET, UNIT 3;ISLIP;NY;11751;6315817931
ISLIP TOWN CLERKS OFFICE;655 MAIN STREET;ISLIP;NY;11751;6312245490
ITHACA POST OFFICE;757 WARREN RD;ITHACA;NY;14850;6073756003
TOMPKINS COUNTY CLERK;320 NORTH TIOGA ST;ITHACA;NY;14850;6072745431
HOLLIS STATION;197-40 JAMAICA  AVENUE;JAMAICA;NY;11423;7184658313
JAMAICA POST OFFICE;88-40 164TH STREET;JAMAICA;NY;11431;7189901083
JFK AIRPORT STATION;BUILDING 250 NORTH BOUNDARY ROAD, SUITE 1;JAMAICA;NY;11430;7186566433
QUEENS COUNTY CLERK;88-11 SUTPHIN BOULEVARD, RM 106;JAMAICA;NY;11435;7182980605
ROCHDALE VILLAGE POST OFFICE;165-100 BAISLEY BOULEVARD;JAMAICA;NY;11434;7185233765
CITY OF JAMESTOWN ASSESSORS OFFICE;200 E. 3RD ST.;JAMESTOWN;NY;14701;7164837708
JAMESTOWN MAIN POST OFFICE;300 EAST 3RD STREET;JAMESTOWN;NY;14701;7166642133
JEFFERSONVILLE POST OFFICE;4915 STATE ROUTE 52;JEFFERSONVILLE;NY;12748;8454824265
JERICHO POST OFFICE;425 NORTH BROADWAY;JERICHO;NY;11753;5166816887
FULTON COUNTY CLERK OF COURT;223 WEST MAIN STREET;JOHNSTOWN;NY;12095;5187365555
ELBRIDGE TOWN CLERK;5 ROUTE 31;JORDAN;NY;13080;3156899031
TOWN OF TONAWANDA;2919 DELAWARE AVENUE, ROOM 14;KENMORE;NY;14217;7168778800
KEUKA PARK POST OFFICE;508 ASSEMBLY AVE;KEUKA PARK;NY;14478;3155363667
KEW GARDENS POST OFFICE;8330 AUSTIN STREET;KEW GARDENS;NY;11415;7188479895
KINGS PARK POST OFFICE;125 EAST MAIN STREET;KINGS PARK;NY;11754;63612699549
KINGSTON POST OFFICE;90 CORNELL STREET;KINGSTON;NY;12401;8453312286
ULSTER COUNTY CLERK;244  FAIR STREET;KINGSTON;NY;12401;8453403288
LAFAYETTE TOWN CLERK;2577 ROUTE 11;LAFAYETTE;NY;13084;3156773674
LAGRANGEVILLE POST OFFICE;1085 ROUTE 55;LAGRANGEVILLE;NY;12540;8454525270
WARREN COUNTY CLERK -CLERK OF THE SUPREME AND COUNTY COURTS;1340 STATE ROUTE #9;LAKE GEORGE;NY;12845;5187616429
LAKE KATRINE POST OFFICE;1840 ULSTER AVE;LAKE KATRINE;NY;12449;8453822086
LAKE PLACID POST OFFICE;2591 MAIN ST;LAKE PLACID;NY;12946;5185233071
LARCHMONT POST OFFICE;1 CHATSWORTH AVE;LARCHMONT;NY;10538;9148342674
LAWRENCE POST OFFICE;12 BAYVIEW AVENUE;LAWRENCE;NY;11559;5162390246
LEROY POST OFFICE;2 MAIN ST;LEROY;NY;14482;5857686500
LEVITTOWN POST OFFICE;180 GARDINERS AVENUE;LEVITTOWN;NY;11756;6317357343
LEVITTOWN PUBLIC LIBRARY;1 BLUEGRASS LANE;LEVITTOWN;NY;11756;5167315728
LEWISTON POST OFFICE;150 S 8TH ST;LEWISTON;NY;14092;7167548000
LIBERTY MAIN POST OFFICE;14 CHESTNUT ST;LIBERTY;NY;12754;8452925108
LINCOLNDALE POST OFFICE;152 ROUTE 202;LINCOLNDALE;NY;10540;9142487193
LINDENHURST POST OFFICE;65 EAST HOFFMAN AVENUE;LINDENHURST;NY;11757;6312260112
CATTARAUGUS COUNTY CLERK OF COURT;303 COURT ST;LITTLE VALLEY;NY;14755;7169382293
LIVERPOOL POST OFFICE;300 CYPRESS STREET;LIVERPOOL;NY;13088;3154513060
LIVERPOOL PUBLIC LIBRARY;310 TULIP ST.;LIVERPOOL;NY;13088;3154570310
SALINA TOWN CLERK;201 SCHOOL ROAD;LIVERPOOL;NY;13088;3154572710
LIVONIA POST OFFICE;34 MAIN STREET;LIVONIA;NY;14487;5853465858
LOCKPORT POST OFFICE;138 EAST AVENUE;LOCKPORT;NY;14094;7165145000
NIAGARA COUNTY CLERK OF COURT;175 HAWLEY STREET;LOCKPORT;NY;14095;7164397022
LOCUST VALLEY POST OFFICE;115 FOREST AVENUE;LOCUST VALLEY;NY;11560;5166717824
LONG BEACH POST OFFICE;101 EAST PARK AVENUE;LONG BEACH;NY;11561;5164325484
LONG ISLAND CITY MPO;46-02 21ST STREET;LONG ISLAND CITY;NY;11101;7183494600
LEWIS COUNTY CLERK;7660 NORTH STATE STREET;LOWVILLE;NY;13367;3153765333
LYNBROOK POST OFFICE;100 BROADWAY;LYNBROOK;NY;11563;5165990392
WAYNE COUNTY CLERK;9 PEARL STREET;LYONS;NY;14489;3159467470
MACEDON POST OFFICE;1475 CANANDAIGUA RD;MACEDON;NY;14502;3159864904
MAHOPAC POST OFFICE;346 ROUTE 6;MAHOPAC;NY;10541;8456281061
FRANKLIN COUNTY CLERK;355 WEST MAIN STREET;MALONE;NY;12953;5184811681
MALONE POST OFFICE;482 E MAIN ST;MALONE;NY;12953;5184834220
BALLSTON SPA - MALTA BRANCH POST OFFICE;12 HEMPHILL PLACE;MALTA;NY;12020;5188996254
MAMARONECK POST OFFICE;309 MOUNT PLEASANT AVE.;MAMARONECK;NY;10543;9146983229
MANHASSET POST OFFICE;28 MAPLE PLACE;MANHASSET;NY;11030;5166270536
TOWN CLERK-TOWN OF NORTH HEMPSTEAD;200 PLANDOME ROAD;MANHASSET;NY;11030;5168697977
MANLIUS POST OFFICE;110 WESLEY STREET;MANLIUS;NY;13104;3156826770
POMPEY TOWN CLERK;8354 US ROUTE 20;MANLIUS;NY;13104;3156829877
MANORVILLE POST OFFICE;525 EASTPORT MANOR ROAD;MANORVILLE;NY;11949;6317270064
MARATHON POST OFFICE;12 MAIN STREET;MARATHON;NY;13803;6078493817
MARCELLUS TOWN CLERK;24 EAST MAIN STREET;MARCELLUS;NY;13108;3156733269
MARCY POST OFFICE;5735 CAVANAUGH RD.;MARCY;NY;13403;3157367072
MARGARETVILLE POST OFFICE;315 MAIN STREET;MARGARETVILLE;NY;12455;8455862967
MARLBORO FREE LIBRARY;1251 ROUTE 9W;MARLBORO;NY;12542;8452367272
MASSAPEQUA POST OFFICE;80 KILLIANS ROAD;MASSAPEQUA;NY;11758;5167984112
TOWN OF OYSTER BAY - SOUTH;977 HICKSVILLE ROAD;MASSAPEQUA;NY;11758;5167977960
INCORPORATED VILLAGE OF MASSAPEQUA PARK;151 FRONT STREET;MASSAPEQUA PARK;NY;11762;5167980244
MASSENA POST OFFICE;100 MAIN ST;MASSENA;NY;13662;3157695935
MATTITUCK POST OFFICE;140 LOVE LANE;MATTITUCK;NY;11952;6312981364
GEORGE C BULLIS MEMORIAL COMMUNITY CENTER;101 MAIN STREET;MAYBROOK;NY;12543;8454272914
CHAUTAUQUA COUNTY CLERK;1 NORTH ERIE STREET;MAYVILLE;NY;14757;7167534331
MECHANICVILLE POST OFFICE;18 SOUTH MAIN STREET;MECHANICVILLE;NY;12118;5186644731
MEDFORD POST OFFICE;1905 ROUTE 112;MEDFORD;NY;11763;6314754244
MEDINA POST OFFICE;128 WEST CENTER STREET;MEDINA;NY;14103;5857982440
MEXICO POST OFFICE;5640 NORMAN AVENUE;MEXICO;NY;13114;3159633611
MIDDLE ISLAND POST OFFICE;780 MIDDLE COUNTRY ROAD;MIDDLE ISLAND;NY;11953;6312051089
MIDDLEPORT POST OFFICE;42 MAIN ST;MIDDLEPORT;NY;14105;7167353300
MIDDLETOWN POST OFFICE;40 FULTON STREET;MIDDLETOWN;NY;10940;8453411568
MILLERTON POST OFFICE;33 CENTURY BLVD;MILLERTON;NY;12546;5187899093
MINEOLA POST OFFICE;160 FIRST STREET;MINEOLA;NY;11501;5167461372
NASSAU COUNTY CLERK;240 OLD COUNTRY ROAD;MINEOLA;NY;11501;5165712664
MOHEGAN LAKE POST OFFICE;3147 EAST MAIN ST;MOHEGAN LAKE;NY;10547;9145289067
KIRYAS JOEL COMMUNITY SERVICES DEPARTMENT;51 FOREST ROAD;MONROE;NY;10950;8457838300
MONROE POST OFFICE;787 STATE ROUTE 17M;MONROE;NY;10950;8457837827
MONSEY POST OFFICE;15 MELNICK DRIVE;MONSEY;NY;10952;8457323170
MONTAUK LIBRARY;871 MONTAUK HIGHWAY;MONTAUK;NY;11954;6316683377
MONTICELLO POST OFFICE;486 BROADWAY;MONTICELLO;NY;12701;8457947498
SULLIVAN COUNTY CLERK;100 NORTH STREET GOVERNMENT CENTER;MONTICELLO;NY;12701;8458070411
HENDRICK HUDSON FREE LIBRARY;185 KINGS FERRY ROAD;MONTROSE;NY;10548;9147395654
MONTROSE POST OFFICE;13 KINGS FERRY ST;MONTROSE;NY;10548;9147377539
MORRISONVILLE POST OFFICE;1934 STATE. RTE. 22B;MORRISONVILLE;NY;12962;5185617496
MORRISVILLE POST OFFICE;18 EATON STREET;MORRISVILLE;NY;13408;3156849188
MOUNT KISCO POST OFFICE;3 MORGAN DRIVE;MOUNT KISCO;NY;10549;9146663842
MOUNT VERNON POST OFFICE;15 SOUTH FIRST AVENUE;MOUNT VERNON;NY;10550;9146687672
MT MORRIS POST OFFICE;31 CHAPEL STREET;MT. MORRIS;NY;14510;15856583200
ROCKLAND COUNTY CLERK;1 SOUTH MAIN STREETSUITE 100;NEW CITY;NY;10956;8456385732
NEW HAMPTON POST OFFICE;5070 ROUTE 17M;NEW HAMPTON;NY;10958;8453743234
NEW HARTFORD POST OFFICE;40 CAMPION ROAD;NEW HARTFORD;NY;13413;3157330453
NEW HYDE PARK POST OFFICE;1001 SECOND AVENUE;NEW HYDE PARK;NY;11040;5163546024
NEW ROCHELLE POST OFFICE;255 NORTH AVE;NEW ROCHELLE;NY;10801;9146326669
ANSONIA STATION;178 COLUMBUS AVENUE;NEW YORK;NY;10023;2123621697
AUDUBON STATION;511 WEST 165TH STREET;NEW YORK;NY;10032;2125682387
CATHEDRAL STATION;215 WEST 104TH STREET;NEW YORK;NY;10025;2126620355
CHEROKEE FINANCE STATION;1483 YORK AVENUE;NEW YORK;NY;10075;2125178361
CHURCH STREET STATION;90 CHURCH STREET;NEW YORK;NY;10007;2123305019
COLONIAL PARK STATION;99 MACOMBS PLACE;NEW YORK;NY;10039;2123684863
FORT GEORGE STATION;4558 BROADWAY;NEW YORK;NY;10040;2129425266
FRANKLIN D ROOSEVELT STATION;909 THIRD AVENUE;NEW YORK;NY;10022;2123305508
GRACIE STATION;229 EAST 85TH STREET;NEW YORK;NY;10028;2129886680
GRAND CENTRAL STATION;450 LEXINGTON AVENUE;NEW YORK;NY;10017;2123305700
GREELEY SQUARE STATION;4 EAST 27TH STREET;NEW YORK;NY;10001;2126832510
INWOOD STATION;90 VERMILYEA AVENUE;NEW YORK;NY;10034;2125677821
JAMES A FARLEY POST OFFICE;421 8TH AVENUE;NEW YORK;NY;10001;2123303296
LENOX HILL STATION;217 EAST 70TH STREET;NEW YORK;NY;10021;2128794401
LINCOLNTON STATION;2266 5TH AVENUE;NEW YORK;NY;10037;2122813281
MADISON SQUARE STATION;149 EAST 23RD STREET;NEW YORK;NY;10010;2126733771
MANHATTANVILLE STATION;365 WEST 125TH STREET;NEW YORK;NY;10027;2126621540
MIDTOWN STATION;223 WEST 38TH STREET;NEW YORK;NY;10018;2129446598
NEW YORK COUNTY CLERK;60 CENTRE ST;NEW YORK;NY;10007;6463865946
OLD CHELSEA STATION;217 WEST 18TH STREET;NEW YORK;NY;10011;2126752414
PLANETARIUM STATION;127 WEST 83RD STREET;NEW YORK;NY;10024;2128735698
RADIO CITY STATION;322 WEST 52ND STREET;NEW YORK;NY;10019;2122653672
ROCKEFELLER CENTER STATION;610 FIFTH AVENUE, CONCOURSE LEVEL 1;NEW YORK;NY;10020;2122653855
ROOSEVELT ISLAND STATION;694 MAIN STREET;NEW YORK;NY;10044;2127514348
TIMES SQUARE STATION;340 WEST 42ND STREET;NEW YORK;NY;10036;2125020432
VILLAGE STATION POST OFFICE;201 VARICK STREET;NEW YORK;NY;10014;2129899806
WASHINGTON BRIGDE STATION;518 WEST 181ST STREET;NEW YORK;NY;10033;2125432713
YORKVILLE STATION;1617 THIRD AVENUE;NEW YORK;NY;10128;2123692230
NEWARK POST OFFICE;300 S MAIN ST.;NEWARK;NY;14513;3153314790
NEWBURGH POST OFFICE;217 LIBERTY STREET;NEWBURGH;NY;12550;8455615982
LA SALLE STATION;9860 NIAGARA FALLS BLVD;NIAGARA FALLS;NY;14304;7165131014
NIAGARA FALLS POST OFFICE;615 MAIN ST;NIAGARA FALLS;NY;14302;7165131063
NIAGARA FALLS PUBLIC LIBRARY;1425 MAIN ST.;NIAGARA FALLS;NY;14305;7162864894
TOWN OF NIAGARA;7105 LOCKPORT ROAD;NIAGARA FALLS;NY;14305;7162972150
NORTH CHILI POST OFFICE;3235 UNION ST;NORTH CHILI;NY;14514;5855942933
NORTH TONAWANDA POST OFFICE;141 GOUNDRY ST;NORTH TONAWANDA;NY;14120;7167996801
NORTHPORT POST OFFICE;240 MAIN STREET;NORTHPORT;NY;11768;6312616941
NORTHVILLE POST OFFICE;151 N MAIN ST;NORTHVILLE;NY;12134;5188634944
CHENANGO COUNTY CLERK OF COURT;5 COURT STREET;NORWICH;NY;13815;6073371450
NORWICH POST OFFICE;20-22 EAST MAIN STREET;NORWICH;NY;13815;6073344134
OCEANSIDE POST OFFICE;80 ATLANTIC AVENUE;OCEANSIDE;NY;11572;5167665829
OGDENSBURG POST OFFICE;431 STATE STREET;OGDENSBURG;NY;13669;3153935330
OLD BETHPAGE POST OFFICE;696 OLD BETHPAGE ROAD;OLD BETHPAGE;NY;11804;5162490012
OLD FORGE MPO;2992 STATE ROUTE 28;OLD FORGE;NY;13420;3153693414
OLEAN POST OFFICE;102 S UNION ST;OLEAN;NY;14760;7163725212
ONEIDA POST OFFICE;133 FARRIER AVENUE;ONEIDA;NY;13421;3153634210
ONEONTA POST OFFICE;352 MAIN STREET;ONEONTA;NY;13820;6074326100
ONTARIO POST OFFICE;2001 FERGUSON DRIVE;ONTARIO;NY;14519;3155248112
ORANGEBURG POST OFFICE;26 ORANGETOWN CENTER;ORANGEBURG;NY;10962;8453593547
ORCHARD PARK POST OFFICE;60 SCHOOL ST;ORCHARD PARK;NY;14127;7166624110
OSSINING MAIN POST OFFICE;100 MAIN STREET;OSSINING;NY;10562;9149417348
OSWEGO COUNTY CLERK OF COURT;46 E BRIDGE ST;OSWEGO;NY;13126;3153498621
OSWEGO POST OFFICE;391 W FIRST ST.;OSWEGO;NY;13126;3153433881
TIOGA COUNTY CLERK;16 COURT STREET;OWEGO;NY;13827;6076878660
OYSTER BAY POST OFFICE;1 SHORE AVENUE;OYSTER BAY;NY;11771;5169228249
TOWN OF OYSTER BAY - NORTH;54 AUDREY AVENUE;OYSTER BAY;NY;11771;5166246333
OZONE PARK FINANCE STATION;91-11 LIBERTY AVENUE;OZONE PARK;NY;11417;7188436518
PAINTED POST POST OFFICE;135 NORTH HAMILTON STREET;PAINTED POST;NY;14870;6079366521
PALISADES POST OFFICE;705 OAK TREE ROAD;PALISADES;NY;10964;8453597841
PALMYRA POST OFFICE;522 E MAIN ST;PALMYRA;NY;14522;3155974151
PARKSVILLE POST OFFICE;12 COOLEY RD;PARKSVILLE;NY;12768;8452925451
PATCHOGUE POST OFFICE;170 EAST MAIN STREET;PATCHOGUE;NY;11772;6314750560
PATCHOGUE-MEDFORD LIBRARY;54-60 EAST MAIN STREET;PATCHOGUE;NY;11772;6316544700
PEARL RIVER POST OFFICE;35 S. MAIN STREET;PEARL RIVER;NY;10965;8457359578
PECONIC POST OFFICE;2575 PECONIC LANE;PECONIC;NY;11958;6317659348
PEEKSKILL POST OFFICE;738 SOUTH ST;PEEKSKILL;NY;10566;9147376437
PENFIELD POST OFFICE;2080 FAIRPORT NINE MILE POINT RD;PENFIELD;NY;14526;5853881920
YATES COUNTY CLERKS OFFICE;417 LIBERTY STREET,;PENN YANN;NY;14527;3155365120
PERRY POST OFFICE;24 N MAIN STREET;PERRY;NY;14530;5852372880
PHELPS POST OFFICE;6 CHURCH STREET;PHELPS;NY;14532;3155485021
PINE BUSH POST OFFICE;27 MAIN ST;PINE BUSH;NY;12566;8457443013
PINE CITY POST OFFICE;1565 PENNSYLVANIA AVE;PINE CITY;NY;14871;6077342558
PITTSFORD POST OFFICE;5607 PALMYRA ROAD;PITTSFORD;NY;14534;5855861230
PLAINVIEW POST OFFICE;1662 OLD COUNTRY ROAD;PLAINVIEW;NY;11803;5168457162
CLINTON COUNTY CLERKS OFFICE;137 MARGARET ST;PLATTSBURGH;NY;12901;5185654701
PLATTSBURGH POST OFFICE;10 MILLER ST;PLATTSBURGH;NY;12901;5185631450
PLEASANT VALLEY POST OFFICE;1612 MAIN STREET (ROUTE 44);PLEASANT VALLEY;NY;12569;8456358932
PLEASANTVILLE MAIN POST OFFICE;50 MEMORIAL PLAZA;PLEASANTVILLE;NY;10570;9147697351
POMONA POST OFFICE;1515 ROUTE 202;POMONA;NY;10970;8453645003
PORT CHESTER POST OFFICE;245 WESTCHESTER AVE;PORT CHESTER;NY;10573;9149396783
PORT JEFFERSON FREE LIBRARY;100 THOMPSON STREET;PORT JEFFERSON;NY;11777;6314730022
PORT JEFFERSON STATION POST OFFICE;544 JEFFERSON PLAZA;PORT JEFFERSON;NY;11776;6314732751
PORT JERVIS POST OFFICE;20 SUSSEX ST;PORT JERVIS;NY;12771;8458588173
PORT WASHINGTON POST OFFICE;1051 PORT WASHINGTON BOULEVARD;PORT WASHINGTON;NY;11050;5168830754
POTSDAM POST OFFICE;21 ELM ST;POTSDAM;NY;13676;3152658614
DUTCHESS COUNTY CLERK;22 MARKET STREET;POUGHKEEPSIE;NY;12601;8454862120
LAGRANGE LIBRARY;488 FREEDON PLAINS ROAD;POUGHKEEPSIE;NY;12603;8454523141
POUGHKEEPSIE POST OFFICE;55 MANSION ST;POUGHKEEPSIE;NY;12601;8454525297
PULASKI POST OFFICE;4909 N JEFFERSON ST;PULASKI;NY;13142;3152982951
PUTNAM VALLEY LIBRARY;30 OSCAWANA;PUTNAM VALLEY;NY;10579;8455283242
PUTNAM VALLEY POST OFFICE;12 PEEKSKILL HOLLOW ROAD;PUTNAM VALLEY;NY;10579;8455280341
QUEENS VILLAGE POST OFFICE;209-20 JAMAICA AVENUE;QUEENS VILLAGE;NY;11428;7184658322
RED HOOK POST OFFICE;P. O. BOX 9998;RED HOOK;NY;12571;8457585361
REMSENBURG POST OFFICE;137 SOUTH COUNTRY ROAD;REMSENBURG;NY;11960;6313255937
RHINEBECK POST OFFICE;6383 MILL ST;RHINEBECK;NY;12572;8458769652
RIDGE POST OFFICE;1700 MIDDLE COUNTRY ROAD;RIDGE;NY;11961;6313456842
RIVERHEAD POST OFFICE;1210 WEST MAIN STREET;RIVERHEAD;NY;11901;6317271019
BEECHWOOD POST OFFICE;300 WARING RD;ROCHESTER;NY;14609;5856133210
BRIGHTON TOWN CLERK;2300 ELMWOOD AVENUE;ROCHESTER;NY;14618;5857845240
CHARLOTTE POST OFFICE;4455 LAKE AVE;ROCHESTER;NY;14612;5856631673
GREECE BRANCH POST OFFICE;3245 LATTA ROAD;ROCHESTER;NY;14612;5856133232
IRONDEQUOIT STATION USPS;425 EAST RIDGE ROAD;ROCHESTER;NY;14621;5856133010
LEXINGTON STATION USPS;1280 LEXINGTON AVENUE;ROCHESTER;NY;14606;5856133220
MONROE COUNTY CLERKS OFFICE;39 W MAIN ST;ROCHESTER;NY;14614;5857531600
PANORAMA BRANCH USPS;1614 PENFIELD ROAD;ROCHESTER;NY;14625;5855869351
RIDGEMONT PLAZA BRANCH;2833 RIDGE ROAD WEST;ROCHESTER;NY;14626;5852258774
ROCHESTER CITY CLERK;30 CHURCH STREET;ROCHESTER;NY;14614;5854286617
ROCHESTER MAIN OFFICE WINDOW;1335 JEFFERSON ROAD;ROCHESTER;NY;14692;5852725953
ROCHESTER POST OFFICE LOEHMANNS PLAZA;1900 CLINTON AVENUE SOUTH;ROCHESTER;NY;14618;5854736186
TOWN OF IRONDEQUOIT;1280 TITUS AVE;ROCHESTER;NY;14617;5854678840
WESTGATE BRANCH USPS;1485 HOWARD ROAD;ROCHESTER;NY;14624;5856133216
ROCK HILL POST OFFICE;240 ROCK HILL DR;ROCK HILL;NY;12775;8457964535
ROCKAWAY PARK STATION;113-25 BEACH CHANNEL DRIVE;ROCKAWAY PARK;NY;11694;7186343897
ROCKVILLE CENTRE POST OFFICE;250 MERRICK ROAD;ROCKVILLE CENTRE;NY;11570;5167664290
ROME MAIN POST OFFICE;110 E GARDEN ST;ROME;NY;13440;3153361500
RONKONKOMA POST OFFICE;200 HAWKINS AVENUE;RONKONKOMA;NY;11779;6315880301
ROOSEVELT POST OFFICE;1 BABYLON TURNPIKE;ROOSEVELT;NY;11575;5163786973
ROSENDALE POST OFFICE;354  MAIN ST;ROSENDALE;NY;12472;8456588084
ROSLYN POST OFFICE;1391 OLD NORTHERN BOULEVARD;ROSLYN;NY;11576;5166217397
ROSLYN HEIGHTS POST OFFICE;66 MINEOLA AVENUE;ROSLYN HEIGHTS;NY;11577;5166218050
RYE POST OFFICE;41 PURDY AVE;RYE;NY;10580;9149676258
SAG HARBOR POST OFFICE;21 LONG ISLAND AVENUE;SAG HARBOR;NY;11963;6317258968
ST. ALBANS STATION;195-04 LINDEN BOULEVARD;SAINT ALBANS;NY;11412;7185255620
SAINT BONAVENTURE POST OFFICE;3261 WEST STATE RD;SAINT BONAVENTURE;NY;14778;7163724110
SALAMANCA POST OFFICE;35 CHESTNUT STREET;SALAMANCA;NY;14779;7169453390
SANBORN POST OFFICE;2901 NIAGARA ST;SANBORN;NY;14132;7167313414
TOWN OF SAND LAKE;8428 MILLER HILL ROAD;SAND LAKE;NY;12153;5186742026
SANDY CREEK POST OFFICE;6067 S MAIN ST;SANDY CREEK;NY;13145;3153873198
SARATOGA SPRINGS POST OFFICE;245 WASHINGTON STREET;SARATOGA SPRINGS;NY;12866;5182451043
SAUGERTIES POST OFFICE;111 MARKET ST;SAUGERTIES;NY;12477;8452461998
SAUQUOIT POST OFFICE;2944 ONEIDA ST;SAUQUOIT;NY;13456;3157378832
SAYVILLE POST OFFICE;130 GREENE AVENUE;SAYVILLE;NY;11782;6315896963
HARTSDALE POST OFFICE;441 CENTRAL AVENUE;SCARSDALE;NY;10583;9144727164
SCARSDALE POST OFFICE;29 CHASE RD;SCARSDALE;NY;10583;9147234626
NISKAYUNA STATION POST OFFICE;2320 NOTT STREET EAST;SCHENECTADY;NY;12309;5183820344
SCHENECTADY COUNTY CLERK;620 STATE STREET;SCHENECTADY;NY;12305;5183884220
SCHENECTADY POST OFFICE;29 JAY ST;SCHENECTADY;NY;12305;5186126021
SCHOHARIE COUNTY CLERK OFFICE;284 MAIN ST;SCHOHARIE;NY;12157;5182958316
SCHUYLERVILLE POST OFFICE;25 FERRY ST;SCHUYLERVILLE;NY;12871;5186959221
SCOTTSVILLE POST OFFICE;3 ROCHESTER ST;SCOTTSVILLE;NY;14546;5858892040
SELDEN POST OFFICE;109 COLLEGE PLAZA;SELDEN;NY;11784;6317326797
SENECA FALLS POST OFFICE;38 STATE ST;SENECA FALLS;NY;13148;3155682908
SHELTER ISLAND PUBLIC LIBRARY;37 NORTH FERRY ROAD;SHELTER ISLAND;NY;11964;6317490042
SHIRLEY POST OFFICE;800 MONTAUK HIGHWAY, SUITE 1;SHIRLEY;NY;11967;6312817505
SHOKAN POST OFFICE;3110 STATE ROUTE 28;SHOKAN;NY;12481;8456577326
SHRUB OAK POST OFFICE;1350 E. MAIN STREET;SHRUB OAK;NY;10588;9145289274
SKANEATELES POST OFFICE;20 FENNELL STREET;SKANEATELES;NY;13152;3156856189
SKANEATELES TOWN CLERK;24 JORDAN STREET;SKANEATELES;NY;13152;3156853473
SPAFFORD TOWN CLERK;1984 ROUTE 174;SKANEATELES;NY;13152;3156734144
SLATE HILL POST OFFICE;1990 ROUTE 284;SLATE HILL;NY;10973;8453554741
SMITHTOWN POST OFFICE;25 ROUTE 111;SMITHTOWN;NY;11787;6313606709
THE SMITHTOWN LIBRARY;1 NORTH COUNTRY ROAD;SMITHTOWN;NY;11787;6313602480
SODUS POST OFFICE;44 WEST MAIN ST;SODUS;NY;14551;3154839180
SOUTH OZONE PARK;125-15 FOCH BOULEVARD;SOUTH OZONE PARK;NY;11420;7188359562
ROGERS MEMORIAL LIBRARY;91 COOPERS FARM ROAD;SOUTHAMPTON;NY;11968;6312830774
SOUTHAMPTON POST OFFICE;123 NORTH SEA ROAD;SOUTHAMPTON;NY;11968;6312049822
SPARROWBUSH POST OFFICE;505 STATE ROUTE 42;SPARROWBUSH;NY;12780;8458584232
SPENCER POST OFFICE;196 N MAIN ST;SPENCER;NY;14883;6075896144
OGDEN TOWN CLERKS OFFICE;269 OGDEN CENTER ROAD;SPENCERPORT;NY;14559;5856176111
SPRING VALLEY POST OFFICE;7 NORTH MADISON AVENUE;SPRING VALLEY;NY;10977;8454256741
SPRINGFIELD GARDENS POST OFFICE;218-10 MERRICK BOULEVARD;SPRINGFIELD GARDENS;NY;11413;7185289406
SPRINGVILLE POST OFFICE;75 FRANKLIN STREET;SPRINGVILLE;NY;14141;7165922927
STANLEY POST OFFICE;2102 STATE ROUTE 245;STANLEY;NY;14561;5855266695
NEW DORP STATION;2562 HYLAN BOULEVARD;STATEN ISLAND;NY;10306;7188739267
PORT RICHMOND STATION;364 PORT RICHMOND AVENUE;STATEN ISLAND;NY;10302;7184425102
RICHMOND COUNTY CLERK;130 STUYVESANT PLACE;STATEN ISLAND;NY;10301;7186758910
ROSEBANK STATION;567 TOMPKINS AVENUE;STATEN ISLAND;NY;10305;7184470386
ST GEORGE POST OFFICE;45 BAY STREET;STATEN ISLAND;NY;10301;7189812480
STAPLETON STATION;160 TOMPKINS AVENUE;STATEN ISLAND;NY;10304;7187277279
STATEN ISLAND MAIN;550 MANOR ROAD;STATEN ISLAND;NY;10314;7188162710
TOTTENVILLE STATION POST OFFICE;228 MAIN STREET;STATEN ISLAND;NY;10307;7189841215
WEST NEW BRIGHTON POST OFFICE;1015 CASTLETON AVENUE;STATEN ISLAND;NY;10310;7184422163
STONY BROOK POST OFFICE;129 MAIN STREET;STONY BROOK;NY;11790;6317516245
STONY POINT POST OFFICE;81 CENTRAL HIGHWAY;STONY POINT;NY;10980;8457860429
SUNNYSIDE STATION;4515 44TH STREET;SUNNY SIDE;NY;11104;7187297806
SYOSSET POST OFFICE;40 QUEENS STREET;SYOSSET;NY;11791;5169211921
CAMILLUS TOWN CLERK;4600 WEST GENESEE STREET;SYRACUSE;NY;13219;3154881234
COLVIN STATION;2200 SOUTH SALINA STREET;SYRACUSE;NY;13205;3154780027
F. FRANKLIN MOON LIBRARY;1 FORESTRY DRIVE;SYRACUSE;NY;13210;3154706726
FRANKLIN SQUARE STATION;401 WEST DIVISION STREET;SYRACUSE;NY;13218;3154788849
ONONDAGA COUNTY CLERK OF COURT;401 MONTGOMERY ST;SYRACUSE;NY;13202;3154352229
ONONDAGA POST OFFICE;4912 WEST SENECA TURNPIKE;SYRACUSE;NY;13215;3154921107
ONONDAGA TOWN CLERK;5020 BALL ROAD;SYRACUSE;NY;13215;3154691583
SOLVAY STATION;1801 MILTON AVENUE;SYRACUSE;NY;13209;3154684795
SYRACUSE POST OFFICE;5640 EAST TAFT ROAD;SYRACUSE;NY;13220;3154523591
SYRACUSE POST OFFICE EASTWOOD FINANCE STATION;2509 JAMES STREET;SYRACUSE;NY;13206;3154638822
SYRACUSE POST OFFICE TEALL STATION;226 TEALL AVENUE;SYRACUSE;NY;13217;3154722002
SYRACUSE POST OFFICE UNIVERSITY FINANCE STATION;720 UNIVERSITY AVE.;SYRACUSE;NY;13235;3154720278
TANNERSVILLE POST OFFICE;6070 MAIN STREET;TANNERSVILLE;NY;12485;5185897417
TAPPAN POST OFFICE;57 OLD TAPPAN ROAD;TAPPAN;NY;10983;8453593495
WARNER LIBRARY;121 NORTH BROADWAY;TARRYTOWN;NY;10591;9146317734
THORNWOOD POST OFFICE;822 COMMERCE ST;THORNWOOD;NY;10594;9147697397
TONAWANDA POST OFFICE;96 SEYMOUR ST;TONAWANDA;NY;14150;7167796806
BRUNSWICK COMMUNITY LIBRARY;4118 STATE HIGHWAY 2;TROY;NY;12180;5182794023
RENSSELAER COUNTY CLERKS OFFICE;105 THIRD ST;TROY;NY;12180;5182704080
TROY POST OFFICE;400 BROADWAY;TROY;NY;12180;5182444101
TRUMANSBURG POST OFFICE;67 WEST MAIN STREET;TRUMANSBURG;NY;14886;6073878612
TUXEDO PARK POST OFFICE;228 ROUTE 17;TUXEDO PARK;NY;10987;8453515426
UNADILLA POST OFFICE;4 BRIDGE ST;UNADILLA;NY;13849;6073699361
UNION HILL POST OFFICE;82 RIDGE ROAD;UNION HILL;NY;14563;5852650705
UNIONDALE POST OFFICE;1000 FRONT STREET;UNIONDALE;NY;11553;5164818245
UPTON POST OFFICE;2 CENTER STREET;UPTON;NY;11973;6313442539
ONEIDA COUNTY CLERK;800 PARK AVENUE 6TH FLOOR;UTICA;NY;13501;3157985778
UTICA POST OFFICE;100 PITCHER ST;UTICA;NY;13504;3157385355
VALATIE POST OFFICE;1050 KINDERHOOK ST;VALATIE;NY;12184;5187587133
VALHALLA POST OFFICE;10 CLEVELAND ST;VALHALLA;NY;10595;9149487492
VALLEY COTTAGE POST OFFICE;137 ROUTE 303;VALLEY COTTAGE;NY;10989;8452688675
VALLEY STREAM POST OFFICE;111 SOUTH FRANKLIN AVENUE;VALLEY STREAM;NY;11580;5168258739
VESTAL POST OFFICE;117 RANO BLVD;VESTAL;NY;13850;6077981772
VICTOR POST OFFICE;21 FRAMARK DRIVE;VICTOR;NY;14564;5859243430
WACCABUC POST OFFICE;2 POST OFFICE ROAD;WACCABUC;NY;10597;9147633606
WADING RIVER POST OFFICE;1816 WADING RIVER MANOR ROAD;WADING RIVER;NY;11792;6319290219
WALLKILL POST OFFICE;45 WALLKILL AVE;WALLKILL;NY;12589;8458951064
WALWORTH POST OFFICE;2263 WALWORTH-MARION ROAD;WALWORTH;NY;14568;3159861556
MADISON COUNTY CLERK;138 NORTH COURT STREET,;WAMPSVILLE;NY;13163;3153662261
WANTAGH POST OFFICE;1250 WANTAGH AVENUE;WANTAGH;NY;11793;5162212647
WAPPINGERS FALLS POST OFFICE;71 EAST MAIN ST;WAPPINGERS FALLS;NY;12590;8452971839
WARRENSBURG POST OFFICE;3930 MAIN STREET;WARRENSBURG;NY;12885;5186234641
WYOMING COUNTY CLERKS OFFICE;143 N MAIN ST;WARSAW;NY;14569;5857868810
WARWICK POST OFFICE;108 MAIN STREET;WARWICK;NY;10990;8459864085
SENECA COUNTY CLERK;1 DIPRONIO DRIVE;WATERLOO;NY;13165;3155391770
WATERLOO POST OFFICE;2 EAST MAIN STREET;WATERLOO;NY;13165;3155395058
JEFFERSON COUNTY CLERKS OFFICE;175 ARSENAL STREET;WATERTOWN;NY;13601;3157853200
WATERTOWN POST OFFICE;232 COMMERCE PARK DRIVE;WATERTOWN;NY;13601;3157865982
WATERVILLE POST OFFICE;101 WEST MAIN STREET;WATERVILLE;NY;13480;3158418721
SCHUYLER COUNTY CLERK;105 9TH STREET, UNIT 8;WATKINS GLEN;NY;14891;6075358133
WATKINS GLEN POST OFFICE;600 NORTH FRANKLIN STREET;WATKINS GLEN;NY;14891;6075354452
WAVERLY POST OFFICE;434 WAVERLY ST;WAVERLY;NY;14892;6075652021
WAYLAND POST OFFICE;23 E NAPLES ST;WAYLAND;NY;14572;5857282145
VILLAGE OF WEBSTER;28 WEST MAIN STREET;WEBSTER;NY;14580;5852653770
WEBSTER POST OFFICE;75 BARRETT DRIVE;WEBSTER;NY;14580;5858724873
WELLSVILLE POST OFFICE;40 E PEARL ST;WELLSVILLE;NY;14895;5855933940
WEST BABYLON POST OFFICE;385 ROUTE 109;WEST BABYLON;NY;11704;6318930560
WEST CHAZY POST OFFICE;7634 STATE ROUTE #22;WEST CHAZY;NY;12992;5184936381
WEST HEMPSTEAD POST OFFICE;245 HEMPSTEAD AVENUE;WEST HEMPSTEAD;NY;11552;5164815430
WEST ISLIP POST OFFICE;480 UNION BOULEVARD;WEST ISLIP;NY;11795;6316695157
PALISADES POSTAL STORE;3302 PALISADES CENTER DRIVE;WEST NYACK;NY;10994;8457274081
WEST POINT POST OFFICE;634 SWIFT ROAD;WEST POINT;NY;10996;8454468749
WEST SENECA POST OFFICE;4300 SENECA STREET;WEST SENECA;NY;14224;7166753672
OLIVE FREE LIBRARY;4033 ROUTE 28A;WEST SHOKAN;NY;12494;8456572482
WESTBURY POST OFFICE;360 MAPLE AVENUE;WESTBURY;NY;11590;5163333598
PATTERSON LIBRARY;40 S. PORTAGE ST.;WESTFIELD;NY;14787;7163262154
WESTFIELD POST OFFICE;7 ACADEMY STREET;WESTFIELD;NY;14787;7163262841
WESTHAMPTON BEACH POST OFFICE;170 MAIN STREET;WESTHAMPTON BEACH;NY;11978;6312884093
WESTHAMPTON FREE LIBRARY;7 LIBRARY AVENUE;WESTHAMPTON BEACH;NY;11978;6312883335
WESTTOWN POST OFFICE;2097 COUNTY ROUTE 1;WESTTOWN;NY;10998;8457265026
WESTCHESTER COUNTY CLERKS OFFICE;110 DR MARTIN LUTHER KING JR BLVD ROOM 340;WHITE PLAINS;NY;10601;9149953088
WHITE PLAINS POST OFFICE;100 FISCHER AVENUE;WHITE PLAINS;NY;10602;9142872525
WHITESBORO POST OFFICE;30 ROOSEVELT DRIVE;WHITESBORO;NY;13492;3157687862
WHITNEY POINT POST OFFICE;2641 MAIN ST;WHITNEY POINT;NY;13862;6076923131
WILLIAMSVILLE POST OFFICE;5325 SHERIDAN DRIVE;WILLIAMSVILLE;NY;14221;7166320421
WINDHAM POST OFFICE;5365 STATE ROUTE 23;WINDHAM;NY;12496;5187346956
WINGDALE POST OFFICE;1809 ROUTE 22;WINGDALE;NY;12594;8458326147
WOLCOTT POST OFFICE;6048 LAKE AVE;WOLCOTT;NY;14590;3155942106
WOODHAVEN POST OFFICE;86-42 FOREST PARKWAY;WOODHAVEN;NY;11421;7182969232
WOODMERE POST OFFICE;132 FRANKLIN PLACE;WOODMERE;NY;11598;5163743776
WOODSIDE STATION;39-25 61ST STREET;WOODSIDE;NY;11377;7188999497
YAPHANK POST OFFICE;5 EAST MAIN STREET;YAPHANK;NY;11980;6313456829
YONKERS MAIN POST OFFICE;79-81 MAIN STREET;YONKERS;NY;10701;9143783610
YORKTOWN HEIGHTS POST OFFICE;2020 MAPLE HILL STREET;YORKTOWN HEIGHTS;NY;10598;9144552693
