facilityName;streetAdress;city;state;zipCode;publicPhone
USPO - AFTON;31 WEST 4TH AVENUE;AFTON;WY;83110;3078863625
BIG HORN COUNTY DISTRICT COURT;420 WEST C STREET;BASIN;WY;82410;3075682381
USPO - BIG PINEY;420 BUDD AVE.;BIG PINEY;WY;83113;3072763772
JOHNSON COUNTY DISTRICT COURT;620 W FETTERMAN ST;BUFFALO;WY;82834;3076847271
USPO - CASPER;411 N. FOREST DR.;CASPER;WY;82609;3072664004
USPO - CHEYENNE;4800 CONVERSE AVE.;CHEYENNE;WY;82009;3077726580
TOWN OF CLEARMONT;1605 PENNSYLVANIA AVE.;CLEARMONT;WY;82835;3077584465
PARK COUNTY DISTRICT COURT;1002 SHERIDAN AVENUE;CODY;WY;82414;3075278690
CONVERSE COUNTY DISTRICT COURT;107 NORTH 5TH STREET SUITE 228;DOUGLAS;WY;82633;3073583165
USPO - DUBOIS;804 W. RAMSHORN ST;DUBOIS;WY;82513;3074552735
UINTA COUNTY DISTRICT COURT;225 9TH STREET;EVANSTON;WY;82930;3077830456
CAMPBELL COUNTY DISTRICT COURT;500 S. GILLETTE AVE., SUITE 2600;GILLETTE;WY;82716;3076823424
USPO - GILLETTE;311 SOUTH KENDRICK AVE;GILLETTE;WY;82716;3076826727
USPO - GLENROCK;703 W BIRCH ST.;GLENROCK;WY;82637;3074369723
SWEETWATER COUNTY DISTRICT COURT;80 WEST FLAMING GORGE WAY;GREEN RIVER;WY;82935;3078723820
TETON COUNTY DISTRICT COURT;180 SOUTH KING STREET;JACKSON;WY;83001;3077332533
LINCOLN COUNTY DISTRICT COURT;925 SAGE AVE, SUITE 202;KEMMERER;WY;83101;3078772052
USPO - LAGRANGE;201 5TH AVE;LAGRANGE;WY;82221;3078342213
FREMONT COUNTY DISTRICT COURT;450 NORTH 2ND STREET ROOM 235;LANDER;WY;82520;3073321134
ALBANY COUNTY DISTRICT COURT;525 GRAND AVENUE ROOM 305;LARAMIE;WY;82070;3077212508
USPO - LOVELL;167 E 3RD ST;LOVELL;WY;82431;3075487605
NIOBRARA COUNTY DISTRICT COURT;424 S. ELM STREET;LUSK;WY;82225;3073342736
WESTON COUNTY DISTRICT COURT;1 WEST MAIN;NEWCASTLE;WY;82701;3077464778
SUBLETTE COUNTY DISTRICT COURT;21 SOUTH TYLER;PINEDALE;WY;82941;3073674376
USPO - RALSTON;680 MAIN STREET;RALSTON;WY;82440;3077543712
CARBON COUNTY DISTRICT COURT;415 W. PINE ST., #218;RAWLINS;WY;82301;3073282628
USPO - RAWLINS;106 5TH STREET;RAWLINS;WY;82301;3073243521
USPO - RIVERTON;501 EAST MAIN ST;RIVERTON;WY;82501;3078563725
USPO - ROCK SPRINGS;2829 COMMERCIAL WAY;ROCK SPRINGS;WY;82901;3073629792
CITY OF SHERIDAN;55 GRINNELL PLAZA;SHERIDAN;WY;82801;3076746483
CROOK COUNTY DISTRICT COURT;309 CLEVELAND STREET;SUNDANCE;WY;82729;3072832523
USPO - THAYNE;390 N MAIN ST;THAYNE;WY;83127;3078832477
GOSHEN COUNTY DISTRICT COURT;2125 EAST A STREET SUITE 236;TORRINGTON;WY;82240;3075322155
PLATTE COUNTY DISTRICT COURT;800 9TH STREET;WHEATLAND;WY;82201;3073223857
USPO - WORLAND;119 NORTH 7TH STREET;WORLAND;WY;82401;3073473321
USPO - YELLOWSTONE NATIONAL PARK;114 ALBRIGHT AVE;YELLOWSTONE NATIONAL PARK;WY;82190;3073447764
