facilityName;streetAdress;city;state;zipCode;publicPhone
ARKADELPHIA MAIN POST OFFICE;615 CRITTENDEN ST.;ARKADELPHIA;AR;71923;8702466715
BATESVILLE MAIN POST OFFICE;490 E COLLEGE ST;BATESVILLE;AR;72501;8707936828
BENTON POST OFFICE;1425 MILITARY RD;BENTON;AR;72015;5013152950
BOB HERZFELD MEMORIAL LIBRARY;1800 SMITHERS DR;BENTON;AR;72015;5017784766
SALINE COUNTY CIRCUIT CLERK;200 NORTH MAIN;BENTON;AR;72015;5013035615
BENTONVILLE POST OFFICE;1706 S. WALTON BLVD.;BENTONVILLE;AR;72712;4792732722
CLERK OF CIRCUIT COURT BENTON COUNTY;105 NE A ST;BENTONVILLE;AR;72712;4792711015
CARROLL COUNTY CLERK;210 WEST CHURCH ST;BERRYVILLE;AR;72616;8704232022
BLYTHEVILLE POST OFFICE;600 N. BROADWAY ST.;BLYTHEVILLE;AR;72315;8707633690
MABEL BOSWELL MEMORIAL LIBRARY;201 PRICKETT RD;BRYANT;AR;72022;5018472166
CABOT POST OFFICE;200 E MAIN ST;CABOT;AR;72023;5019412531
CAMDEN MAIN POST OFFICE;351 W WASHINGTON ST SUITE 100;CAMDEN;AR;71701;8708368146
CLARKSVILLE POST OFFICE;200 W. SEVIER ST.;CLARKSVILLE;AR;72830;4797542205
CLINTON POST OFFICE;145 VOLUNTEER PKWY.;CLINTON;AR;72031;5017452171
CONWAY POST OFFICE;1060 HOGAN LN;CONWAY;AR;72034;5017300351
FAULKNER COUNTY CLERK;801 LOCUST AVE;CONWAY;AR;72034;5014504909
DANVILLE POST OFFICE;407 E. 8TH STREET;DANVILLE;AR;72833;4794952820
DEQUEEN POST OFFICE;105 N. 4TH ST.;DEQUEEN;AR;71832;8705843234
DEWITT POST OFFICE;221 W. CROSS ST.;DEWITT;AR;72042;8709464356
EL DORADO MAIN POST OFFICE;550 S. TIMBERLANE DR.;EL DORADO;AR;71730;8708637571
FARMINGTON MAIN POST OFFICE;190 W. CIMARRON PL.;FARMINGTON;AR;72730;4792673787
CRAFT STATION POST OFFICE;1590 E JOYCE BLVD;FAYETTEVILLE;AR;72703;4799730875
FAYETTEVILLE MAIN POST OFFICE;12 W. DICKSON STREET;FAYETTEVILLE;AR;72701;4794428286
UNIVERSITY OF ARKANSAS - STUDENT UNION;435 N GARLAND AVE;FAYETTEVILLE;AR;72701;4795755649
FORREST CITY MAIN POST OFFICE;621 EAST BROADWAY;FORREST CITY;AR;72335;8706334238
FORT SMITH MAIN POST OFFICE;3318 S. 74TH STREET;FORT SMITH;AR;72903;4794846431
GENTRY MAIN POST OFFICE;899 W. MAIN ST.;GENTRY;AR;72734;4797362332
GREENWOOD POST OFFICE;450 E ATLANTA ST;GREENWOOD;AR;72936;4799964269
ASHLEY COUNTY CIRCUIT CLERKS OFFICE;205 E. JEFFERSON;HAMBURG;AR;71646;8708532030
HARDY POST OFFICE;300 HWY 63 N.;HARDY;AR;72542;8708563720
HARRISON POST OFFICE;215 W INDUSTRIAL PARK RD;HARRISON;AR;72601;8707413473
CLEBURNE COUNTY CIRCUIT CLERK;301 W MAIN ST;HEBER SPRINGS;AR;72543;5013628149
HELENA POST OFFICE;617 WALNUT ST.103;HELENA;AR;72342;8703387821
HOPE POST OFFICE;121 S LAUREL ST;HOPE;AR;71801;8707773580
HOT SPRINGS MAIN POST OFFICE;335 SECTION LINE RD;HOT SPRINGS;AR;71913;5015250558
JACKSONVILLE POST OFFICE;1205 WEST MAIN ST.;JACKSONVILLE;AR;72076;5019823076
HATTIE W. CARAWAY STATION;2404 RACE STREET;JONESBORO;AR;72401;8709720275
LAKE VILLAGE POST OFFICE;206 S COKLEY ST;LAKE VILLAGE;AR;71653;8702652838
LAFAYETTE COUNTY CIRCUIT CLERK;116 E. THIRD ST;LEWISVILLE;AR;71845;8709214878
LITTLE ROCK MAIN POST OFFICE;600 E CAPITOL AVE;LITTLE ROCK;AR;72202;5013752644
MABELVALE POST OFFICE;10715 MABELVALE  WEST RD.;MABELVALE;AR;72103;5014552318
MAGNOLIA POST OFFICE;120 N PINE ST;MAGNOLIA;AR;71753;8702342900
MCCRORY POST OFFICE;203 N. EDMONDS;MCCRORY;AR;72101;8707312771
MENA MAIN POST OFFICE;400 S. MORROW;MENA;AR;71953;4793942884
MOUNTAIN HOME MAIN POST OFFICE;975 COLEY DR.;MOUNTAIN HOME;AR;72653;8704253262
MOUNTAIN VIEW POST OFFICE;802 SYLAMORE AVE.;MOUNTAIN VIEW;AR;72560;8702693520
NASHVILLE POST OFFICE;220 N. MAIN ST.;NASHVILLE;AR;71852;8708454040
NEWPORT POST OFFICE;110 LAUREL ST.;NEWPORT;AR;72112;8705232271
NORTH LITTLE ROCK MAIN POST OFFICE;300 WEST PERSHING BLVD;NORTH LITTLE ROCK;AR;72114;5017583290
WILLIAM F LAMAN PUBLIC LIBRARY;2801 ORANGE ST;NORTH LITTLE ROCK;AR;72114;5014042937
MISSISSIPPI CO LIBRARY SYSTEM - OSCEOLA BRANCH;320 WEST HALE AVE;OSCEOLA;AR;72370;8705632721
PARAGOULD POST OFFICE;201 WEST COURT ST.;PARAGOULD;AR;72450;8702367636
PEA RIDGE POST OFFICE;468 N CURTIS AVE;PEA RIDGE;AR;72751;4794511636
PINE BLUFF MAIN POST OFFICE;100 EAST 8TH AVE.;PINE BLUFF;AR;71601;8705363535
ROGERS POST OFFICE;401 N. 8TH ST.;ROGERS;AR;72756;4796363301
POPE COUNTY CIRCUIT CLERK;100 WEST MAIN ST;RUSSELLVILLE;AR;72802;4799687499
RUSSELLVILLE MAIN POST OFFICE;203 SOUTH BOSTON AVE.;RUSSELLVILLE;AR;72801;4799684112
SEARCY MAIN POST OFFICE;600 WEST ACADEMY AVE;SEARCY;AR;72143;5012683840
SILOAM SPRINGS POST OFFICE;828 S. CARL ST.;SILOAM SPRINGS;AR;72761;4795243431
SPRINGDALE MAIN POST OFFICE;2811 SPRINGDALE AVE;SPRINGDALE;AR;72764;4797514441
TRUMANN POST OFFICE;301 HWY 463 S;TRUMANN;AR;72472;8704835911
CRAWFORD COUNTY CIRCUIT CLERK;317 MAIN ST;VAN BUREN;AR;72956;4794741821
VAN BUREN MAIN POST OFFICE;2741 FAYETTEVILLE RD;VAN BUREN;AR;72956;4794710281
WALDRON MAIN OFFICE;368 WASHINGTON ST;WALDRON;AR;72958;4796373287
WEST MEMPHIS POST OFFICE;615 E COOPER AVE;WEST MEMPHIS;AR;72301;8707350854
WYNNE POST OFFICE;402 MERRIMAN AVE E;WYNNE;AR;72396;8702382131
